{"type": "FeatureCollection", "features": [{"type": "Feature", "geometry": {"type": "MultiPolygon", "coordinates": [[[[-117.044547759, 46.342254148], [-117.0425084, 46.342267461], [-117.040578599, 46.342055103], [-117.03850628, 46.341892714], [-117.036775062, 46.34170699], [-117.035059585, 46.341499247], [-117.033708056, 46.341130798], [-117.03272462, 46.340860016], [-117.031263496, 46.34039433], [-117.030176625, 46.339929996], [-117.029077823, 46.339373779], [-117.028017214, 46.33882895], [-117.027637307, 46.338612292], [-117.026750793, 46.33788823], [-117.026399376, 46.33765062], [-117.02670663, 46.334839114], [-117.030008734, 46.334857927], [-117.029996745, 46.334794941], [-117.02995842, 46.334715968], [-117.027994255, 46.332918353], [-117.027778812, 46.332641382], [-117.027584852, 46.332224432], [-117.027244398, 46.331133895], [-117.027133235, 46.330934791], [-117.027492753, 46.327643825], [-117.032872788, 46.327664349], [-117.03293858, 46.331264589], [-117.038188184, 46.331297386], [-117.040606055, 46.331279951], [-117.048589488, 46.33121338], [-117.048655044, 46.334832923], [-117.05270441, 46.33479461], [-117.059471187, 46.334730265], [-117.059557515, 46.338339181], [-117.059570156, 46.344684411], [-117.059819822, 46.344568376], [-117.060103585, 46.344697905], [-117.060330025, 46.344839393], [-117.060750486, 46.345149735], [-117.061173058, 46.345451314], [-117.059696196, 46.345374326], [-117.059571313, 46.345265009], [-117.059571518, 46.345367826], [-117.054878929, 46.345123071], [-117.0545182, 46.344951098], [-117.053857141, 46.344664435], [-117.053688501, 46.344587426], [-117.053518189, 46.344517449], [-117.051994762, 46.343856794], [-117.051727033, 46.343775942], [-117.051676167, 46.343760581], [-117.051666054, 46.343756426], [-117.051476937, 46.343700414], [-117.050881349, 46.343520547], [-117.049226575, 46.34292823], [-117.047891819, 46.342708177], [-117.046255073, 46.342423338], [-117.044547759, 46.342254148]]], [[[-117.061987, 46.384596], [-117.061755392, 46.386724701], [-117.061903627, 46.386716149], [-117.062193627, 46.386726149], [-117.062523627, 46.386756149], [-117.062616627, 46.386773149], [-117.062875627, 46.386829149], [-117.063135627, 46.386927149], [-117.063345627, 46.387048149], [-117.063414659, 46.38710255], [-117.06348, 46.386502], [-117.067362, 46.386705], [-117.067781, 46.382858], [-117.074248, 46.383194], [-117.073762, 46.38767], [-117.069879, 46.387468], [-117.069723457, 46.388899515], [-117.069843629, 46.388876148], [-117.070223629, 46.388836148], [-117.070473629, 46.388826148], [-117.070783629, 46.388836148], [-117.071063629, 46.388886148], [-117.071603629, 46.389006148], [-117.07226363, 46.389186148], [-117.07250363, 46.389236148], [-117.07270363, 46.389246148], [-117.072790883, 46.389243334], [-117.07301363, 46.389236148], [-117.07334363, 46.389196148], [-117.07361363, 46.389146148], [-117.07380363, 46.389086148], [-117.07403363, 46.389006148], [-117.07472363, 46.388686148], [-117.07495363, 46.388586148], [-117.07514363, 46.388526148], [-117.07534063, 46.388490148], [-117.07536363, 46.388486148], [-117.07540363, 46.388476148], [-117.07543363, 46.388476148], [-117.07606363, 46.388426148], [-117.07622363, 46.388426148], [-117.07641363, 46.388426148], [-117.07674363, 46.388456148], [-117.07680363, 46.388466148], [-117.07698363, 46.388496148], [-117.07724363, 46.388556148], [-117.07755363, 46.388686148], [-117.077903631, 46.388816148], [-117.078018631, 46.388847148], [-117.078193631, 46.388896148], [-117.078443631, 46.388936148], [-117.079313631, 46.388966147], [-117.079489631, 46.388963147], [-117.079527752, 46.388962607], [-117.079693, 46.38744], [-117.077172, 46.387309], [-117.077658, 46.382833], [-117.084126, 46.383169], [-117.083785, 46.386311], [-117.086306, 46.386442], [-117.085821, 46.390917], [-117.082693632, 46.390755048], [-117.082693632, 46.391919147], [-117.082693632, 46.392666147], [-117.082693632, 46.393364147], [-117.082693633, 46.393626147], [-117.082693633, 46.393856147], [-117.082693633, 46.394366148], [-117.082693633, 46.395296148], [-117.082690633, 46.395458148], [-117.082683633, 46.395926148], [-117.082663633, 46.396156148], [-117.082663633, 46.396168148], [-117.082655633, 46.396204148], [-117.082653633, 46.396216148], [-117.082613633, 46.396416148], [-117.082486633, 46.396653148], [-117.082373633, 46.396866148], [-117.082283633, 46.397046148], [-117.082073633, 46.397446148], [-117.082063633, 46.397476148], [-117.081834633, 46.397913148], [-117.081643633, 46.398306148], [-117.081623633, 46.398336148], [-117.081583633, 46.398416148], [-117.081463633, 46.398656148], [-117.081423633, 46.398736148], [-117.081291633, 46.398999148], [-117.081182808, 46.399216251], [-117.083662, 46.399345], [-117.083176, 46.403821], [-117.076706, 46.403485], [-117.076905665, 46.401646105], [-117.075483633, 46.401546149], [-117.075307054, 46.401520182], [-117.075072, 46.403685], [-117.069090014, 46.403374344], [-117.069073632, 46.40363615], [-117.069073632, 46.40435815], [-117.069073632, 46.40487615], [-117.069083633, 46.40599615], [-117.069083633, 46.40652315], [-117.069083633, 46.40724615], [-117.070139633, 46.40723715], [-117.070313633, 46.40723615], [-117.070835307, 46.40723615], [-117.071113633, 46.40723615], [-117.071633633, 46.40722615], [-117.073023634, 46.407216149], [-117.073273634, 46.407216149], [-117.073310634, 46.407216149], [-117.074153634, 46.407236149], [-117.074303634, 46.407246149], [-117.074363634, 46.407266149], [-117.074363634, 46.407990149], [-117.074363634, 46.408766149], [-117.074363634, 46.40973615], [-117.074353634, 46.41016215], [-117.074343634, 46.41062615], [-117.074363635, 46.41073615], [-117.074463635, 46.41084615], [-117.074504635, 46.41084615], [-117.074630635, 46.41084615], [-117.074672635, 46.41084615], [-117.074903635, 46.41084615], [-117.075115635, 46.41086915], [-117.075173635, 46.41087615], [-117.075673635, 46.410966149], [-117.076273635, 46.411116149], [-117.076415635, 46.411169149], [-117.076433635, 46.411176149], [-117.076753635, 46.411346149], [-117.076803635, 46.411386149], [-117.077133635, 46.411596149], [-117.077173635, 46.411626149], [-117.077519635, 46.411860149], [-117.077853635, 46.412086149], [-117.078123636, 46.412286149], [-117.078203636, 46.412396149], [-117.078323636, 46.412606149], [-117.078453636, 46.412956149], [-117.078573636, 46.413236149], [-117.078633636, 46.413346149], [-117.078663636, 46.413386149], [-117.078763636, 46.413556149], [-117.078873636, 46.413676149], [-117.079043636, 46.413826149], [-117.079061636, 46.413840149], [-117.079343636, 46.414056149], [-117.079483636, 46.414186149], [-117.079583636, 46.414296149], [-117.079653636, 46.414446149], [-117.079613636, 46.414446149], [-117.079323636, 46.414486149], [-117.079013636, 46.414566149], [-117.078718636, 46.414629149], [-117.076883636, 46.41502615], [-117.076333636, 46.41512615], [-117.076163636, 46.41513615], [-117.075973636, 46.41511615], [-117.075908636, 46.41509915], [-117.075773636, 46.41506615], [-117.075503636, 46.41498615], [-117.075013635, 46.41477615], [-117.074879635, 46.41472415], [-117.074479635, 46.41456915], [-117.074443635, 46.41455615], [-117.074343635, 46.41452615], [-117.074336635, 46.41487715], [-117.074333635, 46.41503615], [-117.074333635, 46.41508515], [-117.074333635, 46.41538615], [-117.074333636, 46.41550615], [-117.074338636, 46.41593315], [-117.074343636, 46.41628615], [-117.074343636, 46.41664515], [-117.074343636, 46.41669615], [-117.074343636, 46.41704615], [-117.074343636, 46.41733615], [-117.074352636, 46.41772415], [-117.074353636, 46.41774615], [-117.074303636, 46.41790615], [-117.074223636, 46.41798615], [-117.074174636, 46.41801515], [-117.074123636, 46.41804615], [-117.073967636, 46.41810115], [-117.073953636, 46.41810615], [-117.073863636, 46.41812615], [-117.073750126, 46.418123153], [-117.073295636, 46.41811115], [-117.073070636, 46.41810615], [-117.072503636, 46.41809615], [-117.07247669, 46.41809615], [-117.072161, 46.420997], [-117.069205412, 46.420843101], [-117.069231636, 46.421022151], [-117.069253636, 46.421166151], [-117.069253636, 46.421216151], [-117.069287389, 46.421465922], [-117.069303636, 46.421586151], [-117.069325636, 46.421648151], [-117.069453636, 46.421996151], [-117.069573636, 46.422236151], [-117.069793636, 46.422546151], [-117.070088636, 46.422887151], [-117.070113636, 46.422916151], [-117.070443636, 46.423226151], [-117.070636636, 46.423377151], [-117.071217637, 46.423828151], [-117.071411637, 46.423979151], [-117.071635637, 46.424186151], [-117.071803637, 46.424342151], [-117.072158637, 46.424675151], [-117.072212637, 46.424723151], [-117.070791637, 46.425451151], [-117.068747405, 46.426427355], [-117.068387637, 46.426599151], [-117.067550637, 46.426999152], [-117.065170636, 46.427634152], [-117.061569636, 46.428780152], [-117.058259635, 46.429652153], [-117.057928635, 46.429739153], [-117.055435635, 46.429879153], [-117.053575635, 46.429983153], [-117.052930635, 46.430020153], [-117.048336633, 46.429156154], [-117.043811632, 46.427391154], [-117.042652263, 46.42696052], [-117.041878632, 46.426673154], [-117.040449631, 46.426142154], [-117.039779631, 46.425893154], [-117.039765839, 46.425857225], [-117.039765888, 46.425150825], [-117.037234714, 46.423161442], [-117.036533841, 46.42101026], [-117.036064247, 46.418187072], [-117.03496744, 46.416335028], [-117.034996624, 46.416101143], [-117.035258551, 46.414001917], [-117.035305666, 46.411323958], [-117.035436107, 46.410676343], [-117.035642089, 46.409642813], [-117.035718901, 46.409419625], [-117.036908153, 46.407836297], [-117.03723743, 46.407314711], [-117.037370627, 46.407231153], [-117.037452627, 46.407120153], [-117.037944627, 46.406487153], [-117.038364627, 46.405823153], [-117.038583627, 46.405488153], [-117.038718627, 46.405001153], [-117.038872626, 46.404007153], [-117.038958174, 46.403639128], [-117.038970278, 46.403605843], [-117.038973671, 46.403572457], [-117.039021626, 46.403366153], [-117.039141626, 46.402611153], [-117.039249626, 46.401932152], [-117.039332626, 46.401413152], [-117.039405626, 46.400952152], [-117.039449694, 46.400755316], [-117.039757123, 46.400003373], [-117.039797626, 46.399931152], [-117.040540626, 46.398555152], [-117.040588958, 46.39838944], [-117.040610626, 46.398315152], [-117.040930625, 46.397376152], [-117.041457625, 46.396041152], [-117.041504625, 46.395948152], [-117.041909625, 46.394925152], [-117.041864625, 46.393822152], [-117.0418643, 46.393813382], [-117.042168878, 46.392520072], [-117.042619648, 46.39016354], [-117.042806624, 46.389638151], [-117.043222624, 46.388558151], [-117.043534516, 46.387770446], [-117.044290391, 46.386428042], [-117.045186139, 46.383338321], [-117.04629362, 46.381131868], [-117.046747171, 46.380707052], [-117.047697716, 46.380756711], [-117.0478119, 46.379709743], [-117.048310116, 46.379243058], [-117.048339062, 46.379215949], [-117.050402846, 46.377282667], [-117.050412453, 46.377273669], [-117.052499195, 46.375318705], [-117.052990805, 46.374701121], [-117.055193623, 46.374695149], [-117.056278624, 46.374686149], [-117.056193624, 46.374766149], [-117.056109624, 46.374857149], [-117.055893624, 46.375096149], [-117.056043624, 46.375176149], [-117.056223624, 46.375296149], [-117.056333624, 46.375396149], [-117.056383624, 46.375526149], [-117.056393624, 46.375556149], [-117.056404624, 46.375640149], [-117.056413624, 46.375706149], [-117.056413624, 46.375776149], [-117.056383624, 46.375896149], [-117.056353624, 46.376026149], [-117.056295624, 46.376191149], [-117.056063624, 46.376866149], [-117.055993624, 46.377066149], [-117.055896624, 46.377419149], [-117.055863624, 46.377576149], [-117.055843624, 46.377776149], [-117.055863624, 46.377976149], [-117.055893624, 46.378196149], [-117.056033624, 46.378626149], [-117.056273624, 46.379176149], [-117.056363625, 46.379446149], [-117.056383625, 46.379486149], [-117.056483625, 46.379736149], [-117.056573625, 46.380016149], [-117.056584625, 46.380072149], [-117.056613625, 46.380216149], [-117.056593625, 46.380686149], [-117.056573625, 46.380786149], [-117.056553625, 46.380876149], [-117.056493625, 46.381086149], [-117.05648644, 46.38121548], [-117.056483625, 46.381266149], [-117.056493625, 46.381416149], [-117.056493625, 46.381466149], [-117.056523625, 46.381606149], [-117.056646625, 46.381787149], [-117.056693625, 46.381856149], [-117.057223625, 46.382606149], [-117.057345625, 46.382808149], [-117.057543626, 46.383136149], [-117.057558626, 46.383162149], [-117.057573626, 46.383190149], [-117.057618626, 46.383277149], [-117.057633626, 46.383306149], [-117.057723626, 46.383486149], [-117.057803626, 46.383626149], [-117.057883626, 46.383786149], [-117.057933626, 46.384066149], [-117.057983626, 46.384346149], [-117.057993626, 46.384376149], [-117.057993626, 46.384387902], [-117.061987, 46.384596]]]]}, "properties": {}}]}