{"type": "FeatureCollection", "features": [{"type": "Feature", "geometry": {"type": "MultiPolygon", "coordinates": [[[[-119.789406141, 46.185983458], [-119.78940614, 46.185983458], [-119.789406139, 46.185983458], [-119.789406138, 46.185983459], [-119.789406137, 46.185983459], [-119.789406136, 46.18598346], [-119.789406135, 46.18598346], [-119.789406134, 46.185983461], [-119.789406134, 46.185983462], [-119.789406133, 46.185983462], [-119.789406132, 46.185983463], [-119.789406132, 46.185983464], [-119.789406132, 46.185983465], [-119.789406131, 46.185983466], [-119.789406131, 46.185983467], [-119.789406131, 46.185983468], [-119.789305623, 46.191186565], [-119.789296194, 46.191325356], [-119.789157234, 46.191331958], [-119.785130702, 46.19132777], [-119.783805089, 46.191326392], [-119.777861829, 46.191320211], [-119.774513743, 46.191316729], [-119.764221347, 46.191306026], [-119.764149664, 46.191305951], [-119.758299702, 46.191299868], [-119.758299701, 46.191299868], [-119.7582997, 46.191299868], [-119.758299699, 46.191299868], [-119.758299698, 46.191299869], [-119.758299697, 46.191299869], [-119.758299696, 46.19129987], [-119.758299695, 46.191299871], [-119.758299694, 46.191299872], [-119.758299693, 46.191299873], [-119.758299693, 46.191299874], [-119.758299693, 46.191299875], [-119.758299692, 46.191299876], [-119.758299692, 46.191299877], [-119.758299692, 46.191299878], [-119.758183993, 46.199456895], [-119.758175119, 46.199597602], [-119.758152352, 46.199603152], [-119.756405142, 46.199594627], [-119.756405141, 46.199594627], [-119.75640514, 46.199594627], [-119.756405139, 46.199594627], [-119.756405138, 46.199594627], [-119.756405137, 46.199594628], [-119.756405136, 46.199594628], [-119.756405136, 46.199594629], [-119.756405135, 46.19959463], [-119.756405134, 46.19959463], [-119.756405134, 46.199594631], [-119.756405133, 46.199594632], [-119.756405133, 46.199594633], [-119.756405132, 46.199594634], [-119.756405132, 46.199594635], [-119.756405132, 46.199594636], [-119.756405132, 46.199594637], [-119.756392828, 46.200263994], [-119.756390956, 46.200264867], [-119.756247106, 46.200271835], [-119.75359115, 46.200271523], [-119.751187412, 46.200271242], [-119.747955276, 46.200283424], [-119.747955275, 46.200283424], [-119.747955274, 46.200283424], [-119.747955273, 46.200283424], [-119.747955272, 46.200283424], [-119.747955272, 46.200283425], [-119.747955271, 46.200283425], [-119.74795527, 46.200283426], [-119.747955269, 46.200283427], [-119.747955268, 46.200283428], [-119.747955268, 46.200283429], [-119.747955267, 46.20028343], [-119.747955267, 46.200283431], [-119.747955267, 46.200283432], [-119.747955266, 46.200283432], [-119.747955266, 46.200283433], [-119.747918062, 46.201652766], [-119.747838936, 46.204565091], [-119.747832348, 46.204582368], [-119.747828839, 46.204586139], [-119.746537063, 46.204589406], [-119.746537062, 46.204589406], [-119.746537061, 46.204589406], [-119.74653706, 46.204589407], [-119.746537059, 46.204589407], [-119.746537058, 46.204589407], [-119.746537057, 46.204589408], [-119.746537056, 46.204589409], [-119.746537055, 46.20458941], [-119.746537055, 46.204589411], [-119.746537054, 46.204589411], [-119.746537054, 46.204589412], [-119.746537053, 46.204589413], [-119.746537053, 46.204589414], [-119.746537053, 46.204589415], [-119.746537053, 46.204589416], [-119.746514425, 46.205870579], [-119.746507832, 46.205871693], [-119.746218853, 46.20592054], [-119.746138435, 46.205934622], [-119.746060612, 46.205952916], [-119.744674569, 46.206278575], [-119.742639207, 46.206751864], [-119.742512407, 46.206781347], [-119.742535862, 46.204239736], [-119.742535862, 46.204239735], [-119.742535862, 46.204239734], [-119.742535862, 46.204239733], [-119.742535861, 46.204239733], [-119.742535861, 46.204239732], [-119.74253586, 46.204239731], [-119.74253586, 46.20423973], [-119.742535859, 46.204239729], [-119.742535858, 46.204239729], [-119.742535857, 46.204239728], [-119.742535857, 46.204239727], [-119.742535856, 46.204239727], [-119.742535855, 46.204239727], [-119.742535854, 46.204239726], [-119.742535853, 46.204239726], [-119.742535852, 46.204239726], [-119.740013961, 46.204298424], [-119.740020034, 46.203641478], [-119.740020034, 46.203641477], [-119.740020034, 46.203641476], [-119.740020034, 46.203641475], [-119.740020033, 46.203641474], [-119.740020033, 46.203641473], [-119.740020032, 46.203641473], [-119.740020032, 46.203641472], [-119.740020031, 46.203641471], [-119.74002003, 46.20364147], [-119.740020029, 46.203641469], [-119.740020028, 46.203641469], [-119.740020027, 46.203641469], [-119.740020026, 46.203641468], [-119.740020025, 46.203641468], [-119.740020024, 46.203641468], [-119.73758814, 46.203698051], [-119.737587926, 46.203697176], [-119.737582066, 46.203547738], [-119.737588306, 46.202978671], [-119.737598066, 46.202088536], [-119.737607498, 46.201925376], [-119.737608679, 46.201787908], [-119.737614679, 46.201686685], [-119.737634028, 46.201360291], [-119.737634037, 46.201360146], [-119.738373367, 46.188878129], [-119.738373423, 46.188877183], [-119.738389114, 46.188734418], [-119.738532574, 46.188741293], [-119.739032658, 46.188790557], [-119.739056073, 46.188792864], [-119.739079505, 46.188794987], [-119.740137041, 46.188890797], [-119.740314467, 46.188912218], [-119.741006518, 46.189016772], [-119.741060073, 46.189024863], [-119.741113765, 46.189031986], [-119.741842736, 46.189128693], [-119.742251073, 46.189182863], [-119.742577073, 46.189207863], [-119.743148053, 46.189158551], [-119.743288968, 46.189146381], [-119.743677074, 46.189112863], [-119.743967074, 46.189088863], [-119.746423074, 46.188841863], [-119.746953074, 46.188675863], [-119.747087074, 46.188634863], [-119.747992074, 46.188301863], [-119.747998074, 46.186621863], [-119.748000994, 46.186115666], [-119.748006382, 46.186106613], [-119.748065783, 46.186061669], [-119.748123187, 46.18602626], [-119.748261229, 46.186014461], [-119.749753927, 46.185956935], [-119.750047505, 46.18594562], [-119.750119074, 46.185942862], [-119.750190557, 46.185938396], [-119.751613202, 46.185849519], [-119.752488074, 46.185794862], [-119.753083075, 46.185758862], [-119.753429075, 46.185729862], [-119.754163075, 46.185668862], [-119.754240075, 46.185661862], [-119.754343075, 46.185653862], [-119.754472075, 46.185634862], [-119.754550075, 46.185624862], [-119.754488075, 46.185360862], [-119.754581075, 46.184916862], [-119.754841795, 46.184660531], [-119.754882266, 46.184631342], [-119.755013501, 46.1845556], [-119.755089756, 46.184516601], [-119.755233015, 46.184443333], [-119.755361545, 46.184385075], [-119.755494993, 46.184339188], [-119.755737803, 46.184268314], [-119.756090238, 46.184188462], [-119.756344926, 46.184147809], [-119.756747887, 46.18411119], [-119.756929496, 46.184107007], [-119.757065652, 46.184110072], [-119.757110318, 46.184115166], [-119.757520075, 46.184219861], [-119.758093075, 46.184344861], [-119.758842075, 46.184303861], [-119.759506075, 46.184157861], [-119.759863481, 46.184012682], [-119.759912654, 46.184001142], [-119.760066923, 46.183997527], [-119.764571157, 46.184125232], [-119.764571559, 46.184125243], [-119.790295747, 46.184851133], [-119.790438231, 46.184862303], [-119.79043706, 46.185005218], [-119.79038879, 46.185833489], [-119.790372559, 46.185982263], [-119.790371225, 46.185984634], [-119.789406141, 46.185983458]]], [[[-119.745153796, 46.208717642], [-119.745153795, 46.208717643], [-119.745153794, 46.208717643], [-119.745153793, 46.208717643], [-119.745153793, 46.208717644], [-119.745153792, 46.208717644], [-119.745153791, 46.208717645], [-119.74515379, 46.208717646], [-119.74515379, 46.208717647], [-119.745153789, 46.208717647], [-119.745153789, 46.208717648], [-119.745153789, 46.208717649], [-119.745153788, 46.20871765], [-119.745153788, 46.208717651], [-119.745153788, 46.208717652], [-119.745138831, 46.209326389], [-119.741584441, 46.210491796], [-119.73992112, 46.210760813], [-119.739494068, 46.210829877], [-119.739494067, 46.210829878], [-119.739494066, 46.210829878], [-119.739494065, 46.210829878], [-119.739494064, 46.210829879], [-119.739494063, 46.210829879], [-119.739494062, 46.21082988], [-119.739494062, 46.210829881], [-119.739494061, 46.210829882], [-119.73949406, 46.210829882], [-119.73949406, 46.210829883], [-119.73949406, 46.210829884], [-119.739494059, 46.210829885], [-119.739494059, 46.210829886], [-119.739494059, 46.210829887], [-119.739507563, 46.211934239], [-119.739507563, 46.21193424], [-119.739507563, 46.211934241], [-119.739507563, 46.211934242], [-119.739507564, 46.211934243], [-119.739507564, 46.211934244], [-119.739507565, 46.211934245], [-119.739507565, 46.211934246], [-119.739507566, 46.211934247], [-119.739507567, 46.211934247], [-119.739507568, 46.211934248], [-119.739507569, 46.211934248], [-119.73950757, 46.211934249], [-119.739507571, 46.211934249], [-119.739507572, 46.211934249], [-119.745051159, 46.212692281], [-119.7450464, 46.212931431], [-119.742045975, 46.212928298], [-119.742045974, 46.212928298], [-119.742045973, 46.212928299], [-119.742045972, 46.212928299], [-119.742045971, 46.212928299], [-119.74204597, 46.2129283], [-119.742045969, 46.2129283], [-119.742045968, 46.212928301], [-119.742045967, 46.212928301], [-119.742045967, 46.212928302], [-119.742045966, 46.212928303], [-119.742045966, 46.212928304], [-119.742045965, 46.212928305], [-119.742045965, 46.212928306], [-119.742045965, 46.212928307], [-119.742045965, 46.212928308], [-119.742045965, 46.212928309], [-119.742080697, 46.214005778], [-119.742080697, 46.214005779], [-119.742080697, 46.21400578], [-119.742080698, 46.214005781], [-119.742080698, 46.214005782], [-119.742080699, 46.214005783], [-119.742080699, 46.214005784], [-119.7420807, 46.214005785], [-119.742080701, 46.214005785], [-119.742080702, 46.214005786], [-119.742080703, 46.214005787], [-119.742080704, 46.214005787], [-119.742080705, 46.214005787], [-119.742080706, 46.214005787], [-119.742080707, 46.214005787], [-119.747487317, 46.213989744], [-119.747553008, 46.213989552], [-119.747644883, 46.213992237], [-119.7476812, 46.213996852], [-119.747722368, 46.214005261], [-119.747762058, 46.214016582], [-119.747799802, 46.21403073], [-119.747835206, 46.214047535], [-119.747850473, 46.214056544], [-119.747884722, 46.214082447], [-119.747909611, 46.214107657], [-119.74778156, 46.214138141], [-119.736902626, 46.216179386], [-119.736761604, 46.216198547], [-119.736762854, 46.216056235], [-119.737261943, 46.207637037], [-119.737278277, 46.207488314], [-119.737278925, 46.207486293], [-119.737539045, 46.207472099], [-119.737541126, 46.208005829], [-119.737541126, 46.20800583], [-119.737541126, 46.208005831], [-119.737541127, 46.208005832], [-119.737541127, 46.208005833], [-119.737541128, 46.208005834], [-119.737541128, 46.208005835], [-119.737541129, 46.208005836], [-119.73754113, 46.208005836], [-119.73754113, 46.208005837], [-119.737541131, 46.208005837], [-119.737541132, 46.208005838], [-119.737541133, 46.208005838], [-119.737541134, 46.208005838], [-119.737541135, 46.208005838], [-119.737541136, 46.208005839], [-119.737541137, 46.208005839], [-119.737920737, 46.207978456], [-119.738808428, 46.207914416], [-119.738839879, 46.207912148], [-119.73888537, 46.207908866], [-119.738945737, 46.20790406], [-119.738966224, 46.207902428], [-119.738966268, 46.207902425], [-119.738974012, 46.207901809], [-119.739155653, 46.207887373], [-119.739155654, 46.207887373], [-119.739634314, 46.207825998], [-119.740019194, 46.207776646], [-119.740019195, 46.207776646], [-119.740393387, 46.20769987], [-119.740782238, 46.207620083], [-119.740861719, 46.207603779], [-119.740940534, 46.20758528], [-119.743007287, 46.207099752], [-119.743224844, 46.207548757], [-119.743225237, 46.207591098], [-119.743225237, 46.207591099], [-119.743225237, 46.2075911], [-119.743225237, 46.207591101], [-119.743225238, 46.207591102], [-119.743225238, 46.207591103], [-119.743225239, 46.207591104], [-119.74322524, 46.207591105], [-119.743225241, 46.207591106], [-119.743225242, 46.207591106], [-119.743225242, 46.207591107], [-119.743225243, 46.207591107], [-119.743225244, 46.207591108], [-119.743225245, 46.207591108], [-119.743225246, 46.207591108], [-119.743225247, 46.207591108], [-119.746207821, 46.20753254], [-119.746213361, 46.20855126], [-119.746207076, 46.208696604], [-119.746206964, 46.208697394], [-119.745153798, 46.208717642], [-119.745153797, 46.208717642], [-119.745153796, 46.208717642]]], [[[-119.345778138, 46.21713602], [-119.345775316, 46.217129788], [-119.345815978, 46.216126684], [-119.345867406, 46.215365702], [-119.345867406, 46.215365701], [-119.345867406, 46.2153657], [-119.345867406, 46.215365699], [-119.34580338, 46.215045708], [-119.345803379, 46.215045707], [-119.345803379, 46.215045706], [-119.345803379, 46.215045705], [-119.345803378, 46.215045704], [-119.34528979, 46.214229852], [-119.345289789, 46.214229851], [-119.344565506, 46.21333816], [-119.344565505, 46.213338159], [-119.344565504, 46.213338158], [-119.344565503, 46.213338157], [-119.344565502, 46.213338157], [-119.344565501, 46.213338157], [-119.3445655, 46.213338156], [-119.344565499, 46.213338156], [-119.344565498, 46.213338156], [-119.327098661, 46.213332294], [-119.327094952, 46.213328946], [-119.327087241, 46.213185479], [-119.327061942, 46.207877668], [-119.327057246, 46.206892416], [-119.328679429, 46.206944555], [-119.33839675, 46.207256883], [-119.338543851, 46.207268975], [-119.33866724, 46.207349968], [-119.338792189, 46.207441212], [-119.338938364, 46.207547957], [-119.33901668, 46.207607136], [-119.339749335, 46.208179835], [-119.339971265, 46.208353312], [-119.340036027, 46.208405396], [-119.340562757, 46.208841165], [-119.340721189, 46.208972237], [-119.340780178, 46.209022335], [-119.34143593, 46.209593969], [-119.341514821, 46.20966524], [-119.342248965, 46.210352485], [-119.342329582, 46.210430837], [-119.343025069, 46.211132606], [-119.343103394, 46.211214687], [-119.343540976, 46.211690966], [-119.343759035, 46.211928309], [-119.343839148, 46.212019119], [-119.344389961, 46.212669488], [-119.344392008, 46.212671906], [-119.344394059, 46.212674321], [-119.344453576, 46.212744445], [-119.344530522, 46.212838929], [-119.344724476, 46.213087224], [-119.344725009, 46.213087905], [-119.344926037, 46.213345103], [-119.345109154, 46.213580164], [-119.345177183, 46.213670989], [-119.345790176, 46.214522514], [-119.345843009, 46.214595905], [-119.345896373, 46.214665511], [-119.34605506, 46.214893662], [-119.346331592, 46.215333404], [-119.346403599, 46.215454094], [-119.346651913, 46.215893364], [-119.346670644, 46.215926499], [-119.34671101, 46.215997905], [-119.346753312, 46.216068182], [-119.346907423, 46.216324205], [-119.34695901, 46.216409905], [-119.34712301, 46.216668905], [-119.34721301, 46.216794905], [-119.347398547, 46.217022367], [-119.347533838, 46.217188229], [-119.347618735, 46.217303681], [-119.34750908, 46.217395943], [-119.347260197, 46.217584868], [-119.347192123, 46.217636542], [-119.34718901, 46.217638906], [-119.3471859, 46.217641273], [-119.346892313, 46.217864735], [-119.346789585, 46.217941757], [-119.346641454, 46.218043095], [-119.346638068, 46.218044935], [-119.34642907, 46.217909437], [-119.346308532, 46.217779674], [-119.345969903, 46.217376941], [-119.345863977, 46.217250962], [-119.345780343, 46.21714161], [-119.345778138, 46.21713602]]], [[[-119.342075231, 46.256737416], [-119.342075231, 46.256737415], [-119.34207523, 46.256737414], [-119.34207523, 46.256737413], [-119.34207523, 46.256737412], [-119.342075229, 46.256737411], [-119.342075228, 46.25673741], [-119.342075228, 46.256737409], [-119.342075227, 46.256737409], [-119.342075226, 46.256737408], [-119.342075225, 46.256737408], [-119.342075224, 46.256737407], [-119.342075223, 46.256737407], [-119.342075222, 46.256737407], [-119.342075221, 46.256737407], [-119.34207522, 46.256737407], [-119.340216763, 46.25681318], [-119.338379991, 46.256823183], [-119.336012458, 46.256807391], [-119.335696209, 46.256817483], [-119.335696208, 46.256817483], [-119.335696207, 46.256817483], [-119.335452262, 46.25686545], [-119.335452261, 46.256865451], [-119.335235679, 46.256948751], [-119.335235679, 46.256948752], [-119.335235678, 46.256948752], [-119.335235677, 46.256948753], [-119.335235676, 46.256948753], [-119.33503501, 46.257137843], [-119.334979303, 46.257135002], [-119.334976754, 46.257134681], [-119.334595208, 46.257059204], [-119.334595207, 46.257059204], [-119.334595206, 46.257059204], [-119.334595205, 46.257059204], [-119.334595204, 46.257059204], [-119.334595203, 46.257059204], [-119.334595202, 46.257059205], [-119.334595201, 46.257059205], [-119.3345952, 46.257059206], [-119.334595199, 46.257059206], [-119.334595199, 46.257059207], [-119.334595198, 46.257059208], [-119.334595198, 46.257059209], [-119.334595197, 46.25705921], [-119.334595197, 46.257059211], [-119.334595196, 46.257059212], [-119.334595196, 46.257059213], [-119.334594909, 46.2570724], [-119.334594448, 46.257093509], [-119.334425798, 46.257076145], [-119.334279971, 46.257052694], [-119.333850046, 46.256983555], [-119.333850044, 46.256983554], [-119.333414642, 46.256977217], [-119.33208045, 46.256957796], [-119.331940544, 46.2569489], [-119.331935059, 46.256808819], [-119.331947026, 46.255588501], [-119.331966941, 46.25355768], [-119.331975261, 46.253415486], [-119.331980377, 46.2534117], [-119.342220284, 46.253363435], [-119.342220285, 46.253363435], [-119.342220286, 46.253363435], [-119.342220287, 46.253363435], [-119.342220288, 46.253363435], [-119.342220289, 46.253363434], [-119.34222029, 46.253363434], [-119.34222029, 46.253363433], [-119.342220291, 46.253363432], [-119.342220292, 46.253363432], [-119.342220292, 46.253363431], [-119.342220293, 46.25336343], [-119.342220293, 46.253363429], [-119.342220294, 46.253363428], [-119.342220294, 46.253363427], [-119.342220294, 46.253363426], [-119.342220294, 46.253363425], [-119.342176694, 46.252456021], [-119.342176693, 46.25245602], [-119.342176693, 46.252456019], [-119.342176693, 46.252456018], [-119.342176693, 46.252456017], [-119.342176692, 46.252456016], [-119.342176692, 46.252456015], [-119.342176691, 46.252456015], [-119.34217669, 46.252456014], [-119.34217669, 46.252456013], [-119.342176689, 46.252456013], [-119.342176688, 46.252456012], [-119.342176687, 46.252456012], [-119.342176686, 46.252456012], [-119.342176685, 46.252456011], [-119.342176684, 46.252456011], [-119.339557659, 46.252468996], [-119.339555891, 46.25156209], [-119.340996193, 46.251554599], [-119.342156839, 46.251548549], [-119.34215684, 46.251548549], [-119.342156841, 46.251548549], [-119.342156842, 46.251548548], [-119.342156843, 46.251548548], [-119.342156844, 46.251548548], [-119.342156845, 46.251548547], [-119.342156846, 46.251548546], [-119.342156847, 46.251548545], [-119.342156847, 46.251548544], [-119.342156848, 46.251548544], [-119.342156848, 46.251548543], [-119.342156849, 46.251548542], [-119.342156849, 46.251548541], [-119.342156849, 46.25154854], [-119.342215104, 46.251099916], [-119.342215104, 46.251099915], [-119.34221405, 46.250640666], [-119.342213213, 46.250275518], [-119.342213213, 46.250275517], [-119.342213213, 46.250275516], [-119.342213213, 46.250275515], [-119.342213212, 46.250275514], [-119.342213212, 46.250275513], [-119.342213211, 46.250275512], [-119.34221321, 46.250275511], [-119.34221321, 46.25027551], [-119.342213209, 46.25027551], [-119.342213208, 46.250275509], [-119.342213207, 46.250275509], [-119.342213206, 46.250275509], [-119.342213205, 46.250275508], [-119.342213204, 46.250275508], [-119.342213203, 46.250275508], [-119.34215392, 46.250275574], [-119.342152151, 46.249451489], [-119.342370897, 46.249228849], [-119.342892219, 46.248787291], [-119.34289222, 46.24878729], [-119.34289222, 46.248787289], [-119.342892221, 46.248787289], [-119.342892221, 46.248787288], [-119.342892222, 46.248787287], [-119.342892222, 46.248787286], [-119.342892222, 46.248787285], [-119.342955188, 46.248495194], [-119.343558885, 46.248104718], [-119.343558886, 46.248104717], [-119.343558887, 46.248104717], [-119.343558888, 46.248104716], [-119.34372449, 46.2479075], [-119.343724491, 46.247907499], [-119.343724492, 46.247907498], [-119.343724492, 46.247907497], [-119.343724492, 46.247907496], [-119.343724493, 46.247907495], [-119.343724493, 46.247907494], [-119.343724493, 46.247907493], [-119.343724492, 46.247907492], [-119.343724492, 46.247907491], [-119.343724492, 46.24790749], [-119.343724491, 46.247907489], [-119.343724491, 46.247907488], [-119.34372449, 46.247907488], [-119.34372449, 46.247907487], [-119.343724489, 46.247907486], [-119.343724488, 46.247907486], [-119.343724487, 46.247907485], [-119.343724486, 46.247907485], [-119.343724486, 46.247907484], [-119.343724485, 46.247907484], [-119.343724484, 46.247907484], [-119.343724483, 46.247907484], [-119.342367376, 46.247915402], [-119.342364041, 46.246491607], [-119.342362167, 46.245592843], [-119.344340402, 46.245533143], [-119.344340403, 46.245533143], [-119.344340404, 46.245533143], [-119.344340405, 46.245533142], [-119.344340406, 46.245533142], [-119.344340407, 46.245533142], [-119.344340408, 46.245533141], [-119.344340409, 46.245533141], [-119.344340409, 46.24553314], [-119.34434041, 46.245533139], [-119.344340411, 46.245533138], [-119.344340411, 46.245533137], [-119.344340412, 46.245533136], [-119.344340412, 46.245533135], [-119.344340412, 46.245533134], [-119.34437298, 46.245133399], [-119.34437298, 46.245133398], [-119.34437298, 46.245133397], [-119.34437298, 46.245133396], [-119.34437298, 46.245133395], [-119.34437298, 46.245133394], [-119.344372979, 46.245133393], [-119.344372979, 46.245133392], [-119.344372978, 46.245133391], [-119.344372977, 46.245133391], [-119.344372976, 46.24513339], [-119.344372976, 46.245133389], [-119.344372975, 46.245133389], [-119.344372974, 46.245133389], [-119.344372973, 46.245133388], [-119.344372972, 46.245133388], [-119.344372971, 46.245133388], [-119.344333518, 46.245131841], [-119.344366977, 46.244721174], [-119.344406429, 46.244722722], [-119.34440643, 46.244722722], [-119.344406431, 46.244722721], [-119.344406432, 46.244722721], [-119.344406433, 46.244722721], [-119.344406434, 46.244722721], [-119.344406435, 46.24472272], [-119.344406436, 46.244722719], [-119.344406437, 46.244722718], [-119.344406438, 46.244722718], [-119.344406438, 46.244722717], [-119.344406439, 46.244722716], [-119.344406439, 46.244722715], [-119.344406439, 46.244722714], [-119.344406439, 46.244722713], [-119.34440644, 46.244722712], [-119.344443541, 46.244267318], [-119.344912318, 46.243468697], [-119.344912318, 46.243468696], [-119.344912319, 46.243468696], [-119.344912319, 46.243468695], [-119.344912319, 46.243468694], [-119.344912319, 46.243468693], [-119.344912321, 46.243468693], [-119.345055089, 46.24322547], [-119.345204082, 46.24297148], [-119.345258986, 46.242986984], [-119.345258987, 46.242986984], [-119.345258988, 46.242986984], [-119.345258989, 46.242986984], [-119.34525899, 46.242986984], [-119.345258991, 46.242986984], [-119.345258992, 46.242986984], [-119.345258993, 46.242986984], [-119.345258994, 46.242986983], [-119.345258995, 46.242986983], [-119.345258996, 46.242986982], [-119.345258996, 46.242986981], [-119.345258997, 46.24298698], [-119.345258998, 46.24298698], [-119.345578173, 46.242442869], [-119.34557865, 46.242442056], [-119.345578651, 46.242442055], [-119.345578651, 46.242442054], [-119.345578651, 46.242442053], [-119.345578651, 46.242442052], [-119.345578652, 46.242442051], [-119.345578652, 46.24244205], [-119.345578651, 46.242442049], [-119.345578651, 46.242442048], [-119.345578651, 46.242442047], [-119.34557865, 46.242442046], [-119.34557865, 46.242442045], [-119.345578649, 46.242442045], [-119.345578649, 46.242442044], [-119.345578648, 46.242442043], [-119.345578647, 46.242442043], [-119.345578646, 46.242442042], [-119.345578645, 46.242442042], [-119.345578644, 46.242442041], [-119.345578643, 46.242442041], [-119.345578642, 46.242442041], [-119.345578641, 46.242442041], [-119.3423679, 46.242466003], [-119.328417356, 46.242555752], [-119.328417352, 46.242555752], [-119.326863277, 46.24256575], [-119.326782046, 46.242565173], [-119.326465253, 46.242558632], [-119.321812379, 46.242462553], [-119.321662344, 46.242451805], [-119.321536539, 46.242369349], [-119.320156146, 46.241360661], [-119.320156141, 46.241360657], [-119.320156136, 46.241360654], [-119.317229778, 46.239222291], [-119.316545211, 46.23872206], [-119.31654521, 46.238722059], [-119.316545209, 46.238722059], [-119.316545208, 46.238722059], [-119.312406026, 46.23720978], [-119.311540974, 46.236893727], [-119.308325835, 46.235718873], [-119.306492879, 46.235049023], [-119.306522439, 46.234151008], [-119.306726161, 46.227962007], [-119.30672782, 46.227920395], [-119.306900023, 46.224243221], [-119.306932963, 46.22353984], [-119.307131329, 46.219303975], [-119.308660067, 46.219258834], [-119.308754768, 46.219375231], [-119.309025446, 46.219742829], [-119.30967343, 46.220622834], [-119.309673431, 46.220622835], [-119.309673431, 46.220622836], [-119.309673432, 46.220622836], [-119.309673433, 46.220622837], [-119.312592567, 46.22251774], [-119.312592567, 46.222517741], [-119.312592568, 46.222517741], [-119.31259257, 46.222517741], [-119.312592571, 46.222517742], [-119.321335665, 46.223733785], [-119.321335666, 46.223733785], [-119.322424976, 46.223885293], [-119.327367354, 46.224572709], [-119.328971994, 46.224955173], [-119.328972034, 46.224955175], [-119.328972034, 46.224955176], [-119.328972034, 46.224955177], [-119.328972034, 46.224955178], [-119.328972035, 46.224955179], [-119.328972035, 46.22495518], [-119.328972036, 46.224955181], [-119.328972036, 46.224955182], [-119.328972037, 46.224955182], [-119.328972038, 46.224955183], [-119.328972039, 46.224955183], [-119.328972039, 46.224955184], [-119.32897204, 46.224955184], [-119.328972041, 46.224955185], [-119.333683837, 46.226078235], [-119.333933704, 46.226149361], [-119.339419454, 46.227971248], [-119.339928623, 46.228140349], [-119.340293975, 46.228271826], [-119.340293977, 46.228271826], [-119.340293978, 46.228271826], [-119.340293979, 46.228271826], [-119.34287065, 46.228285317], [-119.342906961, 46.229179908], [-119.342906961, 46.229179909], [-119.342906961, 46.22917991], [-119.342906962, 46.229179911], [-119.342906962, 46.229179912], [-119.342906962, 46.229179913], [-119.342906963, 46.229179914], [-119.342906964, 46.229179914], [-119.342906964, 46.229179915], [-119.342906965, 46.229179916], [-119.342906966, 46.229179916], [-119.342906967, 46.229179916], [-119.342906968, 46.229179917], [-119.342906969, 46.229179917], [-119.34290697, 46.229179917], [-119.342906971, 46.229179917], [-119.346892148, 46.229197741], [-119.346901663, 46.229202182], [-119.346899108, 46.229341585], [-119.346071595, 46.241795286], [-119.346056072, 46.241932344], [-119.345991867, 46.242054425], [-119.345975349, 46.242082579], [-119.345782097, 46.242411957], [-119.345734015, 46.242493907], [-119.345688552, 46.242577339], [-119.345478085, 46.24296358], [-119.345437105, 46.243038786], [-119.345370015, 46.243161908], [-119.345198982, 46.2434779], [-119.344924015, 46.243985908], [-119.344810015, 46.244514908], [-119.344735015, 46.245315908], [-119.344731477, 46.245353949], [-119.34469542, 46.245741557], [-119.3446645, 46.24606878], [-119.344664495, 46.246068838], [-119.344664016, 46.246073908], [-119.344663534, 46.246079096], [-119.344634435, 46.246392798], [-119.344617996, 46.246515021], [-119.34459155, 46.246635476], [-119.344583677, 46.246665394], [-119.344521853, 46.246893442], [-119.344516016, 46.246914908], [-119.344509766, 46.246938657], [-119.344505183, 46.24695607], [-119.344492065, 46.247005921], [-119.344443052, 46.247158365], [-119.344362642, 46.247296841], [-119.34416951, 46.247591727], [-119.343929292, 46.247910069], [-119.343858079, 46.247992415], [-119.343011016, 46.248971908], [-119.342960016, 46.249031908], [-119.342538016, 46.249686908], [-119.342532016, 46.249724908], [-119.342427016, 46.250421908], [-119.342407016, 46.250555908], [-119.342395016, 46.250640908], [-119.342395016, 46.250775908], [-119.342395016, 46.251003908], [-119.342395016, 46.251522908], [-119.342395016, 46.251545908], [-119.342397011, 46.252102504], [-119.342397993, 46.252445656], [-119.342398017, 46.25267411], [-119.342398017, 46.25267442], [-119.342398017, 46.252692908], [-119.342398138, 46.252712016], [-119.34239849, 46.252767171], [-119.342398899, 46.252831468], [-119.342399017, 46.253359576], [-119.342399017, 46.253581909], [-119.342399017, 46.253865909], [-119.342399017, 46.254707382], [-119.342399017, 46.254717909], [-119.342399054, 46.254728435], [-119.342399324, 46.254805447], [-119.342399983, 46.254993141], [-119.342400017, 46.255128667], [-119.342400017, 46.255383909], [-119.342400017, 46.255771701], [-119.342400017, 46.256526909], [-119.342401017, 46.256907909], [-119.342400921, 46.256916918], [-119.342352061, 46.256924305], [-119.342221431, 46.256924855], [-119.34222143, 46.256924855], [-119.342079605, 46.256927983], [-119.342075231, 46.256737416]]], [[[-119.303509202, 46.242135069], [-119.303509201, 46.24213507], [-119.3035092, 46.24213507], [-119.303509199, 46.24213507], [-119.303509198, 46.242135071], [-119.303509197, 46.242135072], [-119.303509196, 46.242135073], [-119.303509195, 46.242135074], [-119.303509195, 46.242135075], [-119.303509194, 46.242135076], [-119.303509194, 46.242135077], [-119.303509194, 46.242135078], [-119.303509194, 46.242135079], [-119.30350902, 46.242135073], [-119.303467897, 46.242135977], [-119.303187414, 46.242132171], [-119.30318722, 46.242131254], [-119.30318597, 46.241982281], [-119.303292725, 46.239415906], [-119.303306126, 46.239270095], [-119.303314819, 46.239264427], [-119.303331422, 46.239263006], [-119.303834243, 46.23919735], [-119.303900008, 46.239200819], [-119.30394981, 46.239223396], [-119.303979734, 46.239260793], [-119.303974775, 46.239316049], [-119.30391533, 46.239424709], [-119.30391533, 46.23942471], [-119.303915329, 46.239424711], [-119.303892475, 46.239510899], [-119.303892475, 46.2395109], [-119.303892475, 46.239510901], [-119.303892475, 46.239510902], [-119.303893518, 46.239595038], [-119.303893518, 46.239595039], [-119.303893518, 46.23959504], [-119.303893518, 46.239595041], [-119.303912896, 46.239667449], [-119.303912897, 46.23966745], [-119.303912897, 46.239667451], [-119.303943843, 46.239728691], [-119.303943844, 46.239728692], [-119.303943844, 46.239728693], [-119.303980586, 46.239778708], [-119.303980587, 46.239778708], [-119.303980587, 46.239778709], [-119.304038618, 46.239836148], [-119.304038619, 46.239836149], [-119.304106887, 46.239885488], [-119.304106888, 46.239885489], [-119.304176684, 46.239923221], [-119.304176685, 46.239923222], [-119.304274176, 46.239962154], [-119.304401912, 46.240009736], [-119.304395088, 46.24054588], [-119.304397139, 46.242066944], [-119.304390771, 46.242110872], [-119.304380542, 46.242115914], [-119.303509204, 46.242135069], [-119.303509203, 46.242135069], [-119.303509202, 46.242135069]]], [[[-119.301343994, 46.250773178], [-119.301355027, 46.250952501], [-119.301364882, 46.25112448], [-119.301364882, 46.251124481], [-119.301364882, 46.251124482], [-119.301364883, 46.251124483], [-119.301427757, 46.251323259], [-119.301429196, 46.251348443], [-119.301424523, 46.251351856], [-119.300691316, 46.251339162], [-119.300691315, 46.251339163], [-119.300691314, 46.251339163], [-119.300691313, 46.251339163], [-119.300691312, 46.251339163], [-119.300691312, 46.251339164], [-119.300691311, 46.251339164], [-119.30069131, 46.251339165], [-119.300691309, 46.251339165], [-119.300691308, 46.251339166], [-119.300691308, 46.251339167], [-119.300691307, 46.251339168], [-119.300691307, 46.251339169], [-119.300691306, 46.25133917], [-119.300691306, 46.251339171], [-119.300691306, 46.251339172], [-119.30067953, 46.251866212], [-119.300676038, 46.251868831], [-119.300543255, 46.25191848], [-119.299513799, 46.252248454], [-119.299015238, 46.252373888], [-119.29871193, 46.252425226], [-119.298442496, 46.252453476], [-119.298074081, 46.252466784], [-119.297750372, 46.252475178], [-119.297433457, 46.252468896], [-119.296906475, 46.252435072], [-119.29642803, 46.252351886], [-119.296445706, 46.251321093], [-119.296791121, 46.251323246], [-119.296791122, 46.251323246], [-119.296791123, 46.251323246], [-119.296791124, 46.251323245], [-119.296791125, 46.251323245], [-119.296791126, 46.251323245], [-119.296791127, 46.251323244], [-119.296791128, 46.251323243], [-119.296791129, 46.251323242], [-119.29679113, 46.251323241], [-119.29679113, 46.25132324], [-119.296791131, 46.251323239], [-119.296791131, 46.251323238], [-119.296791131, 46.251323237], [-119.296791131, 46.251323236], [-119.296814612, 46.250329195], [-119.296814612, 46.250329194], [-119.296814612, 46.250329193], [-119.296814611, 46.250329192], [-119.296814611, 46.250329191], [-119.29681461, 46.25032919], [-119.29681461, 46.250329189], [-119.296814609, 46.250329188], [-119.296814608, 46.250329187], [-119.296814607, 46.250329187], [-119.296814607, 46.250329186], [-119.296814606, 46.250329186], [-119.296814605, 46.250329186], [-119.296814604, 46.250329185], [-119.296814603, 46.250329185], [-119.296814602, 46.250329185], [-119.295517924, 46.250321068], [-119.295540019, 46.249496634], [-119.295541909, 46.249495766], [-119.295685505, 46.249489575], [-119.297311633, 46.249498239], [-119.300711554, 46.249516354], [-119.300708851, 46.250350378], [-119.300708851, 46.250350379], [-119.300708851, 46.25035038], [-119.300708851, 46.250350381], [-119.300708852, 46.250350382], [-119.300708852, 46.250350383], [-119.300708853, 46.250350383], [-119.300708853, 46.250350384], [-119.300708854, 46.250350385], [-119.300708855, 46.250350386], [-119.300708856, 46.250350387], [-119.300708857, 46.250350387], [-119.300708858, 46.250350387], [-119.300708859, 46.250350388], [-119.30070886, 46.250350388], [-119.300708861, 46.250350388], [-119.301361692, 46.250354518], [-119.301362578, 46.250356369], [-119.301365264, 46.250403157], [-119.301353524, 46.250535476], [-119.301343994, 46.250773177], [-119.301343994, 46.250773178]]], [[[-119.337793127, 46.257698215], [-119.337287667, 46.257579057], [-119.337148423, 46.257539088], [-119.337148592, 46.257226022], [-119.338374183, 46.257234525], [-119.339497105, 46.257228451], [-119.339359673, 46.258046896], [-119.339356573, 46.258048981], [-119.339218195, 46.258024882], [-119.339204512, 46.258021819], [-119.339177621, 46.258015799], [-119.337793127, 46.257698215]]], [[[-119.889584432, 46.263184323], [-119.889584431, 46.263184324], [-119.88958443, 46.263184324], [-119.88958443, 46.263184325], [-119.889584429, 46.263184326], [-119.889584428, 46.263184327], [-119.889584428, 46.263184328], [-119.889500831, 46.263338532], [-119.889500831, 46.263338533], [-119.88950083, 46.263338534], [-119.88950083, 46.263338535], [-119.88950083, 46.263338536], [-119.88949674, 46.263369243], [-119.889479452, 46.263703401], [-119.88947663, 46.263758395], [-119.889476629, 46.263758424], [-119.889436641, 46.263759362], [-119.889436375, 46.263759369], [-119.889409238, 46.263760005], [-119.889409199, 46.263760006], [-119.88940898, 46.263760011], [-119.889278132, 46.263763096], [-119.889280115, 46.263557853], [-119.889280428, 46.263524363], [-119.889280707, 46.263494442], [-119.889281115, 46.263450853], [-119.889281115, 46.263418852], [-119.889281115, 46.26341489], [-119.889281115, 46.263386853], [-119.889281115, 46.263367853], [-119.889278115, 46.263065853], [-119.889271115, 46.262175853], [-119.889268115, 46.262162853], [-119.889245115, 46.262046853], [-119.889143031, 46.261914421], [-119.889141998, 46.261908178], [-119.88914131, 46.261902359], [-119.889138507, 46.261759386], [-119.889141725, 46.261661144], [-119.889147114, 46.261497853], [-119.889151114, 46.261397853], [-119.889131709, 46.261061175], [-119.889112615, 46.260708755], [-119.889112362, 46.260552708], [-119.889116615, 46.260532571], [-119.889257114, 46.260315853], [-119.889259114, 46.260183853], [-119.889268282, 46.259643856], [-119.889275348, 46.25960147], [-119.889417321, 46.25959832], [-119.889741511, 46.259607148], [-119.889883954, 46.259618171], [-119.889883017, 46.259761036], [-119.889823805, 46.260806753], [-119.889700331, 46.262987383], [-119.88968514, 46.263131491], [-119.889684134, 46.263136401], [-119.889584432, 46.263184323]]], [[[-119.888970442, 46.270661722], [-119.888970441, 46.270661722], [-119.88897044, 46.270661721], [-119.888970439, 46.270661721], [-119.888310969, 46.270591062], [-119.888310968, 46.270591062], [-119.888310967, 46.270591062], [-119.888310966, 46.270591062], [-119.888310965, 46.270591062], [-119.888184356, 46.270629618], [-119.888184355, 46.270629618], [-119.888184354, 46.270629619], [-119.888184353, 46.270629619], [-119.888184352, 46.27062962], [-119.888184352, 46.270629621], [-119.888184351, 46.270629621], [-119.88818435, 46.270629622], [-119.88818435, 46.270629623], [-119.88818435, 46.270629624], [-119.888184349, 46.270629625], [-119.888184349, 46.270629626], [-119.888184349, 46.270629627], [-119.888184349, 46.270629628], [-119.888184446, 46.270644288], [-119.888184446, 46.270644289], [-119.888184446, 46.27064429], [-119.888184446, 46.270644291], [-119.888184446, 46.270644292], [-119.888184447, 46.270644293], [-119.888184447, 46.270644294], [-119.888184448, 46.270644295], [-119.888184449, 46.270644296], [-119.888486688, 46.270927033], [-119.888486689, 46.270927034], [-119.88848669, 46.270927034], [-119.889220843, 46.271335414], [-119.889220459, 46.271342063], [-119.889219268, 46.271483243], [-119.889157226, 46.272578948], [-119.888881966, 46.2774402], [-119.888867514, 46.27757768], [-119.888729306, 46.277580572], [-119.88423101, 46.277457958], [-119.884093104, 46.277447534], [-119.884086262, 46.277309404], [-119.884086177, 46.277244281], [-119.884086139, 46.277214658], [-119.884094864, 46.275185838], [-119.884095116, 46.275127855], [-119.884084139, 46.274397396], [-119.884063502, 46.272975457], [-119.884063202, 46.272922248], [-119.884063328, 46.272882996], [-119.884064075, 46.272651583], [-119.884071069, 46.271715079], [-119.884073834, 46.271428832], [-119.884074116, 46.271399854], [-119.884074116, 46.271296546], [-119.884077126, 46.270898483], [-119.884078079, 46.270779373], [-119.884078116, 46.270774854], [-119.884078145, 46.270770335], [-119.884078664, 46.270690332], [-119.884079115, 46.270620854], [-119.88407808, 46.27055875], [-119.884076964, 46.270480203], [-119.884074321, 46.27011942], [-119.884071116, 46.269681935], [-119.884071115, 46.269681854], [-119.884070202, 46.269557673], [-119.884076137, 46.269416158], [-119.884118549, 46.269409771], [-119.885842116, 46.269406854], [-119.887503116, 46.269404854], [-119.889075116, 46.269410854], [-119.889151116, 46.269393854], [-119.889220116, 46.269362854], [-119.889271116, 46.269320854], [-119.889305116, 46.269271854], [-119.889318116, 46.269217854], [-119.889320116, 46.267969854], [-119.889308116, 46.267465854], [-119.889274891, 46.265956284], [-119.889525323, 46.265956323], [-119.889525347, 46.265956594], [-119.889524101, 46.266099699], [-119.889267534, 46.270630837], [-119.889254392, 46.270753495], [-119.889252942, 46.270778635], [-119.888970442, 46.270661722]]], [[[-119.496467, 46.271235], [-119.502944, 46.271433], [-119.502658, 46.275925], [-119.49618, 46.275726], [-119.496467, 46.271235]]], [[[-119.26641986, 46.196625259], [-119.266027698, 46.197105574], [-119.265519733, 46.19691001], [-119.265927237, 46.19642805], [-119.26641986, 46.196625259]]], [[[-119.249969399, 46.200547591], [-119.249141203, 46.200486523], [-119.249108525, 46.200483934], [-119.247091758, 46.200313052], [-119.245653834, 46.200191215], [-119.245512001, 46.200172041], [-119.245506156, 46.200029038], [-119.245519328, 46.198563504], [-119.245528031, 46.197595201], [-119.245535848, 46.197457905], [-119.245672957, 46.197447295], [-119.24688466, 46.197411733], [-119.247408962, 46.197398926], [-119.247409388, 46.197398915], [-119.251292997, 46.197304598], [-119.251741573, 46.197300397], [-119.252326264, 46.197281147], [-119.264053431, 46.197001347], [-119.264058401, 46.198201313], [-119.263415607, 46.198977944], [-119.263159778, 46.199245625], [-119.262870425, 46.199483619], [-119.262595135, 46.19966702], [-119.262272617, 46.199842503], [-119.261965667, 46.199978168], [-119.261702887, 46.200073933], [-119.261414025, 46.200160168], [-119.260563727, 46.200314076], [-119.257594492, 46.200414575], [-119.251450667, 46.200622523], [-119.251258825, 46.200622878], [-119.25086996, 46.200611153], [-119.250739776, 46.200604394], [-119.249969399, 46.200547591]]], [[[-119.293464017, 46.217120657], [-119.293405177, 46.216848056], [-119.293386783, 46.2165727], [-119.293409032, 46.216297481], [-119.293471687, 46.216025283], [-119.293574092, 46.215758955], [-119.293663934, 46.215586046], [-119.293830005, 46.215335659], [-119.294032073, 46.215098367], [-119.294268021, 46.214876654], [-119.29435378, 46.214806618], [-119.294535374, 46.214672843], [-119.294729689, 46.214547978], [-119.29493582, 46.214432604], [-119.295152805, 46.214327258], [-119.295379635, 46.214232431], [-119.29556008, 46.214166535], [-119.295560081, 46.214166534], [-119.295560082, 46.214166534], [-119.295560082, 46.214166533], [-119.295560083, 46.214166533], [-119.295560084, 46.214166532], [-119.295560085, 46.214166531], [-119.295560085, 46.21416653], [-119.295560086, 46.214166529], [-119.295560086, 46.214166528], [-119.295560086, 46.214166527], [-119.295560086, 46.214166526], [-119.295560086, 46.214166525], [-119.295560212, 46.213082854], [-119.295560212, 46.213082853], [-119.295560211, 46.213082852], [-119.295560211, 46.213082851], [-119.295560211, 46.21308285], [-119.29556021, 46.213082849], [-119.29556021, 46.213082848], [-119.295560209, 46.213082847], [-119.295560208, 46.213082846], [-119.295560207, 46.213082845], [-119.295560206, 46.213082845], [-119.295560205, 46.213082844], [-119.295560204, 46.213082844], [-119.295560203, 46.213082844], [-119.295560202, 46.213082844], [-119.286242793, 46.213035832], [-119.284831554, 46.213027241], [-119.280816572, 46.213010738], [-119.275698802, 46.212989702], [-119.275547567, 46.212981324], [-119.275419856, 46.212899885], [-119.274551283, 46.212281244], [-119.274435814, 46.21219049], [-119.274424825, 46.210726191], [-119.274424825, 46.21072619], [-119.274424825, 46.210726189], [-119.274424825, 46.210726188], [-119.274424824, 46.210726187], [-119.274424824, 46.210726186], [-119.274424823, 46.210726186], [-119.274424823, 46.210726185], [-119.274424822, 46.210726184], [-119.274424821, 46.210726183], [-119.27442482, 46.210726182], [-119.274424819, 46.210726182], [-119.274424818, 46.210726182], [-119.274424817, 46.210726181], [-119.274424816, 46.210726181], [-119.274424815, 46.210726181], [-119.270844458, 46.210722578], [-119.270546927, 46.210719872], [-119.270544934, 46.210719854], [-119.270346075, 46.210718045], [-119.270346074, 46.210718045], [-119.269248939, 46.210708065], [-119.269113706, 46.21070013], [-119.269173333, 46.210670671], [-119.269333917, 46.210591335], [-119.269352354, 46.21058191], [-119.269352355, 46.21058191], [-119.269370344, 46.210572076], [-119.269387865, 46.210561844], [-119.269387866, 46.210561844], [-119.269404902, 46.210551222], [-119.269421433, 46.210540225], [-119.269421434, 46.210540224], [-119.269437444, 46.210528861], [-119.269437445, 46.210528861], [-119.269452918, 46.210517144], [-119.269467837, 46.210505086], [-119.269467838, 46.210505086], [-119.269482188, 46.2104927], [-119.269495953, 46.210479997], [-119.269509119, 46.210466992], [-119.26950912, 46.210466992], [-119.269521673, 46.210453698], [-119.26968215, 46.210277611], [-119.270062403, 46.209860364], [-119.27008197, 46.209837631], [-119.270102655, 46.209815379], [-119.270124435, 46.209793638], [-119.270147282, 46.20977243], [-119.270171169, 46.209751783], [-119.270196069, 46.209731721], [-119.270221951, 46.209712266], [-119.270248785, 46.209693444], [-119.270276539, 46.209675276], [-119.27030518, 46.209657785], [-119.270334672, 46.209640989], [-119.270364982, 46.20962491], [-119.270396075, 46.209609567], [-119.270422031, 46.209597673], [-119.270422031, 46.209597671], [-119.270422032, 46.209597671], [-119.270422033, 46.209597671], [-119.270422034, 46.209597671], [-119.270422035, 46.209597671], [-119.270422036, 46.209597671], [-119.270427909, 46.209594979], [-119.270460453, 46.209581162], [-119.270654754, 46.209503407], [-119.270770173, 46.209464663], [-119.27088739, 46.209428616], [-119.271006275, 46.209395306], [-119.271126695, 46.209364769], [-119.271250058, 46.209336631], [-119.271606214, 46.209261385], [-119.271789592, 46.209222642], [-119.271832239, 46.209214169], [-119.271875272, 46.20920669], [-119.271918639, 46.209200212], [-119.271962294, 46.209194745], [-119.272007186, 46.209190202], [-119.272052278, 46.209186727], [-119.272097512, 46.209184323], [-119.272142838, 46.209182993], [-119.27231792, 46.209179932], [-119.272660429, 46.209173942], [-119.272854862, 46.209170541], [-119.272897547, 46.20917027], [-119.272940223, 46.209170953], [-119.272982845, 46.209172587], [-119.273025369, 46.209175171], [-119.273067751, 46.209178703], [-119.273109949, 46.209183178], [-119.273151917, 46.209188592], [-119.273193613, 46.209194941], [-119.273234994, 46.209202216], [-119.273276016, 46.209210411], [-119.273861401, 46.209334452], [-119.27386561, 46.209335288], [-119.273869857, 46.209336022], [-119.273874139, 46.209336654], [-119.27387414, 46.209336654], [-119.27387845, 46.209337181], [-119.273882785, 46.209337604], [-119.273882786, 46.209337604], [-119.273887138, 46.209337921], [-119.273887139, 46.209337921], [-119.273891504, 46.209338133], [-119.273891505, 46.209338133], [-119.273895879, 46.209338239], [-119.273900256, 46.20933824], [-119.273904632, 46.209338135], [-119.273908998, 46.209337923], [-119.273913352, 46.209337608], [-119.273917687, 46.209337186], [-119.273921998, 46.20933666], [-119.27392628, 46.20933603], [-119.273930529, 46.209335298], [-119.273934736, 46.209334462], [-119.273934737, 46.209334462], [-119.273938901, 46.209333525], [-119.273943016, 46.209332489], [-119.273943017, 46.209332489], [-119.273947077, 46.209331354], [-119.273951077, 46.209330121], [-119.273955015, 46.209328792], [-119.273958882, 46.209327369], [-119.273962676, 46.209325853], [-119.273966392, 46.209324247], [-119.273970024, 46.209322551], [-119.27397357, 46.209320769], [-119.273977023, 46.209318902], [-119.273980382, 46.209316953], [-119.273980383, 46.209316953], [-119.273983641, 46.209314924], [-119.273986795, 46.209312816], [-119.273989842, 46.209310635], [-119.273989842, 46.209310634], [-119.273992778, 46.20930838], [-119.2739956, 46.209306057], [-119.273998303, 46.209303666], [-119.274000884, 46.209301212], [-119.274003341, 46.209298696], [-119.27400567, 46.209296124], [-119.27400567, 46.209296123], [-119.274007868, 46.209293495], [-119.274007869, 46.209293495], [-119.274009934, 46.209290816], [-119.274080712, 46.209195021], [-119.274083415, 46.209191203], [-119.274083416, 46.209191202], [-119.27408593, 46.209187322], [-119.27408593, 46.209187321], [-119.274088252, 46.209183384], [-119.274088252, 46.209183383], [-119.274090379, 46.209179392], [-119.274092308, 46.209175353], [-119.274092309, 46.209175353], [-119.274094037, 46.209171271], [-119.274095565, 46.20916715], [-119.274096888, 46.209162995], [-119.274096889, 46.209162995], [-119.274098007, 46.209158811], [-119.274098008, 46.20915881], [-119.27409892, 46.209154603], [-119.27409892, 46.209154602], [-119.274099623, 46.209150375], [-119.274100119, 46.209146134], [-119.274100406, 46.209141883], [-119.274100484, 46.209137629], [-119.274100484, 46.209137628], [-119.274100351, 46.209133374], [-119.274100011, 46.209129126], [-119.274100011, 46.209129125], [-119.27409946, 46.209124887], [-119.274098702, 46.209120664], [-119.274097737, 46.209116462], [-119.274097737, 46.209116461], [-119.274096566, 46.209112285], [-119.274096565, 46.209112285], [-119.274095189, 46.209108138], [-119.274095188, 46.209108138], [-119.274093609, 46.209104026], [-119.274093608, 46.209104026], [-119.274091828, 46.209099955], [-119.274089847, 46.209095928], [-119.274087669, 46.209091951], [-119.274087669, 46.20909195], [-119.274085298, 46.209088027], [-119.274085298, 46.209088026], [-119.274082734, 46.209084162], [-119.274082733, 46.209084161], [-119.274079982, 46.20908036], [-119.274079981, 46.209080359], [-119.274077044, 46.209076625], [-119.274073923, 46.209072962], [-119.274070624, 46.209069376], [-119.274070624, 46.209069375], [-119.274067152, 46.209065869], [-119.273769515, 46.208776109], [-119.273758275, 46.208764757], [-119.273747607, 46.208753142], [-119.273737522, 46.208741279], [-119.273728036, 46.20872918], [-119.273719155, 46.208716861], [-119.273710894, 46.208704337], [-119.27370326, 46.208691622], [-119.273696263, 46.208678731], [-119.273689912, 46.208665682], [-119.273684214, 46.208652486], [-119.273679177, 46.208639163], [-119.273674804, 46.208625726], [-119.273671102, 46.208612193], [-119.273668078, 46.208598579], [-119.273665731, 46.2085849], [-119.273664066, 46.208571173], [-119.273663086, 46.208557415], [-119.273662791, 46.208543642], [-119.273663181, 46.208529869], [-119.273664256, 46.208516114], [-119.273666015, 46.208502393], [-119.273668454, 46.208488722], [-119.273671581, 46.208475091], [-119.273675384, 46.208461543], [-119.27367986, 46.208448094], [-119.273685006, 46.208434761], [-119.273690811, 46.20842156], [-119.273697272, 46.208408506], [-119.273704381, 46.208395615], [-119.273712127, 46.208382903], [-119.273720502, 46.208370384], [-119.273729496, 46.208358074], [-119.273739099, 46.208345988], [-119.273821608, 46.208246257], [-119.274050231, 46.207969917], [-119.27405409, 46.207965078], [-119.27405409, 46.207965077], [-119.27405773, 46.207960157], [-119.274061147, 46.20795516], [-119.274064337, 46.207950091], [-119.274067297, 46.207944955], [-119.274070024, 46.207939757], [-119.274072516, 46.207934503], [-119.274074769, 46.207929197], [-119.27407477, 46.207929197], [-119.274076852, 46.207923648], [-119.274076852, 46.207923647], [-119.274078675, 46.207918054], [-119.274080236, 46.207912422], [-119.274081532, 46.207906758], [-119.274082564, 46.207901069], [-119.274082564, 46.207901068], [-119.27408333, 46.207895358], [-119.274083829, 46.207889633], [-119.274084059, 46.207883901], [-119.274084059, 46.2078839], [-119.274084022, 46.207878165], [-119.274083717, 46.207872434], [-119.27406735, 46.207658756], [-119.274066387, 46.207639807], [-119.274066404, 46.207620847], [-119.274067398, 46.2076019], [-119.274069173, 46.207584515], [-119.274071772, 46.207567179], [-119.274075191, 46.207549912], [-119.274079426, 46.207532733], [-119.274084474, 46.20751566], [-119.274090329, 46.207498711], [-119.274096984, 46.207481906], [-119.274104433, 46.207465262], [-119.274112666, 46.207448796], [-119.274194528, 46.207293394], [-119.274194528, 46.207293393], [-119.274194529, 46.207293392], [-119.274194529, 46.207293391], [-119.274194529, 46.20729339], [-119.274194529, 46.207293389], [-119.274194529, 46.207293388], [-119.274194529, 46.207293387], [-119.274194528, 46.207293386], [-119.274194528, 46.207293385], [-119.274194527, 46.207293384], [-119.274194527, 46.207293383], [-119.274194526, 46.207293382], [-119.274194525, 46.207293381], [-119.274194524, 46.207293381], [-119.274194523, 46.20729338], [-119.274194522, 46.20729338], [-119.274194521, 46.20729338], [-119.27419452, 46.20729338], [-119.274194519, 46.207293379], [-119.270579282, 46.207278177], [-119.270579281, 46.207278177], [-119.263922866, 46.207250186], [-119.263780224, 46.207242447], [-119.263777842, 46.207099615], [-119.263785987, 46.206855219], [-119.263794127, 46.206611004], [-119.263829768, 46.205541628], [-119.269272294, 46.205557328], [-119.269272295, 46.205557328], [-119.269272296, 46.205557328], [-119.269272297, 46.205557328], [-119.269272298, 46.205557327], [-119.269272299, 46.205557327], [-119.269272299, 46.205557326], [-119.2692723, 46.205557326], [-119.269272301, 46.205557325], [-119.269272302, 46.205557324], [-119.269272303, 46.205557323], [-119.269272303, 46.205557322], [-119.269272303, 46.205557321], [-119.269272304, 46.20555732], [-119.269272304, 46.205557319], [-119.269272304, 46.205557318], [-119.269281917, 46.2050191], [-119.269288643, 46.204642562], [-119.269819503, 46.20445836], [-119.270036977, 46.204386115], [-119.270793082, 46.204123886], [-119.270793082, 46.204123885], [-119.270793083, 46.204123885], [-119.270793084, 46.204123885], [-119.270793085, 46.204123885], [-119.270793086, 46.204123884], [-119.271631903, 46.203832969], [-119.271982394, 46.204064259], [-119.271982395, 46.204064259], [-119.271982396, 46.20406426], [-119.271982397, 46.20406426], [-119.272698275, 46.204250424], [-119.272698276, 46.204250424], [-119.272698277, 46.204250424], [-119.272698278, 46.204250424], [-119.272698279, 46.204250424], [-119.27269828, 46.204250423], [-119.272698281, 46.204250423], [-119.272698282, 46.204250423], [-119.272698283, 46.204250422], [-119.272698284, 46.204250422], [-119.273308593, 46.203769827], [-119.273834049, 46.203775844], [-119.273940073, 46.203777058], [-119.274576885, 46.204075178], [-119.274576886, 46.204075179], [-119.274576887, 46.204075179], [-119.274576888, 46.204075179], [-119.274576889, 46.204075179], [-119.27457689, 46.204075179], [-119.274576891, 46.204075179], [-119.274576892, 46.204075179], [-119.274576892, 46.204075178], [-119.274576893, 46.204075178], [-119.274576894, 46.204075178], [-119.274576895, 46.204075177], [-119.274576896, 46.204075176], [-119.274576897, 46.204075176], [-119.274576897, 46.204075175], [-119.274576898, 46.204075174], [-119.274576898, 46.204075173], [-119.274576898, 46.204075172], [-119.274576899, 46.204075171], [-119.274576899, 46.20407517], [-119.274576899, 46.204075169], [-119.274626597, 46.201901267], [-119.276271244, 46.201662907], [-119.276271245, 46.201662907], [-119.276271246, 46.201662906], [-119.276271247, 46.201662906], [-119.276271248, 46.201662905], [-119.276271249, 46.201662904], [-119.27627125, 46.201662904], [-119.27627125, 46.201662903], [-119.276271251, 46.201662902], [-119.276271251, 46.201662901], [-119.276271252, 46.2016629], [-119.276271252, 46.201662899], [-119.276271252, 46.201662898], [-119.276271252, 46.201662897], [-119.276279951, 46.201281834], [-119.276402017, 46.201308641], [-119.276402018, 46.201308642], [-119.276402019, 46.201308642], [-119.27640202, 46.201308642], [-119.276402021, 46.201308642], [-119.276402022, 46.201308641], [-119.276402023, 46.201308641], [-119.276402024, 46.201308641], [-119.276402025, 46.20130864], [-119.276402026, 46.201308639], [-119.276402027, 46.201308638], [-119.276402027, 46.201308637], [-119.276402028, 46.201308637], [-119.276402028, 46.201308636], [-119.276699639, 46.200655257], [-119.277413844, 46.200817551], [-119.277702133, 46.200897647], [-119.278031783, 46.200992339], [-119.278361436, 46.201087029], [-119.278691288, 46.201181311], [-119.279024639, 46.201267912], [-119.279400532, 46.201352056], [-119.279782213, 46.201423492], [-119.280085484, 46.201470557], [-119.280085485, 46.201470557], [-119.280462597, 46.201517744], [-119.281176072, 46.201571952], [-119.281176073, 46.201571952], [-119.281622845, 46.201583727], [-119.282048999, 46.201586821], [-119.282369973, 46.20158915], [-119.282369974, 46.20158915], [-119.282369975, 46.20158915], [-119.282369976, 46.20158915], [-119.282369977, 46.201589149], [-119.282369978, 46.201589149], [-119.282934198, 46.201264148], [-119.283047763, 46.201202609], [-119.283899656, 46.200861653], [-119.284146527, 46.200759312], [-119.284146528, 46.200759312], [-119.284293372, 46.200675379], [-119.284293373, 46.200675378], [-119.284293374, 46.200675378], [-119.284293374, 46.200675377], [-119.284378, 46.200590125], [-119.284378, 46.200590124], [-119.284378001, 46.200590124], [-119.284496609, 46.200405698], [-119.284590755, 46.200312656], [-119.28479996, 46.200118129], [-119.284986301, 46.19999659], [-119.285426379, 46.199768974], [-119.286122133, 46.199445048], [-119.286219416, 46.199398775], [-119.286219417, 46.199398775], [-119.286312054, 46.199341675], [-119.286312055, 46.199341674], [-119.286403228, 46.19926695], [-119.286403229, 46.19926695], [-119.286645046, 46.199035347], [-119.286965164, 46.198728746], [-119.28758681, 46.198133339], [-119.287586811, 46.198133338], [-119.287586811, 46.198133337], [-119.287586812, 46.198133337], [-119.287586812, 46.198133336], [-119.287586813, 46.198133335], [-119.287586813, 46.198133334], [-119.287586813, 46.198133333], [-119.287586813, 46.198133332], [-119.287586813, 46.198133331], [-119.287586813, 46.19813333], [-119.287586813, 46.198133329], [-119.287586812, 46.198133328], [-119.287586812, 46.198133327], [-119.287586812, 46.198133326], [-119.287586811, 46.198133325], [-119.28758681, 46.198133325], [-119.28758681, 46.198133324], [-119.287586809, 46.198133323], [-119.287586808, 46.198133323], [-119.287586807, 46.198133322], [-119.287586806, 46.198133322], [-119.287586805, 46.198133322], [-119.287586804, 46.198133322], [-119.287586803, 46.198133322], [-119.28100668, 46.197957345], [-119.279860769, 46.197917815], [-119.278722571, 46.197833921], [-119.277749849, 46.197720852], [-119.276602505, 46.197541794], [-119.275686317, 46.197371353], [-119.274859619, 46.197178097], [-119.273861681, 46.1969259], [-119.272854485, 46.196621055], [-119.27190511, 46.196283573], [-119.271339405, 46.196059667], [-119.271339404, 46.196059666], [-119.271339403, 46.196059666], [-119.271339402, 46.196059666], [-119.271071725, 46.195953719], [-119.270036808, 46.19549718], [-119.268641123, 46.194817285], [-119.268641122, 46.194817285], [-119.267662546, 46.194386058], [-119.267662545, 46.194386058], [-119.267662544, 46.194386057], [-119.267662543, 46.194386057], [-119.267662542, 46.194386057], [-119.267662541, 46.194386057], [-119.26766254, 46.194386057], [-119.267662539, 46.194386058], [-119.267662538, 46.194386058], [-119.267662537, 46.194386058], [-119.267662536, 46.194386059], [-119.267662535, 46.194386059], [-119.267662535, 46.19438606], [-119.267662534, 46.194386061], [-119.266776102, 46.195424024], [-119.266230969, 46.195220354], [-119.265623603, 46.194974977], [-119.264904559, 46.194684473], [-119.264684398, 46.194587945], [-119.264433437, 46.194457361], [-119.264174554, 46.194294754], [-119.263903397, 46.194093433], [-119.263735449, 46.193946525], [-119.263447097, 46.193595964], [-119.263193528, 46.193172543], [-119.263193528, 46.193172542], [-119.262941627, 46.192764053], [-119.262941627, 46.192764052], [-119.262941626, 46.192764051], [-119.262647687, 46.192423248], [-119.262647686, 46.192423247], [-119.262421924, 46.192210749], [-119.261970517, 46.191854268], [-119.261970516, 46.191854268], [-119.26138077, 46.191481483], [-119.26138077, 46.191481482], [-119.257852624, 46.189562], [-119.257852623, 46.189562], [-119.257852622, 46.189562], [-119.257852621, 46.189561999], [-119.25785262, 46.189561999], [-119.257852619, 46.189561999], [-119.257852618, 46.189561999], [-119.256474631, 46.189701057], [-119.256291329, 46.189709646], [-119.256000959, 46.189666807], [-119.255595182, 46.189595754], [-119.255349109, 46.189556653], [-119.255349108, 46.189556653], [-119.255349107, 46.189556653], [-119.255349106, 46.189556653], [-119.255349105, 46.189556654], [-119.255349104, 46.189556654], [-119.255349103, 46.189556654], [-119.255349102, 46.189556655], [-119.255349101, 46.189556655], [-119.2553491, 46.189556656], [-119.2553491, 46.189556657], [-119.255349099, 46.189556657], [-119.255349098, 46.189556658], [-119.255349098, 46.189556659], [-119.255349098, 46.18955666], [-119.253866772, 46.193711589], [-119.253477847, 46.193716488], [-119.253479395, 46.193203898], [-119.253484781, 46.190192446], [-119.253495981, 46.18770953], [-119.253495981, 46.187709529], [-119.253495981, 46.187709528], [-119.253495981, 46.187709527], [-119.25349598, 46.187709526], [-119.25349598, 46.187709525], [-119.253495979, 46.187709525], [-119.253495979, 46.187709524], [-119.253495978, 46.187709523], [-119.253495977, 46.187709522], [-119.253495976, 46.187709521], [-119.253495975, 46.187709521], [-119.251988475, 46.187123876], [-119.250937003, 46.186608398], [-119.250734739, 46.186509242], [-119.250706053, 46.186487006], [-119.250639095, 46.186440086], [-119.250606308, 46.186411829], [-119.250732643, 46.186409877], [-119.251538996, 46.186436372], [-119.251949711, 46.186449867], [-119.252104393, 46.18646306], [-119.252247471, 46.186523302], [-119.252591271, 46.186689695], [-119.252884195, 46.186832634], [-119.252884462, 46.186832764], [-119.252935987, 46.186857913], [-119.252988525, 46.186882312], [-119.253525742, 46.187131799], [-119.253525987, 46.187131913], [-119.253828366, 46.187272373], [-119.254094493, 46.187396901], [-119.254171143, 46.187434113], [-119.254344004, 46.187521098], [-119.254750036, 46.187725415], [-119.255056001, 46.187880374], [-119.255056163, 46.187880456], [-119.255062987, 46.187883913], [-119.255070144, 46.187887514], [-119.255195094, 46.187950387], [-119.255210967, 46.187958374], [-119.255806441, 46.188258621], [-119.255867409, 46.188289521], [-119.255867862, 46.188289751], [-119.255881988, 46.188296913], [-119.255897062, 46.18830445], [-119.255935274, 46.188323556], [-119.255940326, 46.188326082], [-119.255967988, 46.188339913], [-119.255998988, 46.188355913], [-119.256018988, 46.188364913], [-119.256039724, 46.188374897], [-119.256055373, 46.188382533], [-119.256758689, 46.188728766], [-119.256758988, 46.188728913], [-119.257143854, 46.18891843], [-119.257586731, 46.189138795], [-119.257642608, 46.189166723], [-119.259031217, 46.189861527], [-119.259031988, 46.189861913], [-119.25978717, 46.190239503], [-119.259789989, 46.190240913], [-119.259792809, 46.190242319], [-119.260549179, 46.190619511], [-119.261307989, 46.190998912], [-119.261307999, 46.190998917], [-119.261558708, 46.191124272], [-119.261633989, 46.191161912], [-119.261710297, 46.191197427], [-119.261780226, 46.191229972], [-119.262850117, 46.19173403], [-119.263619971, 46.192097487], [-119.263619977, 46.19209749], [-119.26362299, 46.192098912], [-119.263626014, 46.192100336], [-119.263744117, 46.192155933], [-119.263956583, 46.192255952], [-119.264007168, 46.192280346], [-119.264037021, 46.192295088], [-119.264056582, 46.192304748], [-119.26406299, 46.192307912], [-119.264069405, 46.192311061], [-119.26537699, 46.192952912], [-119.265814184, 46.193167516], [-119.267346743, 46.193920369], [-119.267694663, 46.194092767], [-119.267694915, 46.194092892], [-119.267698991, 46.194094912], [-119.267703574, 46.194097174], [-119.26784791, 46.194168404], [-119.268215807, 46.194350829], [-119.268215878, 46.194350864], [-119.268217991, 46.194351912], [-119.268298649, 46.194391825], [-119.26846818, 46.194477003], [-119.268746088, 46.194617309], [-119.268746132, 46.194617332], [-119.268776991, 46.194632912], [-119.268780908, 46.194634755], [-119.269051303, 46.194769584], [-119.26915661, 46.194822808], [-119.269306991, 46.194898912], [-119.269462869, 46.194966997], [-119.271357324, 46.195794465], [-119.271357367, 46.195794484], [-119.271563528, 46.195884528], [-119.271742992, 46.195962912], [-119.271927185, 46.196029426], [-119.272028089, 46.196065863], [-119.272985163, 46.196412587], [-119.272985172, 46.19641259], [-119.273101992, 46.196454912], [-119.273220483, 46.196492365], [-119.273553588, 46.196597657], [-119.273623992, 46.196619912], [-119.273694924, 46.196640427], [-119.274087956, 46.196754101], [-119.274152993, 46.196772912], [-119.274218437, 46.196790249], [-119.274401906, 46.196838855], [-119.274615574, 46.196895461], [-119.274688993, 46.196914912], [-119.274762881, 46.196932497], [-119.275168039, 46.197028928], [-119.275230993, 46.197043911], [-119.275294255, 46.197057534], [-119.275701995, 46.197145331], [-119.275778993, 46.197161911], [-119.2758564, 46.197176464], [-119.276331156, 46.197265722], [-119.276395993, 46.197277911], [-119.276461083, 46.197288673], [-119.276956006, 46.197370498], [-119.277018993, 46.197380911], [-119.277082188, 46.197389982], [-119.27757858, 46.197461235], [-119.277645993, 46.197470911], [-119.277713609, 46.197479055], [-119.278210775, 46.197538936], [-119.278276993, 46.197546911], [-119.278343373, 46.197553413], [-119.278774316, 46.197595622], [-119.278813398, 46.19759945], [-119.278909994, 46.197608911], [-119.279006844, 46.197615243], [-119.280496471, 46.197712632], [-119.280668994, 46.197723911], [-119.28084188, 46.197725237], [-119.281781621, 46.197732446], [-119.283536691, 46.197745908], [-119.283536994, 46.197745911], [-119.285080138, 46.197757904], [-119.287429529, 46.197776834], [-119.287438995, 46.19777691], [-119.287448462, 46.197776957], [-119.287628609, 46.19777784], [-119.287935258, 46.197780813], [-119.287944995, 46.19778091], [-119.287955441, 46.197780978], [-119.288245402, 46.197782848], [-119.288453746, 46.197784859], [-119.288454209, 46.197784863], [-119.288458995, 46.19778491], [-119.288464708, 46.197784955], [-119.291243969, 46.19780691], [-119.291243996, 46.19780691], [-119.297141602, 46.19785355], [-119.297141712, 46.19785355], [-119.29959951, 46.197872897], [-119.299600923, 46.197872908], [-119.299600997, 46.197872909], [-119.302386685, 46.197894906], [-119.302386998, 46.197894909], [-119.306236173, 46.197924902], [-119.308785085, 46.197945465], [-119.30889486, 46.197948361], [-119.311167731, 46.198049973], [-119.311254194, 46.198055091], [-119.311508672, 46.198073842], [-119.311583288, 46.19807934], [-119.312656169, 46.198161175], [-119.312727808, 46.198167506], [-119.314129108, 46.198308301], [-119.314200795, 46.198316376], [-119.315594481, 46.198490349], [-119.315667397, 46.198500361], [-119.316674575, 46.198651264], [-119.317048325, 46.198707262], [-119.317123521, 46.198719507], [-119.318493627, 46.198960509], [-119.318566206, 46.198974199], [-119.318631946, 46.198987439], [-119.319922008, 46.199247255], [-119.319997784, 46.199263538], [-119.321337775, 46.199569632], [-119.321410012, 46.199587077], [-119.3223679, 46.199831002], [-119.322744001, 46.199926777], [-119.322785153, 46.199937679], [-119.322916479, 46.199980835], [-119.322913962, 46.200122046], [-119.322885525, 46.200547672], [-119.322793575, 46.201923918], [-119.321124291, 46.201906589], [-119.316930948, 46.20186306], [-119.316930705, 46.201863057], [-119.314398499, 46.201836566], [-119.306413643, 46.201753031], [-119.306413642, 46.201753031], [-119.306413641, 46.201753031], [-119.30641364, 46.201753031], [-119.306413639, 46.201753032], [-119.306413638, 46.201753032], [-119.306413637, 46.201753033], [-119.306413636, 46.201753034], [-119.306413635, 46.201753035], [-119.306413634, 46.201753036], [-119.306413634, 46.201753037], [-119.306413634, 46.201753038], [-119.306413633, 46.201753039], [-119.306413633, 46.20175304], [-119.306413633, 46.201753041], [-119.306300358, 46.205256967], [-119.306300358, 46.205256968], [-119.306300358, 46.205256969], [-119.306300358, 46.20525697], [-119.306300358, 46.205256971], [-119.306300359, 46.205256972], [-119.306300359, 46.205256973], [-119.30630036, 46.205256974], [-119.307075967, 46.206247354], [-119.30707597, 46.206247354], [-119.30707597, 46.206247355], [-119.30707597, 46.206247356], [-119.30707597, 46.206247357], [-119.307075971, 46.206247358], [-119.307075971, 46.206247359], [-119.307075971, 46.20624736], [-119.307075972, 46.206247361], [-119.307883867, 46.20727897], [-119.308356152, 46.208330936], [-119.308357745, 46.208350589], [-119.308355324, 46.208496276], [-119.308306354, 46.209244584], [-119.308288246, 46.209398282], [-119.308238832, 46.209544943], [-119.307983029, 46.21019119], [-119.307922708, 46.21032524], [-119.307092366, 46.210835216], [-119.307092365, 46.210835217], [-119.307092364, 46.210835217], [-119.307092363, 46.210835218], [-119.307092363, 46.210835219], [-119.307092362, 46.21083522], [-119.307092362, 46.210835221], [-119.307092361, 46.210835222], [-119.3068609, 46.211579912], [-119.306213166, 46.211672724], [-119.306213165, 46.211672724], [-119.306213164, 46.211672724], [-119.306213163, 46.211672724], [-119.306213163, 46.211672725], [-119.306213162, 46.211672725], [-119.306213161, 46.211672726], [-119.30621316, 46.211672727], [-119.305843649, 46.212166929], [-119.305843648, 46.212166929], [-119.305843648, 46.21216693], [-119.305843647, 46.212166931], [-119.305843647, 46.212166932], [-119.305843647, 46.212166933], [-119.305843647, 46.212166934], [-119.305843647, 46.212166935], [-119.305899083, 46.2131469], [-119.305899083, 46.213146901], [-119.305899083, 46.213146902], [-119.305899083, 46.213146903], [-119.305899084, 46.213146904], [-119.305899084, 46.213146905], [-119.305899085, 46.213146906], [-119.305899086, 46.213146907], [-119.305899087, 46.213146908], [-119.305899088, 46.213146908], [-119.305899089, 46.213146909], [-119.30589909, 46.213146909], [-119.305899091, 46.213146909], [-119.305899092, 46.213146909], [-119.30726686, 46.213161277], [-119.307268705, 46.213311084], [-119.307201283, 46.215102478], [-119.307124171, 46.217151331], [-119.30478492, 46.217071972], [-119.304784919, 46.217071972], [-119.304784918, 46.217071972], [-119.304784917, 46.217071972], [-119.304784917, 46.217071973], [-119.304784916, 46.217071973], [-119.304784915, 46.217071973], [-119.304784914, 46.217071974], [-119.304784913, 46.217071974], [-119.304784913, 46.217071975], [-119.304784912, 46.217071976], [-119.304784912, 46.217071977], [-119.304621552, 46.217325874], [-119.301049869, 46.217260181], [-119.297613514, 46.217196977], [-119.295841971, 46.217164394], [-119.29584197, 46.217164394], [-119.29584196, 46.217164394], [-119.295403489, 46.217156329], [-119.293464017, 46.217120657]]], [[[-119.289240572, 46.225377411], [-119.28922111, 46.225523216], [-119.289081616, 46.2255699], [-119.2887541, 46.22566134], [-119.288621215, 46.225691973], [-119.288484975, 46.225697947], [-119.28824875, 46.225697506], [-119.287916676, 46.225532337], [-119.287592493, 46.225372685], [-119.287592492, 46.225372685], [-119.287592491, 46.225372685], [-119.28759249, 46.225372684], [-119.287592489, 46.225372684], [-119.287592488, 46.225372684], [-119.287155118, 46.225415736], [-119.287155117, 46.225415737], [-119.286613778, 46.22553539], [-119.286613777, 46.22553539], [-119.28603093, 46.225697663], [-119.286031681, 46.225416411], [-119.286031681, 46.22541641], [-119.286031681, 46.225416409], [-119.286031681, 46.225416408], [-119.28603168, 46.225416407], [-119.28603168, 46.225416406], [-119.286031679, 46.225416405], [-119.286031679, 46.225416404], [-119.286031678, 46.225416403], [-119.286031677, 46.225416403], [-119.286031677, 46.225416402], [-119.286031676, 46.225416402], [-119.286031675, 46.225416401], [-119.286031674, 46.225416401], [-119.286031673, 46.225416401], [-119.286031672, 46.225416401], [-119.286031671, 46.225416401], [-119.28603167, 46.225416401], [-119.286031669, 46.225416401], [-119.286031668, 46.225416401], [-119.286031667, 46.225416401], [-119.285987241, 46.225435094], [-119.28590828, 46.225468319], [-119.285789618, 46.225518249], [-119.28523621, 46.22500073], [-119.285101074, 46.224848601], [-119.284355264, 46.224009007], [-119.284268463, 46.223901188], [-119.284274753, 46.223895925], [-119.284543265, 46.223824383], [-119.285281038, 46.22362781], [-119.286068918, 46.223632961], [-119.286058904, 46.223909938], [-119.286058904, 46.223909939], [-119.286058905, 46.22390994], [-119.286058905, 46.223909941], [-119.286058905, 46.223909942], [-119.286058905, 46.223909943], [-119.286058906, 46.223909943], [-119.286058907, 46.223909944], [-119.286058907, 46.223909945], [-119.286058908, 46.223909946], [-119.286058909, 46.223909946], [-119.28605891, 46.223909947], [-119.286058911, 46.223909948], [-119.286058912, 46.223909948], [-119.286058913, 46.223909948], [-119.286058914, 46.223909948], [-119.289348635, 46.223977999], [-119.28934865, 46.22397824], [-119.289343771, 46.224121696], [-119.28931324, 46.224493195], [-119.289246751, 46.225302226], [-119.28924675, 46.22530224], [-119.289240572, 46.225377411]]], [[[-119.190299606, 46.228076396], [-119.190299605, 46.228076396], [-119.19025481, 46.228069616], [-119.189989742, 46.228027448], [-119.189585855, 46.227963195], [-119.18947397, 46.227940997], [-119.189364101, 46.227910345], [-119.189032745, 46.227804143], [-119.189032744, 46.227804143], [-119.189032743, 46.227804143], [-119.188748936, 46.227757701], [-119.188516627, 46.227723625], [-119.188004494, 46.227648503], [-119.187991879, 46.227646653], [-119.187979255, 46.227644856], [-119.187129209, 46.227523855], [-119.186962644, 46.227495337], [-119.186017956, 46.227306057], [-119.185897339, 46.227278123], [-119.185809634, 46.227262356], [-119.185365149, 46.227157592], [-119.185333058, 46.227150029], [-119.185312705, 46.227145231], [-119.185292319, 46.227140576], [-119.184660564, 46.226996314], [-119.184462332, 46.226951047], [-119.184462331, 46.226951047], [-119.184392976, 46.226943992], [-119.184203068, 46.226895763], [-119.183826351, 46.22678013], [-119.183644145, 46.226724203], [-119.183458758, 46.226679953], [-119.183399759, 46.22666587], [-119.183399732, 46.226665864], [-119.183399722, 46.226665861], [-119.183148538, 46.226605905], [-119.183121352, 46.226599416], [-119.182951366, 46.226558841], [-119.182779307, 46.226528229], [-119.182414041, 46.226463242], [-119.18241404, 46.226463242], [-119.182414022, 46.226463239], [-119.181670113, 46.22633088], [-119.181569144, 46.226311124], [-119.180809619, 46.226148936], [-119.180760979, 46.226138549], [-119.180712174, 46.226128971], [-119.180195422, 46.226027551], [-119.180028279, 46.225994747], [-119.180010082, 46.225992237], [-119.179647699, 46.225923415], [-119.179291393, 46.225834224], [-119.17911309, 46.225783689], [-119.178966798, 46.225737298], [-119.178956308, 46.225733972], [-119.178956297, 46.225733968], [-119.178584071, 46.22561593], [-119.178567829, 46.225610779], [-119.178328855, 46.225534997], [-119.178328854, 46.225534997], [-119.178084392, 46.225479415], [-119.177837538, 46.225423289], [-119.177675348, 46.225386413], [-119.177511364, 46.225358578], [-119.17726983, 46.225317581], [-119.176738848, 46.225226651], [-119.176738819, 46.225226646], [-119.176520559, 46.225189267], [-119.176492618, 46.225183828], [-119.176438006, 46.225174392], [-119.176374918, 46.225160626], [-119.176374917, 46.225160625], [-119.176242775, 46.225140658], [-119.17567759, 46.225055257], [-119.175527595, 46.22502868], [-119.175466373, 46.225016221], [-119.175263535, 46.224974943], [-119.175263534, 46.224974943], [-119.175058334, 46.224947743], [-119.174842338, 46.224919111], [-119.174842337, 46.224919111], [-119.17470721, 46.224898054], [-119.174593311, 46.224877635], [-119.174251331, 46.224795363], [-119.174066059, 46.224739106], [-119.174066059, 46.224739105], [-119.174066058, 46.224739105], [-119.173672436, 46.224681495], [-119.173161188, 46.224606669], [-119.173161187, 46.224606669], [-119.173104514, 46.22459782], [-119.172836309, 46.224553312], [-119.172498009, 46.224497172], [-119.17237787, 46.224472127], [-119.172263446, 46.224427769], [-119.172244984, 46.224419725], [-119.172147043, 46.224377052], [-119.171945926, 46.224275545], [-119.171190337, 46.223716534], [-119.171190336, 46.223716533], [-119.171190335, 46.223716533], [-119.171190334, 46.223716532], [-119.171190333, 46.223716532], [-119.171190332, 46.223716532], [-119.170938568, 46.223690164], [-119.170442306, 46.223592384], [-119.170442305, 46.223592384], [-119.170363331, 46.223586158], [-119.170148922, 46.223551552], [-119.170111383, 46.223545493], [-119.170021422, 46.223522883], [-119.169998964, 46.223518365], [-119.169426967, 46.223380231], [-119.169422035, 46.22337904], [-119.169355485, 46.223362968], [-119.169318887, 46.223355009], [-119.169188308, 46.223319956], [-119.169189728, 46.223317475], [-119.169542936, 46.223114508], [-119.169542937, 46.223114507], [-119.169542938, 46.223114507], [-119.169542939, 46.223114506], [-119.169542939, 46.223114505], [-119.16954294, 46.223114505], [-119.16954294, 46.223114504], [-119.169542941, 46.223114503], [-119.169542941, 46.223114502], [-119.169542941, 46.223114501], [-119.169542941, 46.2231145], [-119.169542941, 46.223114499], [-119.169535471, 46.222807424], [-119.169652273, 46.222355787], [-119.169669291, 46.222314944], [-119.169806357, 46.22232313], [-119.170035913, 46.22234782], [-119.170035914, 46.222347821], [-119.170035974, 46.222347827], [-119.174304646, 46.222806867], [-119.174346279, 46.222811344], [-119.17442435, 46.22281974], [-119.174424351, 46.22281974], [-119.174503544, 46.222825058], [-119.174545017, 46.222827837], [-119.175636751, 46.222900992], [-119.175858499, 46.222915851], [-119.176069436, 46.222929986], [-119.176069437, 46.222929986], [-119.176280845, 46.222929239], [-119.17761746, 46.222924518], [-119.177836151, 46.222923745], [-119.177836152, 46.222923745], [-119.178054205, 46.222907054], [-119.179371612, 46.222806211], [-119.179592247, 46.222789322], [-119.179592248, 46.222789322], [-119.179811038, 46.222756227], [-119.181199174, 46.222546255], [-119.181336944, 46.222532006], [-119.181397023, 46.222565474], [-119.181416359, 46.222578739], [-119.18141636, 46.222578739], [-119.182018492, 46.222948962], [-119.18209227, 46.222994305], [-119.182092271, 46.222994305], [-119.182173754, 46.223032236], [-119.182375313, 46.223125228], [-119.182375314, 46.223125228], [-119.18266611, 46.223230755], [-119.182666111, 46.223230755], [-119.182971206, 46.22331463], [-119.182971207, 46.22331463], [-119.183287239, 46.223375896], [-119.18328724, 46.223375897], [-119.183610756, 46.223413904], [-119.183610757, 46.223413904], [-119.18386187, 46.223424887], [-119.183938312, 46.223428245], [-119.184019433, 46.223428385], [-119.184482001, 46.223429231], [-119.184482002, 46.223429231], [-119.187690262, 46.223435097], [-119.187837236, 46.223442678], [-119.187839307, 46.223443945], [-119.187831767, 46.223781282], [-119.187831767, 46.223781283], [-119.187831767, 46.223781284], [-119.187831768, 46.223781285], [-119.187831768, 46.223781286], [-119.187831768, 46.223781287], [-119.187831769, 46.223781288], [-119.18783177, 46.223781289], [-119.187831771, 46.22378129], [-119.187831772, 46.223781291], [-119.187831773, 46.223781291], [-119.187831774, 46.223781291], [-119.187831775, 46.223781292], [-119.187831776, 46.223781292], [-119.187831777, 46.223781292], [-119.188105422, 46.223780751], [-119.18840869, 46.223780152], [-119.188418797, 46.223786297], [-119.188422782, 46.223789302], [-119.188416902, 46.224053652], [-119.188383306, 46.225453629], [-119.188379387, 46.225616945], [-119.188168259, 46.225613472], [-119.188168258, 46.225613472], [-119.188168257, 46.225613472], [-119.188168256, 46.225613472], [-119.188168255, 46.225613473], [-119.188168254, 46.225613473], [-119.188168253, 46.225613474], [-119.188168252, 46.225613475], [-119.188168251, 46.225613476], [-119.18816825, 46.225613477], [-119.18816825, 46.225613478], [-119.188168249, 46.225613479], [-119.188168249, 46.22561348], [-119.188168249, 46.225613481], [-119.188168249, 46.225613482], [-119.188167873, 46.226347757], [-119.188167873, 46.226347758], [-119.188167873, 46.226347759], [-119.188167873, 46.22634776], [-119.188167874, 46.226347761], [-119.188167874, 46.226347762], [-119.188167875, 46.226347763], [-119.188167875, 46.226347764], [-119.188167876, 46.226347764], [-119.188167877, 46.226347765], [-119.188167878, 46.226347766], [-119.188167879, 46.226347766], [-119.18816788, 46.226347767], [-119.188167881, 46.226347767], [-119.188167882, 46.226347767], [-119.18954453, 46.226553941], [-119.189622975, 46.226565862], [-119.191237449, 46.226811061], [-119.191228828, 46.226896664], [-119.191228239, 46.226902516], [-119.191186753, 46.227109328], [-119.191145976, 46.227255966], [-119.190901104, 46.228025675], [-119.190857001, 46.228164306], [-119.190855355, 46.228163982], [-119.190766115, 46.228143404], [-119.190766114, 46.228143404], [-119.190709243, 46.228135235], [-119.190299606, 46.228076396]]], [[[-119.218014719, 46.230406302], [-119.218014718, 46.230406303], [-119.218014717, 46.230406303], [-119.218014716, 46.230406303], [-119.218014715, 46.230406304], [-119.218014714, 46.230406305], [-119.218014713, 46.230406306], [-119.218014713, 46.230406307], [-119.218014712, 46.230406307], [-119.218014712, 46.230406308], [-119.218014711, 46.230406309], [-119.217899829, 46.230787374], [-119.217879229, 46.230826454], [-119.217853604, 46.230875067], [-119.217836873, 46.230894153], [-119.217701067, 46.230920843], [-119.217090696, 46.2310113], [-119.217090695, 46.2310113], [-119.217090694, 46.2310113], [-119.217090693, 46.2310113], [-119.213115872, 46.231600366], [-119.213115802, 46.231600376], [-119.21278183, 46.231649863], [-119.212612753, 46.23166539], [-119.212479384, 46.231662563], [-119.212315345, 46.2316438], [-119.211590447, 46.231533883], [-119.211491034, 46.231517095], [-119.210940497, 46.231414583], [-119.210540104, 46.231310996], [-119.210162901, 46.231185061], [-119.2101629, 46.231185061], [-119.209973913, 46.231139504], [-119.209973912, 46.231139504], [-119.209973911, 46.231139504], [-119.209610497, 46.231111517], [-119.209456502, 46.231081136], [-119.209290214, 46.231041483], [-119.209290213, 46.231041483], [-119.209186093, 46.23102392], [-119.209091981, 46.231008046], [-119.209051527, 46.231001222], [-119.20883237, 46.230955786], [-119.208708852, 46.230925329], [-119.208429414, 46.230840614], [-119.208208898, 46.23078929], [-119.208208897, 46.230789289], [-119.208208896, 46.230789289], [-119.20788202, 46.230779206], [-119.207833461, 46.230772332], [-119.207531635, 46.230742612], [-119.207239247, 46.230627137], [-119.207207867, 46.230610404], [-119.207207866, 46.230610403], [-119.207207865, 46.230610403], [-119.207207864, 46.230610403], [-119.207207863, 46.230610403], [-119.206886866, 46.230575773], [-119.206769967, 46.230574171], [-119.206615536, 46.230572245], [-119.206615535, 46.230572245], [-119.206615534, 46.230572245], [-119.206337869, 46.230624621], [-119.206278283, 46.230627541], [-119.206148388, 46.23062825], [-119.206021651, 46.230606686], [-119.205848235, 46.230563855], [-119.205811063, 46.230553478], [-119.205810343, 46.230553277], [-119.205164175, 46.230372883], [-119.205164174, 46.230372883], [-119.204793954, 46.230292797], [-119.204793953, 46.230292797], [-119.204793952, 46.230292797], [-119.204793951, 46.230292797], [-119.20461958, 46.230318686], [-119.204452767, 46.230340282], [-119.204267803, 46.230315794], [-119.203995977, 46.230265289], [-119.203917088, 46.230249534], [-119.203493119, 46.230158937], [-119.203152964, 46.23008625], [-119.203152962, 46.23008625], [-119.202806687, 46.230053358], [-119.20232042, 46.230007167], [-119.202201877, 46.229993522], [-119.202140741, 46.22998525], [-119.202002225, 46.229959819], [-119.201866715, 46.229921473], [-119.201647012, 46.229847969], [-119.201607758, 46.229831149], [-119.201607757, 46.229831148], [-119.201607756, 46.229831148], [-119.201261103, 46.229762256], [-119.201261102, 46.229762256], [-119.200819247, 46.229708918], [-119.200819246, 46.229708918], [-119.200568848, 46.22969272], [-119.200068774, 46.22966037], [-119.199801886, 46.22963106], [-119.199797974, 46.229630452], [-119.199743148, 46.229621931], [-119.199528555, 46.229580523], [-119.199329986, 46.229534645], [-119.199091716, 46.229479593], [-119.199091715, 46.229479593], [-119.198849756, 46.229444114], [-119.198397672, 46.229377826], [-119.198397672, 46.229377825], [-119.198229715, 46.229347246], [-119.198139198, 46.229323558], [-119.19810529, 46.229311614], [-119.198101884, 46.229310603], [-119.197824226, 46.229172086], [-119.197824225, 46.229172086], [-119.197824224, 46.229172085], [-119.197690508, 46.229132482], [-119.197690507, 46.229132482], [-119.197690507, 46.229132481], [-119.196937515, 46.229027869], [-119.196866824, 46.229018048], [-119.196866823, 46.229018048], [-119.19682636, 46.229012145], [-119.196605404, 46.228978372], [-119.196576712, 46.228973986], [-119.196389232, 46.22894533], [-119.196389231, 46.22894533], [-119.196200315, 46.228928571], [-119.195908021, 46.228902642], [-119.195907669, 46.228902611], [-119.195497482, 46.228866272], [-119.195149815, 46.228835472], [-119.195149814, 46.228835472], [-119.195086603, 46.228834924], [-119.194862302, 46.228842854], [-119.194705473, 46.228842837], [-119.194599751, 46.228834311], [-119.194479287, 46.2288199], [-119.194447176, 46.228816058], [-119.194288651, 46.228792782], [-119.19375666, 46.228700095], [-119.193717432, 46.228692992], [-119.193027617, 46.22856334], [-119.192909616, 46.228541162], [-119.192790823, 46.228523722], [-119.192148772, 46.228429463], [-119.191999188, 46.228403621], [-119.191568373, 46.228317912], [-119.191424978, 46.228281929], [-119.191477994, 46.22811528], [-119.191724916, 46.227339095], [-119.191724916, 46.227339094], [-119.191770104, 46.227176537], [-119.191770105, 46.227176536], [-119.191805023, 46.22693744], [-119.191809868, 46.226897997], [-119.191809868, 46.226897996], [-119.191844312, 46.225335876], [-119.19246477, 46.225333386], [-119.194260443, 46.225326176], [-119.194260487, 46.225326176], [-119.19495603, 46.225323374], [-119.195099866, 46.225329856], [-119.195102832, 46.225332511], [-119.195103285, 46.225387018], [-119.19511576, 46.226909064], [-119.19511576, 46.226909065], [-119.19511576, 46.226909066], [-119.195115761, 46.226909066], [-119.195115761, 46.226909067], [-119.195115761, 46.226909068], [-119.195115762, 46.226909069], [-119.195115762, 46.22690907], [-119.195115763, 46.226909071], [-119.195115764, 46.226909071], [-119.195115765, 46.226909072], [-119.195115766, 46.226909073], [-119.195115767, 46.226909073], [-119.195115768, 46.226909073], [-119.195115769, 46.226909073], [-119.19511577, 46.226909074], [-119.200609238, 46.226942509], [-119.200609322, 46.226942509], [-119.201618488, 46.226948625], [-119.201627977, 46.226948682], [-119.201637467, 46.22694871], [-119.217367068, 46.226994275], [-119.217367069, 46.226994275], [-119.21820689, 46.226996707], [-119.218352408, 46.227004411], [-119.218356436, 46.227011477], [-119.218355495, 46.227041067], [-119.218318685, 46.228198128], [-119.218311158, 46.229478314], [-119.218310052, 46.229666542], [-119.217987179, 46.229667154], [-119.217987178, 46.229667154], [-119.217987177, 46.229667154], [-119.217987176, 46.229667154], [-119.217987176, 46.229667155], [-119.217987175, 46.229667155], [-119.217987174, 46.229667156], [-119.217987173, 46.229667156], [-119.217987172, 46.229667157], [-119.217987172, 46.229667158], [-119.217987171, 46.229667158], [-119.217987171, 46.229667159], [-119.21798717, 46.22966716], [-119.21798717, 46.229667161], [-119.21798717, 46.229667162], [-119.217987169, 46.229667163], [-119.217987169, 46.229667164], [-119.217995327, 46.229940612], [-119.217995327, 46.229940613], [-119.217995327, 46.229940614], [-119.217995327, 46.229940615], [-119.217995327, 46.229940616], [-119.217995328, 46.229940617], [-119.217995328, 46.229940618], [-119.217995329, 46.229940619], [-119.21799533, 46.229940619], [-119.21799533, 46.22994062], [-119.217995331, 46.22994062], [-119.217995332, 46.229940621], [-119.217995333, 46.229940621], [-119.217995334, 46.229940622], [-119.217995335, 46.229940622], [-119.217995336, 46.229940622], [-119.217995337, 46.229940622], [-119.218317424, 46.229939809], [-119.218311907, 46.230393191], [-119.218306304, 46.230400656], [-119.21830213, 46.230405219], [-119.218014721, 46.230406302], [-119.21801472, 46.230406302], [-119.218014719, 46.230406302]]], [[[-119.268269933, 46.243480892], [-119.268597325, 46.243533913], [-119.268746277, 46.243565898], [-119.268782745, 46.24357772], [-119.26883609, 46.243591853], [-119.269027232, 46.243664769], [-119.269027233, 46.243664769], [-119.269027234, 46.243664769], [-119.269414422, 46.243745072], [-119.269477117, 46.243758075], [-119.269619377, 46.243795066], [-119.269622804, 46.24379827], [-119.269621738, 46.243838254], [-119.269614756, 46.244098252], [-119.269613239, 46.244154926], [-119.269534886, 46.244137179], [-119.268114552, 46.243815431], [-119.268107022, 46.243807854], [-119.268101874, 46.243798022], [-119.26812447, 46.24346536], [-119.268125991, 46.243464757], [-119.268269933, 46.243480892]]], [[[-119.195925567, 46.250074118], [-119.195844846, 46.252375054], [-119.195836338, 46.252617592], [-119.19572175, 46.255883534], [-119.195719592, 46.255945029], [-119.195707189, 46.256089489], [-119.195562544, 46.256099499], [-119.193126564, 46.256144624], [-119.193018077, 46.256146634], [-119.192940105, 46.256147065], [-119.192084971, 46.256140676], [-119.189554674, 46.256121773], [-119.189417657, 46.256114163], [-119.189420568, 46.255976965], [-119.190184005, 46.244966385], [-119.190200386, 46.244828003], [-119.190258289, 46.244828001], [-119.190737744, 46.244825552], [-119.190854187, 46.244832035], [-119.190855457, 46.244832507], [-119.190836727, 46.245361115], [-119.190836727, 46.245361116], [-119.190836727, 46.245361117], [-119.190836727, 46.245361118], [-119.190836728, 46.245361119], [-119.190836728, 46.24536112], [-119.190836729, 46.245361121], [-119.19083673, 46.245361122], [-119.19083673, 46.245361123], [-119.190836731, 46.245361123], [-119.190836732, 46.245361124], [-119.190836733, 46.245361124], [-119.190836734, 46.245361125], [-119.190836735, 46.245361125], [-119.190836736, 46.245361125], [-119.190836737, 46.245361125], [-119.192859732, 46.245372726], [-119.192907642, 46.245380251], [-119.192909635, 46.245381229], [-119.192897231, 46.245729441], [-119.192897231, 46.245729442], [-119.192897231, 46.245729443], [-119.192897231, 46.245729444], [-119.192897232, 46.245729445], [-119.192897232, 46.245729446], [-119.192897233, 46.245729447], [-119.192897234, 46.245729448], [-119.192897235, 46.245729449], [-119.192897236, 46.24572945], [-119.192897237, 46.24572945], [-119.192897238, 46.245729451], [-119.192897239, 46.245729451], [-119.19289724, 46.245729451], [-119.192897241, 46.245729451], [-119.193332191, 46.245731819], [-119.193315774, 46.246197806], [-119.193315774, 46.246197807], [-119.193315774, 46.246197808], [-119.193315774, 46.246197809], [-119.193315774, 46.24619781], [-119.193315775, 46.246197811], [-119.193315776, 46.246197812], [-119.193315776, 46.246197813], [-119.193315777, 46.246197814], [-119.193315778, 46.246197814], [-119.193315779, 46.246197815], [-119.19331578, 46.246197815], [-119.193315781, 46.246197816], [-119.193315782, 46.246197816], [-119.193315783, 46.246197816], [-119.193315784, 46.246197816], [-119.195781993, 46.246206505], [-119.195934002, 46.246214502], [-119.19593631, 46.246357117], [-119.195927357, 46.24662145], [-119.195907411, 46.247210388], [-119.195907411, 46.247210389], [-119.195927332, 46.249947115], [-119.195925567, 46.250074118]]], [[[-119.295443041, 46.256670169], [-119.29544304, 46.256670169], [-119.295443003, 46.256670144], [-119.295055693, 46.256416374], [-119.294241619, 46.255882984], [-119.294241618, 46.255882983], [-119.294241617, 46.255882983], [-119.294241616, 46.255882982], [-119.293300681, 46.255634272], [-119.293249927, 46.255620856], [-119.293249926, 46.255620856], [-119.293249925, 46.255620856], [-119.293249924, 46.255620856], [-119.28986694, 46.254726656], [-119.289747706, 46.254689747], [-119.289636273, 46.254633517], [-119.289317034, 46.254455323], [-119.287490479, 46.25343577], [-119.287490412, 46.253435732], [-119.287142355, 46.253241441], [-119.286380624, 46.25281623], [-119.286380623, 46.252816229], [-119.286380622, 46.252816229], [-119.285529345, 46.252625543], [-119.285370944, 46.252590062], [-119.285370943, 46.252590061], [-119.285233712, 46.252552333], [-119.285196938, 46.252524275], [-119.284728741, 46.252046464], [-119.28472874, 46.252046464], [-119.284728739, 46.252046463], [-119.284728738, 46.252046462], [-119.28270765, 46.251082775], [-119.282407403, 46.250939613], [-119.282407402, 46.250939612], [-119.282093171, 46.250830516], [-119.280652156, 46.250330216], [-119.280188157, 46.250169123], [-119.280188156, 46.250169122], [-119.280188155, 46.250169122], [-119.279704136, 46.250085635], [-119.278448238, 46.249869008], [-119.278369936, 46.249855481], [-119.278369927, 46.249855479], [-119.278368955, 46.249855311], [-119.278290578, 46.249841797], [-119.278290465, 46.249841778], [-119.277927527, 46.249779185], [-119.27775029, 46.249743084], [-119.277051879, 46.249578747], [-119.275788874, 46.249281561], [-119.275627729, 46.249233937], [-119.275472952, 46.249168518], [-119.274993434, 46.248933234], [-119.27386006, 46.248377125], [-119.273752618, 46.248318848], [-119.27365029, 46.248251999], [-119.272949807, 46.247752435], [-119.272392642, 46.247355081], [-119.272392641, 46.24735508], [-119.27239264, 46.24735508], [-119.270484845, 46.246565561], [-119.270438233, 46.246545809], [-119.269866907, 46.246297999], [-119.269695678, 46.24622373], [-119.269565012, 46.246159191], [-119.26956148, 46.246151258], [-119.269559846, 46.246146995], [-119.269600235, 46.244640726], [-119.269601755, 46.244583915], [-119.269680109, 46.244601689], [-119.271215067, 46.244949378], [-119.271288183, 46.244965936], [-119.27137171, 46.244988157], [-119.271463927, 46.245012708], [-119.271657875, 46.245077288], [-119.271889282, 46.245165108], [-119.271969483, 46.245199394], [-119.271991477, 46.245208797], [-119.271991559, 46.245208832], [-119.272028418, 46.245224588], [-119.27210973, 46.245260783], [-119.272147363, 46.245278208], [-119.272231107, 46.245317009], [-119.272386711, 46.245378795], [-119.272685725, 46.245497525], [-119.272707091, 46.245506014], [-119.272707093, 46.245506015], [-119.272770551, 46.24553123], [-119.272842428, 46.245558493], [-119.274697293, 46.246262143], [-119.274775338, 46.246291757], [-119.274775339, 46.246291758], [-119.27477534, 46.246291758], [-119.274775341, 46.246291758], [-119.274775342, 46.246291758], [-119.274775343, 46.246291758], [-119.274775344, 46.246291758], [-119.274775345, 46.246291757], [-119.274775346, 46.246291757], [-119.274775347, 46.246291756], [-119.274775348, 46.246291755], [-119.274775349, 46.246291755], [-119.27477535, 46.246291754], [-119.27477535, 46.246291753], [-119.274775351, 46.246291752], [-119.274775351, 46.246291751], [-119.274775351, 46.24629175], [-119.274775351, 46.246291749], [-119.274775352, 46.246291748], [-119.274776927, 46.246232737], [-119.274785035, 46.245928987], [-119.274926113, 46.245975301], [-119.281407128, 46.248470474], [-119.281447332, 46.248485953], [-119.281487754, 46.248500852], [-119.281861161, 46.24863849], [-119.281906001, 46.248655018], [-119.281906002, 46.248655018], [-119.281951099, 46.248670829], [-119.282219112, 46.248764797], [-119.282261326, 46.248779598], [-119.282303756, 46.248793767], [-119.282641002, 46.248906391], [-119.282683662, 46.248920637], [-119.28272653, 46.248934242], [-119.283017376, 46.249026548], [-119.283057133, 46.249039165], [-119.283097061, 46.249051229], [-119.283394273, 46.249141026], [-119.283434105, 46.249153061], [-119.283474099, 46.249164541], [-119.28356239, 46.249189886], [-119.283817871, 46.249263224], [-119.285083726, 46.249605996], [-119.285083727, 46.249605996], [-119.285083728, 46.249605996], [-119.285083729, 46.249605996], [-119.28508373, 46.249605996], [-119.285083731, 46.249605996], [-119.285083732, 46.249605995], [-119.285083733, 46.249605995], [-119.285083734, 46.249605995], [-119.285083735, 46.249605994], [-119.285083735, 46.249605993], [-119.285083736, 46.249605993], [-119.285083737, 46.249605992], [-119.285083737, 46.249605991], [-119.285083738, 46.24960599], [-119.285083738, 46.249605989], [-119.285083738, 46.249605988], [-119.285083739, 46.249605987], [-119.285083739, 46.249605986], [-119.28508936, 46.249422094], [-119.285179447, 46.249422671], [-119.287039432, 46.249434586], [-119.290167401, 46.249454623], [-119.290314946, 46.249462927], [-119.290316623, 46.249463746], [-119.29027148, 46.250988803], [-119.29027148, 46.250988804], [-119.29027148, 46.250988805], [-119.29027148, 46.250988806], [-119.29027148, 46.250988807], [-119.290271481, 46.250988808], [-119.290271481, 46.250988809], [-119.290271482, 46.25098881], [-119.290271483, 46.250988811], [-119.290271484, 46.250988812], [-119.290271485, 46.250988812], [-119.290271485, 46.250988813], [-119.290271486, 46.250988813], [-119.290271487, 46.250988813], [-119.29217258, 46.251494591], [-119.292172581, 46.251494592], [-119.292871699, 46.251631809], [-119.2928717, 46.251631809], [-119.292871701, 46.251631809], [-119.292871702, 46.251631809], [-119.292871703, 46.251631809], [-119.292871704, 46.251631808], [-119.292871705, 46.251631808], [-119.292871706, 46.251631808], [-119.292871707, 46.251631807], [-119.292871708, 46.251631806], [-119.292871709, 46.251631805], [-119.29287171, 46.251631804], [-119.29287171, 46.251631803], [-119.292871711, 46.251631802], [-119.292871711, 46.251631801], [-119.292871711, 46.2516318], [-119.292871711, 46.251631799], [-119.292907658, 46.250385024], [-119.293602798, 46.250389589], [-119.294209158, 46.250393571], [-119.294161544, 46.252169938], [-119.294161544, 46.252169939], [-119.294161544, 46.25216994], [-119.294161545, 46.252169941], [-119.294161545, 46.252169942], [-119.294161545, 46.252169943], [-119.294161546, 46.252169944], [-119.294161547, 46.252169945], [-119.294161547, 46.252169946], [-119.294161548, 46.252169946], [-119.294161549, 46.252169947], [-119.29416155, 46.252169947], [-119.29416155, 46.252169948], [-119.294161551, 46.252169948], [-119.294161552, 46.252169948], [-119.295349866, 46.252403153], [-119.29558652, 46.252449594], [-119.296881638, 46.252714654], [-119.296679447, 46.256364968], [-119.296679448, 46.25636497], [-119.296689639, 46.256479848], [-119.29668545, 46.256495697], [-119.296548327, 46.256541349], [-119.295771765, 46.256757798], [-119.295636088, 46.256788781], [-119.295516202, 46.256718103], [-119.295443041, 46.256670169]]]]}, "properties": {}}]}