{"type": "FeatureCollection", "features": [{"type": "Feature", "geometry": {"type": "MultiPolygon", "coordinates": [[[[-124.603489, 47.89267], [-124.600326, 47.892714], [-124.600188, 47.888217], [-124.606873, 47.888124], [-124.606884, 47.888454], [-124.610046, 47.88841], [-124.610186, 47.892907], [-124.603499, 47.893], [-124.603489, 47.89267]]], [[[-124.623913, 47.896178], [-124.624059, 47.9007], [-124.617372, 47.900795], [-124.617314, 47.899086], [-124.610992, 47.899174], [-124.610853, 47.894678], [-124.617539, 47.894583], [-124.617592, 47.896268], [-124.623913, 47.896178]]], [[[-124.542465, 47.905332], [-124.542331, 47.900835], [-124.549019, 47.900745], [-124.549153, 47.905242], [-124.542465, 47.905332]]], [[[-124.633522, 47.90972], [-124.631336, 47.909751], [-124.631296, 47.908502], [-124.628771, 47.908538], [-124.62868, 47.905657], [-124.625292, 47.905705], [-124.625151, 47.901208], [-124.631838, 47.901113], [-124.631929, 47.903994], [-124.635317, 47.903946], [-124.635356, 47.905195], [-124.637882, 47.905159], [-124.637946, 47.907181], [-124.640132, 47.90715], [-124.640274, 47.911647], [-124.638568, 47.911671], [-124.638705, 47.916012], [-124.632016, 47.916107], [-124.631875, 47.91161], [-124.633581, 47.911586], [-124.633522, 47.90972]]], [[[-124.533306, 47.915042], [-124.533373, 47.917309], [-124.526683, 47.917398], [-124.526551, 47.912901], [-124.531093, 47.91284], [-124.531036, 47.910407], [-124.537725, 47.910318], [-124.537848, 47.914982], [-124.533306, 47.915042]]], [[[-124.478414, 47.933184], [-124.478286, 47.928687], [-124.485007, 47.928605], [-124.485136, 47.933102], [-124.478414, 47.933184]]], [[[-124.464103, 47.954658], [-124.457408, 47.954743], [-124.457282, 47.950246], [-124.463976, 47.950161], [-124.464103, 47.954658]]], [[[-124.406147, 47.977506], [-124.406269, 47.982004], [-124.399062, 47.982172], [-124.398941, 47.977674], [-124.406147, 47.977506]]], [[[-124.392897, 48.006903], [-124.393018, 48.011401], [-124.392571, 48.011406], [-124.392587, 48.012001], [-124.385885, 48.012083], [-124.385764, 48.007585], [-124.386211, 48.00758], [-124.386195, 48.006985], [-124.392897, 48.006903]]], [[[-124.386917, 48.018831], [-124.39362, 48.01875], [-124.393721, 48.024991], [-124.392645, 48.025004], [-124.392742, 48.028591], [-124.392245, 48.028597], [-124.392251, 48.028823], [-124.385546, 48.028904], [-124.385426, 48.024407], [-124.385923, 48.024401], [-124.385916, 48.024175], [-124.386992, 48.024162], [-124.386917, 48.018831]]], [[[-124.332715, 48.057029], [-124.332599, 48.052531], [-124.339307, 48.052453], [-124.339423, 48.056951], [-124.332715, 48.057029]]], [[[-124.350388, 48.053858], [-124.351261, 48.053848], [-124.351379, 48.058345], [-124.34467, 48.058424], [-124.344659, 48.057989], [-124.343786, 48.058], [-124.343765, 48.057197], [-124.339741, 48.057244], [-124.339624, 48.052747], [-124.346332, 48.052669], [-124.346353, 48.053471], [-124.350377, 48.053424], [-124.350388, 48.053858]]], [[[-124.118142, 48.059508], [-124.124851, 48.059442], [-124.124977, 48.059591], [-124.125075, 48.064089], [-124.118365, 48.064155], [-124.118239, 48.064006], [-124.118142, 48.059508]]], [[[-124.234789, 48.063841], [-124.241499, 48.063769], [-124.241607, 48.068267], [-124.241476, 48.068268], [-124.241485, 48.068646], [-124.234775, 48.068718], [-124.234667, 48.06422], [-124.234798, 48.064219], [-124.234789, 48.063841]]], [[[-124.27576, 48.072307], [-124.275649, 48.06781], [-124.282359, 48.067735], [-124.282365, 48.067948], [-124.282618, 48.067945], [-124.28273, 48.072442], [-124.276019, 48.072517], [-124.276014, 48.072304], [-124.27576, 48.072307]]], [[[-124.265433, 48.082662], [-124.265323, 48.078164], [-124.272034, 48.07809], [-124.272145, 48.082588], [-124.265433, 48.082662]]], [[[-124.218356, 48.174484], [-124.218462, 48.178981], [-124.21151, 48.179056], [-124.211404, 48.174559], [-124.218356, 48.174484]]], [[[-124.28289, 48.242499], [-124.282778, 48.238002], [-124.28951, 48.237927], [-124.289623, 48.242424], [-124.28289, 48.242499]]], [[[-124.262568, 48.246521], [-124.262586, 48.247235], [-124.263402, 48.247226], [-124.263489, 48.250731], [-124.264599, 48.250718], [-124.26471, 48.255216], [-124.264637, 48.255355], [-124.257902, 48.255429], [-124.257813, 48.251786], [-124.256779, 48.251798], [-124.256762, 48.251084], [-124.255945, 48.251092], [-124.255835, 48.246595], [-124.262568, 48.246521]]], [[[-124.309478, 48.263981], [-124.302743, 48.264058], [-124.302684, 48.261745], [-124.296239, 48.261818], [-124.296126, 48.25732], [-124.30286, 48.257244], [-124.302915, 48.259404], [-124.309574, 48.259328], [-124.309689, 48.263825], [-124.309474, 48.263828], [-124.309478, 48.263981]]], [[[-124.345265, 48.269737], [-124.343127, 48.269762], [-124.343009, 48.265265], [-124.349745, 48.265186], [-124.349819, 48.267993], [-124.351957, 48.267968], [-124.351973, 48.268585], [-124.353443, 48.268568], [-124.353562, 48.273065], [-124.346825, 48.273144], [-124.346809, 48.272527], [-124.345339, 48.272544], [-124.345265, 48.269737]]], [[[-124.371321, 48.284329], [-124.371201, 48.279832], [-124.377938, 48.279751], [-124.378059, 48.284248], [-124.371321, 48.284329]]], [[[-124.397345, 48.284665], [-124.397428, 48.289224], [-124.39069, 48.289305], [-124.390607, 48.284746], [-124.397345, 48.284665]]], [[[-124.426327, 48.307402], [-124.426202, 48.302905], [-124.432942, 48.302822], [-124.433068, 48.307319], [-124.426327, 48.307402]]], [[[-124.669257, 48.345263], [-124.669207, 48.343726], [-124.675952, 48.343628], [-124.676099, 48.348124], [-124.670324, 48.348208], [-124.670374, 48.349745], [-124.663628, 48.349843], [-124.663482, 48.345347], [-124.669257, 48.345263]]], [[[-124.577145, 48.355618], [-124.577006, 48.351121], [-124.583753, 48.351028], [-124.583892, 48.355525], [-124.577145, 48.355618]]], [[[-124.588163, 48.355827], [-124.58813, 48.354756], [-124.594876, 48.354663], [-124.595017, 48.35916], [-124.58844, 48.359251], [-124.588473, 48.360321], [-124.581726, 48.360414], [-124.581587, 48.355917], [-124.588163, 48.355827]]], [[[-124.610536, 48.368869], [-124.606412, 48.368983], [-124.606453, 48.370284], [-124.603953, 48.370361], [-124.603977, 48.371127], [-124.597729, 48.371296], [-124.597788, 48.373178], [-124.591039, 48.373272], [-124.591021, 48.372702], [-124.589084, 48.372729], [-124.589072, 48.372346], [-124.584974, 48.372403], [-124.584835, 48.367906], [-124.588665, 48.367853], [-124.588708, 48.36688], [-124.5909, 48.36685], [-124.590895, 48.366678], [-124.59944, 48.366648], [-124.599415, 48.365826], [-124.60346, 48.365769], [-124.603421, 48.364526], [-124.604241, 48.364459], [-124.604228, 48.364063], [-124.607065, 48.364023], [-124.607362, 48.363734], [-124.614364, 48.363712], [-124.614351, 48.363312], [-124.619601, 48.363222], [-124.619559, 48.361889], [-124.626306, 48.361794], [-124.626414, 48.365185], [-124.627584, 48.365168], [-124.627579, 48.365018], [-124.634327, 48.364922], [-124.634471, 48.369418], [-124.631293, 48.369463], [-124.631314, 48.370129], [-124.628382, 48.370171], [-124.628404, 48.370857], [-124.621655, 48.370952], [-124.62164, 48.370475], [-124.620533, 48.370491], [-124.62046, 48.368174], [-124.620119, 48.368179], [-124.620122, 48.368305], [-124.611303, 48.368341], [-124.611312, 48.36861], [-124.610528, 48.368621], [-124.610536, 48.368869]]], [[[-123.796621, 48.05266], [-123.796632, 48.057394], [-123.793275, 48.057417], [-123.793296, 48.058731], [-123.786586, 48.058777], [-123.786517, 48.054279], [-123.789874, 48.054256], [-123.789912, 48.052706], [-123.796621, 48.05266]]], [[[-123.597343, 48.061768], [-123.597395, 48.066266], [-123.596184, 48.066272], [-123.596191, 48.066847], [-123.58948, 48.066882], [-123.589428, 48.062384], [-123.590639, 48.062377], [-123.590633, 48.061802], [-123.597343, 48.061768]]], [[[-123.586204, 48.068176], [-123.579493, 48.06821], [-123.579486, 48.06762], [-123.579245, 48.067621], [-123.57926, 48.06894], [-123.572549, 48.068973], [-123.572499, 48.064475], [-123.573331, 48.064471], [-123.573316, 48.063152], [-123.580027, 48.063119], [-123.580034, 48.063709], [-123.586153, 48.063677], [-123.586204, 48.068176]]], [[[-123.920192, 48.066565], [-123.923547, 48.066538], [-123.923628, 48.071036], [-123.916916, 48.07109], [-123.916897, 48.070023], [-123.912809, 48.069952], [-123.912729, 48.065454], [-123.920173, 48.065498], [-123.920192, 48.066565]]], [[[-124.082362, 48.065962], [-124.089073, 48.065899], [-124.089076, 48.066045], [-124.089459, 48.066041], [-124.089554, 48.070539], [-124.082843, 48.070603], [-124.08284, 48.070456], [-124.082457, 48.07046], [-124.082362, 48.065962]]], [[[-123.649735, 48.074651], [-123.649678, 48.070153], [-123.65639, 48.070115], [-123.656447, 48.074613], [-123.649735, 48.074651]]], [[[-123.664997, 48.070771], [-123.665055, 48.075269], [-123.658343, 48.075308], [-123.658285, 48.070809], [-123.664997, 48.070771]]], [[[-123.957913, 48.073186], [-123.957997, 48.077684], [-123.951119, 48.077747], [-123.951036, 48.073249], [-123.957913, 48.073186]]], [[[-123.713625, 48.082544], [-123.713687, 48.087042], [-123.706595, 48.087191], [-123.706534, 48.082693], [-123.706913, 48.08269], [-123.706912, 48.082585], [-123.713625, 48.082544]]], [[[-123.727101, 48.083923], [-123.733814, 48.083881], [-123.73397, 48.088563], [-123.727256, 48.088606], [-123.727101, 48.083923]]], [[[-123.550758, 48.097403], [-123.557473, 48.097371], [-123.557522, 48.101869], [-123.556801, 48.101872], [-123.556803, 48.10202], [-123.550087, 48.102052], [-123.550039, 48.097554], [-123.55076, 48.09755], [-123.550758, 48.097403]]], [[[-123.569747, 48.111842], [-123.569751, 48.112203], [-123.574897, 48.112308], [-123.574947, 48.116806], [-123.574801, 48.116807], [-123.574808, 48.117401], [-123.56809, 48.117434], [-123.568082, 48.11671], [-123.565134, 48.116724], [-123.56513, 48.116364], [-123.563079, 48.116374], [-123.56303, 48.111875], [-123.569747, 48.111842]]], [[[-123.601761, 48.114502], [-123.601776, 48.115829], [-123.604127, 48.115817], [-123.604179, 48.120315], [-123.597461, 48.12035], [-123.597447, 48.119114], [-123.594726, 48.119128], [-123.594674, 48.11463], [-123.601761, 48.114502]]], [[[-123.652923, 48.12046], [-123.652796, 48.120315], [-123.652739, 48.115817], [-123.659457, 48.115779], [-123.659583, 48.115923], [-123.659641, 48.120422], [-123.652923, 48.12046]]], [[[-123.617852, 48.121672], [-123.61785, 48.121459], [-123.612616, 48.121487], [-123.612562, 48.116988], [-123.61928, 48.116952], [-123.619283, 48.117166], [-123.624416, 48.117138], [-123.624403, 48.116078], [-123.626335, 48.116067], [-123.626333, 48.115873], [-123.63305, 48.115836], [-123.633106, 48.120335], [-123.631174, 48.120345], [-123.631176, 48.120539], [-123.624558, 48.120575], [-123.62457, 48.121636], [-123.617852, 48.121672]]], [[[-123.675908, 48.118176], [-123.682283, 48.118197], [-123.682307, 48.12003], [-123.686853, 48.120002], [-123.686913, 48.124501], [-123.679925, 48.124602], [-123.6799, 48.12271], [-123.675034, 48.12268], [-123.675021, 48.121712], [-123.669236, 48.121745], [-123.669232, 48.121431], [-123.66389, 48.121462], [-123.663889, 48.121321], [-123.66368, 48.121322], [-123.663622, 48.116824], [-123.67034, 48.116785], [-123.670341, 48.116926], [-123.67055, 48.116925], [-123.670554, 48.117239], [-123.675896, 48.117208], [-123.675908, 48.118176]]], [[[-123.57448, 48.131202], [-123.574478, 48.130963], [-123.573845, 48.130966], [-123.573806, 48.127433], [-123.573266, 48.127436], [-123.573231, 48.12428], [-123.567993, 48.124306], [-123.567943, 48.119807], [-123.568138, 48.119806], [-123.568136, 48.119663], [-123.574854, 48.11963], [-123.574862, 48.120371], [-123.579926, 48.120346], [-123.579966, 48.123884], [-123.580681, 48.123881], [-123.580712, 48.126621], [-123.581437, 48.126617], [-123.581488, 48.131115], [-123.57448, 48.131202]]], [[[-123.703311, 48.125589], [-123.703471, 48.125718], [-123.703532, 48.130216], [-123.696813, 48.130257], [-123.696653, 48.130128], [-123.696618, 48.127507], [-123.691443, 48.127538], [-123.691383, 48.12304], [-123.698101, 48.122999], [-123.698136, 48.12562], [-123.703311, 48.125589]]], [[[-123.719356, 48.129146], [-123.719361, 48.129539], [-123.720143, 48.129535], [-123.720206, 48.134033], [-123.713486, 48.134075], [-123.713481, 48.133681], [-123.712699, 48.133686], [-123.712675, 48.131948], [-123.707353, 48.131981], [-123.707292, 48.127483], [-123.714011, 48.127441], [-123.714035, 48.129179], [-123.719356, 48.129146]]], [[[-123.730961, 48.133885], [-123.738218, 48.133754], [-123.738282, 48.138252], [-123.731025, 48.138383], [-123.730961, 48.133885]]], [[[-123.742491, 48.139502], [-123.742292, 48.139503], [-123.742227, 48.135005], [-123.748947, 48.134961], [-123.748949, 48.135112], [-123.749148, 48.135111], [-123.749214, 48.139609], [-123.742493, 48.139653], [-123.742491, 48.139502]]], [[[-123.765857, 48.141907], [-123.76579, 48.137409], [-123.77251, 48.137364], [-123.772578, 48.141862], [-123.765857, 48.141907]]], [[[-123.789312, 48.137639], [-123.789381, 48.142137], [-123.788437, 48.142143], [-123.788441, 48.142343], [-123.78172, 48.142389], [-123.781652, 48.137891], [-123.782595, 48.137885], [-123.782592, 48.137685], [-123.789312, 48.137639]]], [[[-123.550369, 48.146743], [-123.550365, 48.146308], [-123.545618, 48.146331], [-123.545616, 48.146172], [-123.545353, 48.146173], [-123.545357, 48.146589], [-123.538636, 48.146621], [-123.538616, 48.144725], [-123.535899, 48.144738], [-123.535852, 48.14024], [-123.542573, 48.140208], [-123.542593, 48.142104], [-123.543453, 48.1421], [-123.543449, 48.141684], [-123.543678, 48.141683], [-123.543604, 48.138436], [-123.543139, 48.138438], [-123.543091, 48.13394], [-123.549811, 48.133908], [-123.54983, 48.135699], [-123.550295, 48.135697], [-123.55031, 48.137122], [-123.550416, 48.137122], [-123.550464, 48.14162], [-123.550171, 48.141811], [-123.552291, 48.141801], [-123.552296, 48.142235], [-123.557042, 48.142212], [-123.557091, 48.14671], [-123.550369, 48.146743]]], [[[-123.804293, 48.142836], [-123.804223, 48.138338], [-123.810943, 48.13829], [-123.810945, 48.138426], [-123.811137, 48.138424], [-123.811208, 48.142922], [-123.804487, 48.14297], [-123.804485, 48.142834], [-123.804293, 48.142836]]], [[[-123.824958, 48.146166], [-123.824886, 48.141668], [-123.831607, 48.141619], [-123.83161, 48.141829], [-123.832084, 48.141826], [-123.832157, 48.146324], [-123.825436, 48.146372], [-123.825433, 48.146162], [-123.824958, 48.146166]]], [[[-123.837649, 48.149647], [-123.837576, 48.145149], [-123.844297, 48.145099], [-123.844371, 48.149597], [-123.837649, 48.149647]]], [[[-123.83736, 48.155268], [-123.830637, 48.155316], [-123.830565, 48.150818], [-123.837286, 48.15077], [-123.83736, 48.155268]]], [[[-123.496502, 47.971774], [-123.496459, 47.967275], [-123.503157, 47.967246], [-123.503201, 47.971745], [-123.496502, 47.971774]]], [[[-123.45803, 47.988735], [-123.457991, 47.984236], [-123.464691, 47.984209], [-123.464732, 47.988708], [-123.45803, 47.988735]]], [[[-123.433474, 48.035655], [-123.433512, 48.040154], [-123.426526, 48.040151], [-123.426489, 48.035652], [-123.433474, 48.035655]]], [[[-123.533229, 48.096976], [-123.533224, 48.096454], [-123.54491, 48.096458], [-123.544958, 48.100956], [-123.538232, 48.100929], [-123.538237, 48.101451], [-123.538064, 48.101452], [-123.538066, 48.101658], [-123.531351, 48.10169], [-123.531304, 48.097191], [-123.531477, 48.097191], [-123.531475, 48.096984], [-123.533229, 48.096976]]], [[[-123.433535919, 48.087739192], [-123.433470181, 48.089379794], [-123.425193669, 48.089391729], [-123.42520586, 48.091017615], [-123.422450634, 48.091047593], [-123.422287563, 48.095160073], [-123.419329394, 48.095146833], [-123.419304903, 48.094434689], [-123.419543596, 48.094435197], [-123.419615959, 48.092276255], [-123.418441644, 48.09147735], [-123.418049032, 48.090799518], [-123.414157692, 48.090756183], [-123.413961389, 48.093512629], [-123.412488912, 48.09352016], [-123.412475695, 48.094275733], [-123.410994367, 48.094267407], [-123.410954921, 48.096547019], [-123.409922161, 48.096690483], [-123.409945357, 48.097129472], [-123.408082755, 48.096614983], [-123.40810743, 48.094340337], [-123.402717755, 48.094301286], [-123.402656461, 48.097681057], [-123.402340271, 48.097685186], [-123.402423453, 48.094315751], [-123.399352328, 48.094277991], [-123.399351349, 48.094480093], [-123.398709352, 48.094474984], [-123.398670965, 48.096066463], [-123.394457543, 48.096027587], [-123.394442287, 48.096873319], [-123.392065359, 48.096882744], [-123.391839671, 48.104723575], [-123.394113237, 48.104783686], [-123.394154931, 48.105338323], [-123.397372583, 48.105781047], [-123.397377128, 48.107389392], [-123.402584151, 48.107378134], [-123.402591938, 48.1084115], [-123.400488429, 48.114277385], [-123.397651898, 48.113973207], [-123.397649649, 48.114249217], [-123.400392487, 48.1145441], [-123.400226442, 48.115005706], [-123.397648605, 48.114416678], [-123.397641773, 48.115282841], [-123.397356007, 48.115217606], [-123.397362156, 48.114415673], [-123.395397399, 48.114408818], [-123.395392266, 48.115057498], [-123.395105914, 48.115068667], [-123.395110949, 48.114407808], [-123.393146446, 48.114400909], [-123.393140425, 48.115193268], [-123.392853503, 48.115212145], [-123.392859756, 48.114400073], [-123.391350947, 48.114395313], [-123.391344758, 48.115315333], [-123.391099118, 48.115350237], [-123.391105381, 48.114392947], [-123.389817846, 48.114378848], [-123.38908798, 48.114556106], [-123.389079329, 48.115488265], [-123.388954152, 48.115503262], [-123.388833791, 48.115505647], [-123.388841702, 48.114629502], [-123.388394022, 48.114727295], [-123.386828881, 48.114553498], [-123.386813753, 48.115643629], [-123.386568319, 48.115660937], [-123.386583649, 48.114538435], [-123.386260963, 48.114518537], [-123.384571746, 48.114682912], [-123.384552996, 48.115798642], [-123.384428459, 48.115813524], [-123.384307198, 48.115815895], [-123.384325149, 48.114739037], [-123.382308114, 48.114871729], [-123.38228622, 48.115853274], [-123.382168396, 48.11584845], [-123.382044232, 48.115829282], [-123.382063182, 48.114881067], [-123.380291906, 48.114845743], [-123.379738554, 48.114726438], [-123.379981295, 48.114772719], [-123.38070164, 48.114835453], [-123.38070233, 48.114807867], [-123.376166367, 48.113912716], [-123.374239188, 48.113866543], [-123.369590159, 48.114522915], [-123.365528085, 48.115293804], [-123.360818639, 48.115506946], [-123.357250892, 48.116309523], [-123.356199804, 48.116657986], [-123.355420842, 48.117108145], [-123.354331443, 48.1171357], [-123.353820649, 48.117265984], [-123.353546325, 48.116971019], [-123.353563751, 48.116521732], [-123.35337588, 48.11645202], [-123.353511618, 48.116834952], [-123.351480209, 48.114968153], [-123.351234994, 48.114536354], [-123.35134585, 48.113839018], [-123.352285828, 48.112719853], [-123.352435706, 48.112289886], [-123.352613366, 48.11127224], [-123.352454559, 48.110829698], [-123.352211002, 48.110821169], [-123.352408342, 48.111325107], [-123.352254637, 48.11239843], [-123.351134644, 48.113904161], [-123.351067353, 48.114507379], [-123.351284154, 48.11501619], [-123.352027206, 48.115549106], [-123.353035046, 48.116934232], [-123.353026567, 48.117468087], [-123.35261176, 48.117601579], [-123.352473988, 48.117442206], [-123.352152907, 48.117553676], [-123.35217552, 48.117479437], [-123.35209158, 48.117344641], [-123.350555241, 48.117311048], [-123.350117084, 48.117563451], [-123.350057698, 48.1176486], [-123.349331411, 48.117858585], [-123.348847199, 48.117786798], [-123.346899701, 48.117758007], [-123.346024384, 48.117645544], [-123.34520267, 48.11743039], [-123.345310568, 48.117457919], [-123.343760609, 48.116688448], [-123.343873127, 48.11485058], [-123.344738115, 48.108711591], [-123.344804115, 48.106796591], [-123.344924115, 48.106481591], [-123.345617115, 48.106023591], [-123.343066088, 48.104151266], [-123.344439427, 48.103401733], [-123.347019114, 48.10236059], [-123.347760114, 48.10161859], [-123.347949001, 48.101100673], [-123.356548773, 48.101067193], [-123.357441881, 48.102306551], [-123.357444365, 48.102186255], [-123.357641601, 48.102185977], [-123.357021722, 48.101578299], [-123.356760236, 48.101066537], [-123.380269001, 48.100991151], [-123.38021522, 48.092724612], [-123.392035119, 48.095571585], [-123.39442012, 48.095928585], [-123.39443012, 48.094944585], [-123.39472612, 48.094440584], [-123.39642112, 48.093338584], [-123.397094815, 48.092374599], [-123.398569085, 48.091048592], [-123.400427119, 48.090235584], [-123.401850234, 48.088920236], [-123.402826119, 48.088393583], [-123.403302119, 48.087751583], [-123.403534097, 48.086906234], [-123.430454123, 48.08734658], [-123.431969124, 48.08750158], [-123.432296124, 48.08637958], [-123.432306123, 48.08509658], [-123.431619509, 48.082822525], [-123.433836842, 48.082814127], [-123.433877905, 48.0877365], [-123.433535919, 48.087739192]], [[-123.353941359, 48.108453417], [-123.353635276, 48.108452153], [-123.352315957, 48.109283581], [-123.351970814, 48.109978143], [-123.352056391, 48.110640129], [-123.352443148, 48.110664645], [-123.352230065, 48.110525313], [-123.352144954, 48.110168686], [-123.352322294, 48.109564719], [-123.353941359, 48.108453417]], [[-123.390936926, 48.114199149], [-123.39272944, 48.114123095], [-123.391351489, 48.114321269], [-123.393147746, 48.114167994], [-123.395112456, 48.114215999], [-123.39511369, 48.114051603], [-123.395400102, 48.114066324], [-123.395399162, 48.114217004], [-123.396904547, 48.11422218], [-123.395781639, 48.114062632], [-123.394811072, 48.113994245], [-123.390936926, 48.114199149]], [[-123.389502179, 48.114278969], [-123.389773269, 48.114263873], [-123.389502168, 48.114278958], [-123.389502179, 48.114278969]], [[-123.388320914, 48.114332423], [-123.38683023, 48.114453893], [-123.388320929, 48.11433243], [-123.388320914, 48.114332423]], [[-123.385771763, 48.114512349], [-123.384571945, 48.114671112], [-123.386584693, 48.114446244], [-123.385771763, 48.114512349]], [[-123.38727153, 48.114587539], [-123.387164874, 48.114573159], [-123.387160681, 48.114573268], [-123.38716069, 48.114573279], [-123.38727153, 48.114587539]], [[-123.357480067, 48.102350624], [-123.357511914, 48.102689587], [-123.357730111, 48.102689463], [-123.357722129, 48.10235043], [-123.357480067, 48.102350624]], [[-123.357728804, 48.102744276], [-123.357098331, 48.10310235], [-123.357073172, 48.103138002], [-123.357311501, 48.103271138], [-123.357668023, 48.102984847], [-123.357728804, 48.102744276]], [[-123.356690161, 48.10377211], [-123.355766229, 48.104201338], [-123.355575835, 48.104604892], [-123.355862348, 48.104681447], [-123.355935843, 48.104356994], [-123.35680301, 48.103867067], [-123.356690161, 48.10377211]], [[-123.355601435, 48.104645058], [-123.355589007, 48.104627939], [-123.355601417, 48.104645064], [-123.355601435, 48.104645058]]], [[[-123.517627, 48.099329], [-123.517706, 48.098922], [-123.524421, 48.098892], [-123.524387, 48.103711], [-123.517914, 48.103741], [-123.517885, 48.104569], [-123.511169, 48.104599], [-123.511164, 48.104139], [-123.510713, 48.104141], [-123.510669, 48.099643], [-123.511157, 48.099641], [-123.511154, 48.099358], [-123.517627, 48.099329]]], [[[-123.511317336, 48.112285726], [-123.511422798, 48.116379132], [-123.503975659, 48.115948125], [-123.503962016, 48.114030857], [-123.495791759, 48.114012586], [-123.495788082, 48.112229976], [-123.486757282, 48.112335778], [-123.486630169, 48.114447462], [-123.471473141, 48.111873647], [-123.47180271, 48.107303381], [-123.473794835, 48.107247931], [-123.473821943, 48.105956895], [-123.473992654, 48.105816851], [-123.503923702, 48.102871415], [-123.504032141, 48.111955573], [-123.511603569, 48.111985726], [-123.511577, 48.10933], [-123.518294, 48.1093], [-123.518339, 48.113798], [-123.511622, 48.113828], [-123.511606229, 48.112251567], [-123.511317336, 48.112285726]]], [[[-123.521469, 48.109645], [-123.528566, 48.109713], [-123.528613, 48.114212], [-123.521514, 48.114143], [-123.521469, 48.109645]]], [[[-123.396228803, 48.114132886], [-123.396228414, 48.114132831], [-123.395926478, 48.114108095], [-123.396228803, 48.114132886]]], [[[-123.393475756, 48.114133002], [-123.39350165, 48.114130229], [-123.393451063, 48.114135626], [-123.393475756, 48.114133002]]], [[[-123.379569071, 48.114678918], [-123.379809367, 48.114730865], [-123.380014849, 48.114765276], [-123.379809329, 48.114730889], [-123.379569071, 48.114678918]]], [[[-123.400213453, 48.115041814], [-123.400097734, 48.115006354], [-123.400216821, 48.115032451], [-123.400213453, 48.115041814]]], [[[-123.401547359, 48.115295165], [-123.402368843, 48.115485221], [-123.402818322, 48.115769247], [-123.402042313, 48.115428244], [-123.401547359, 48.115295165]]], [[[-123.405246594, 48.116732915], [-123.400896471, 48.11525111], [-123.402022651, 48.115452338], [-123.403610596, 48.116139014], [-123.404154614, 48.116308875], [-123.404813806, 48.116460206], [-123.405476514, 48.116538021], [-123.405419807, 48.116971292], [-123.405246594, 48.116732915]]], [[[-123.40551906, 48.116527042], [-123.404170705, 48.116283642], [-123.402973116, 48.115835145], [-123.404048432, 48.116216173], [-123.405518488, 48.116491057], [-123.405537255, 48.116500762], [-123.405502395, 48.11665439], [-123.40551906, 48.116527042]]], [[[-123.357582558, 48.116316473], [-123.357579329, 48.116317339], [-123.35758652, 48.116315567], [-123.357582558, 48.116316473]]], [[[-123.357523003, 48.116336944], [-123.357515834, 48.116340366], [-123.35753218, 48.116332987], [-123.357523003, 48.116336944]]], [[[-123.355996731, 48.116834633], [-123.357266448, 48.116334941], [-123.357477549, 48.116289542], [-123.355996731, 48.116834633]]], [[[-123.404677489, 48.116965318], [-123.403822859, 48.1163808], [-123.404925742, 48.116693613], [-123.404677489, 48.116965318]]], [[[-123.405603245, 48.117223738], [-123.405519069, 48.117107895], [-123.405614574, 48.117136567], [-123.405603245, 48.117223738]]], [[[-123.405653889, 48.117121097], [-123.405488531, 48.117065867], [-123.40570537, 48.117090982], [-123.40561727, 48.11743211], [-123.405653889, 48.117121097]]], [[[-123.355374113, 48.117134074], [-123.354044978, 48.117586038], [-123.353838267, 48.117291122], [-123.355374113, 48.117134074]]], [[[-123.406734059, 48.11784473], [-123.405518729, 48.117637743], [-123.405174582, 48.11721222], [-123.405598136, 48.117263034], [-123.405580083, 48.117499934], [-123.40675586, 48.117684074], [-123.406734059, 48.11784473]]], [[[-123.406784169, 48.117660487], [-123.405612796, 48.117466534], [-123.406795057, 48.117607461], [-123.406784169, 48.117660487]]], [[[-123.522278, 48.120122], [-123.522232, 48.115623], [-123.52895, 48.115593], [-123.528996, 48.120091], [-123.522278, 48.120122]]], [[[-123.522463, 48.125529], [-123.522417, 48.121031], [-123.529136, 48.121], [-123.529182, 48.125499], [-123.522463, 48.125529]]], [[[-123.534005, 48.131729], [-123.527285, 48.13176], [-123.527239, 48.127261], [-123.533958, 48.12723], [-123.534005, 48.131729]]], [[[-123.013843, 48.021608], [-123.01461, 48.021608], [-123.014612, 48.026107], [-123.007905, 48.026108], [-123.007905, 48.023629], [-123.007138, 48.02363], [-123.007137, 48.02198], [-123.001135, 48.02198], [-123.001135, 48.017482], [-123.00784, 48.017482], [-123.007841, 48.019131], [-123.013842, 48.01913], [-123.013843, 48.021608]]], [[[-122.992759, 48.021375], [-123.000359, 48.021311], [-123.000359, 48.025809], [-122.999049, 48.025875], [-122.999049, 48.027122], [-122.992343, 48.027122], [-122.992343, 48.022624], [-122.99268, 48.022624], [-122.992759, 48.021375]]], [[[-123.027673, 48.03883], [-123.027673, 48.038656], [-123.034381, 48.038654], [-123.034384, 48.043152], [-123.034053, 48.043152], [-123.034054, 48.043327], [-123.027345, 48.043329], [-123.027343, 48.038831], [-123.027673, 48.03883]]], [[[-123.119981288, 48.072253793], [-123.118744997, 48.072240554], [-123.118627282, 48.068788284], [-123.12406416, 48.068822215], [-123.124084845, 48.066092094], [-123.126683413, 48.066094423], [-123.126666556, 48.068717081], [-123.126911973, 48.068717769], [-123.126958799, 48.061513441], [-123.130869542, 48.061521175], [-123.130870365, 48.063275392], [-123.132215642, 48.063276885], [-123.132218228, 48.06261418], [-123.134858634, 48.062612222], [-123.134867835, 48.057862459], [-123.118747711, 48.057828265], [-123.118725062, 48.05968191], [-123.117370769, 48.059679079], [-123.117371666, 48.059474976], [-123.114652218, 48.059469403], [-123.114644835, 48.061422217], [-123.109911606, 48.061444158], [-123.109964759, 48.063415924], [-123.111886978, 48.063371177], [-123.111879317, 48.064411862], [-123.110535078, 48.064061728], [-123.110530096, 48.06508786], [-123.110387163, 48.065094809], [-123.108257913, 48.065084998], [-123.108256199, 48.064831958], [-123.107959454, 48.064831614], [-123.107957202, 48.064271465], [-123.105162719, 48.064266081], [-123.105161515, 48.064724603], [-123.104813885, 48.0647242], [-123.104928475, 48.065163903], [-123.103113216, 48.064996366], [-123.102460603, 48.064721224], [-123.102458947, 48.059736347], [-123.0970802, 48.059680341], [-123.097039883, 48.065273223], [-123.095779374, 48.065591402], [-123.080836334, 48.065596152], [-123.080891146, 48.061288102], [-123.075310485, 48.061267358], [-123.074906939, 48.05970104], [-123.074579548, 48.059393681], [-123.074107514, 48.05929938], [-123.071705903, 48.05947784], [-123.069823873, 48.059402213], [-123.069824197, 48.06125409], [-123.064469682, 48.061240772], [-123.064466169, 48.060970512], [-123.05820608, 48.060957224], [-123.061526495, 48.057686123], [-123.064546395, 48.057756269], [-123.064954058, 48.057942619], [-123.064960058, 48.059179619], [-123.065095058, 48.059312619], [-123.068509059, 48.059475619], [-123.070957916, 48.058382816], [-123.075660079, 48.05873461], [-123.077805061, 48.059519618], [-123.082787062, 48.062097618], [-123.082426061, 48.060386618], [-123.081142061, 48.058704618], [-123.081163806, 48.058347196], [-123.081697061, 48.058347618], [-123.082009061, 48.058751618], [-123.083038061, 48.059392617], [-123.083328061, 48.059305617], [-123.083529061, 48.058795617], [-123.083866901, 48.058652258], [-123.085643062, 48.058966617], [-123.090124062, 48.059040617], [-123.091771062, 48.057761616], [-123.092609062, 48.055502616], [-123.093013062, 48.053912616], [-123.092857061, 48.052417616], [-123.091755925, 48.050868813], [-123.092533236, 48.050496922], [-123.102420833, 48.050558138], [-123.102378064, 48.057387615], [-123.102473064, 48.057708615], [-123.102887064, 48.057830615], [-123.119389067, 48.057812613], [-123.120799067, 48.057214613], [-123.123720067, 48.057411613], [-123.124044067, 48.057254613], [-123.124152067, 48.056989613], [-123.12411688, 48.05432161], [-123.124249249, 48.054226436], [-123.131208068, 48.054210612], [-123.132006068, 48.054057612], [-123.133451753, 48.053453139], [-123.134998271, 48.053440327], [-123.134955119, 48.066805715], [-123.134110485, 48.066800194], [-123.134109476, 48.067000238], [-123.13224696, 48.067006575], [-123.132221893, 48.07243489], [-123.120128722, 48.072391316], [-123.119981288, 48.072253793]]], [[[-123.12409116, 48.065189145], [-123.124104847, 48.063349824], [-123.126701192, 48.063352869], [-123.126689209, 48.065192769], [-123.12409116, 48.065189145]]], [[[-123.050331, 48.077834], [-123.050326, 48.073335], [-123.057039, 48.073332], [-123.057044, 48.077831], [-123.050331, 48.077834]]], [[[-123.159644312, 48.077517638], [-123.163492654, 48.078142449], [-123.163486, 48.076147], [-123.170199, 48.076137], [-123.170202, 48.077013], [-123.175705, 48.077005], [-123.175715157, 48.080050632], [-123.180937587, 48.080834145], [-123.180931, 48.078982], [-123.187644, 48.078971], [-123.187655146, 48.081920694], [-123.192151551, 48.082666247], [-123.192157258, 48.083465557], [-123.196424292, 48.083458328], [-123.196417, 48.081529], [-123.20313, 48.081517], [-123.203132, 48.082084], [-123.204009, 48.082083], [-123.204027, 48.086581], [-123.200080092, 48.086588054], [-123.200209571, 48.092656717], [-123.200125284, 48.105237778], [-123.170622087, 48.10524061], [-123.169286087, 48.10563461], [-123.168136087, 48.10638361], [-123.167567087, 48.10719461], [-123.167405538, 48.108638143], [-123.167261327, 48.108656073], [-123.158613855, 48.108648667], [-123.153322084, 48.107600612], [-123.153279868, 48.107719367], [-123.153051322, 48.107671563], [-123.152337923, 48.110146942], [-123.151666053, 48.110843272], [-123.151264256, 48.111534274], [-123.149912455, 48.112312533], [-123.149740119, 48.112564739], [-123.14977232, 48.113211939], [-123.149542255, 48.114369144], [-123.149779654, 48.114435085], [-123.149816947, 48.114881285], [-123.14934497, 48.116019818], [-123.14963531, 48.116018548], [-123.149421432, 48.116293694], [-123.149152445, 48.116294861], [-123.148728368, 48.117019236], [-123.147376852, 48.118465544], [-123.146316096, 48.120475644], [-123.144998857, 48.121464735], [-123.143941385, 48.122548521], [-123.143332243, 48.122682365], [-123.14297301, 48.122939654], [-123.142562562, 48.12345815], [-123.142676885, 48.123837736], [-123.143410262, 48.124525261], [-123.14348832, 48.124821682], [-123.143351659, 48.125565917], [-123.143443887, 48.127070795], [-123.143628809, 48.127359725], [-123.14378806, 48.128567744], [-123.144285139, 48.130078306], [-123.144165465, 48.130829194], [-123.141761127, 48.132537947], [-123.141367054, 48.133404342], [-123.140822262, 48.135531735], [-123.140180288, 48.136185159], [-123.139383608, 48.136671667], [-123.138855928, 48.137478342], [-123.135434811, 48.137742934], [-123.134769649, 48.13824528], [-123.133954861, 48.138600471], [-123.133765862, 48.139088543], [-123.133822858, 48.139412152], [-123.134780323, 48.140613684], [-123.134744382, 48.141193706], [-123.134316522, 48.14163765], [-123.132434859, 48.142356678], [-123.131152449, 48.143300062], [-123.129360934, 48.143232743], [-123.129020094, 48.143506045], [-123.127360089, 48.142588617], [-123.123961978, 48.141323054], [-123.122769104, 48.140515612], [-123.122106704, 48.139866249], [-123.121450863, 48.138796635], [-123.119968086, 48.134990617], [-123.118099085, 48.132170617], [-123.116665084, 48.130464617], [-123.115233084, 48.129148617], [-123.111693136, 48.126570265], [-123.111671536, 48.119560076], [-123.102209217, 48.119562198], [-123.102224075, 48.101450617], [-123.098478074, 48.101441618], [-123.097285936, 48.101246942], [-123.096615109, 48.10125109], [-123.0956537, 48.10152544], [-123.091422236, 48.101354489], [-123.091422073, 48.100601619], [-123.088669072, 48.100196619], [-123.084773403, 48.100543846], [-123.084780485, 48.100254864], [-123.086185064, 48.098616266], [-123.087399072, 48.097864619], [-123.087401324, 48.097266164], [-123.088683071, 48.096026619], [-123.089162943, 48.095110582], [-123.091344071, 48.093665618], [-123.09140686, 48.086942599], [-123.091825992, 48.086941048], [-123.091836367, 48.084361033], [-123.095005857, 48.084521657], [-123.095019542, 48.085912979], [-123.097003483, 48.085905271], [-123.096991341, 48.084936808], [-123.102009474, 48.084881388], [-123.10202295, 48.085544073], [-123.099727587, 48.085549628], [-123.09972569, 48.085964901], [-123.102022396, 48.085970638], [-123.102015528, 48.0874416], [-123.100862308, 48.087440344], [-123.100862867, 48.087832546], [-123.10201671, 48.087833059], [-123.102017844, 48.088206263], [-123.103532787, 48.088209456], [-123.103552388, 48.087463362], [-123.102909842, 48.087461723], [-123.102924553, 48.086701018], [-123.109663659, 48.086781061], [-123.109612027, 48.091519932], [-123.106382574, 48.091418974], [-123.106235132, 48.091878926], [-123.10513059, 48.091870215], [-123.105109958, 48.089445974], [-123.102667286, 48.089426717], [-123.102649475, 48.088565479], [-123.09688933, 48.08856355], [-123.096896257, 48.090428192], [-123.099588035, 48.090432612], [-123.099606757, 48.092304703], [-123.098128119, 48.092273856], [-123.098108593, 48.093539761], [-123.097594806, 48.093540642], [-123.097596949, 48.093919543], [-123.09178973, 48.093903212], [-123.091782701, 48.094318648], [-123.091481658, 48.094318324], [-123.091491317, 48.101282657], [-123.097955369, 48.101242807], [-123.097861731, 48.098861649], [-123.101810451, 48.098785001], [-123.101815955, 48.098944278], [-123.104147468, 48.098915002], [-123.10409028, 48.097938503], [-123.104984322, 48.09793795], [-123.104957205, 48.094418941], [-123.109624718, 48.094398418], [-123.109624201, 48.093968312], [-123.112358222, 48.093986087], [-123.112362939, 48.092876077], [-123.112899186, 48.092882622], [-123.11290193, 48.093980076], [-123.120200616, 48.094013093], [-123.120215552, 48.092725371], [-123.118619761, 48.092753021], [-123.118636668, 48.089283362], [-123.121417563, 48.089299715], [-123.121424682, 48.088518529], [-123.124309552, 48.088559811], [-123.124308868, 48.087824985], [-123.125080473, 48.087835978], [-123.125079516, 48.086909563], [-123.123978328, 48.086879589], [-123.123962695, 48.084248841], [-123.124641138, 48.084219467], [-123.124651915, 48.083297705], [-123.128437641, 48.084491487], [-123.128621674, 48.084257498], [-123.125691373, 48.083335937], [-123.126058011, 48.083329962], [-123.126076255, 48.080615726], [-123.129453958, 48.080630683], [-123.129489911, 48.079694428], [-123.129071789, 48.079614336], [-123.132053905, 48.079582959], [-123.132007907, 48.083346477], [-123.140315615, 48.083373921], [-123.140385001, 48.074853853], [-123.152928854, 48.076559791], [-123.152923, 48.074534], [-123.159635, 48.074525], [-123.159644312, 48.077517638]], [[-123.154194879, 48.100949679], [-123.153868744, 48.098772137], [-123.15198288, 48.097604292], [-123.151471074, 48.097032873], [-123.150693673, 48.09658274], [-123.150489143, 48.096259078], [-123.150703542, 48.094010476], [-123.149844675, 48.093028471], [-123.150050274, 48.091761543], [-123.149806488, 48.091044649], [-123.150171817, 48.090868839], [-123.150372078, 48.090425626], [-123.151138208, 48.090045925], [-123.151230441, 48.089720668], [-123.151032722, 48.08882736], [-123.150550818, 48.088283755], [-123.151002283, 48.087099263], [-123.150818159, 48.08680115], [-123.149856625, 48.086322551], [-123.149071633, 48.086237719], [-123.148123136, 48.085480939], [-123.147525939, 48.084937734], [-123.146774072, 48.083566275], [-123.146806938, 48.083292074], [-123.147413338, 48.082458678], [-123.147430939, 48.081131281], [-123.148585739, 48.080029283], [-123.148823673, 48.079343746], [-123.148865337, 48.078142679], [-123.149299463, 48.077863084], [-123.150821931, 48.077534483], [-123.15128047, 48.077282344], [-123.151526272, 48.076986282], [-123.151477742, 48.076624476], [-123.150998052, 48.076548646], [-123.151002447, 48.076975135], [-123.150740318, 48.077139532], [-123.149946118, 48.077501335], [-123.148849453, 48.07768193], [-123.148210845, 48.078027135], [-123.148104111, 48.078367275], [-123.148439045, 48.079228476], [-123.148373045, 48.079743942], [-123.146972512, 48.081103733], [-123.146816712, 48.08143814], [-123.146922245, 48.082480476], [-123.146307712, 48.083209542], [-123.146299312, 48.083418077], [-123.146904246, 48.084465878], [-123.146944846, 48.084942951], [-123.147542046, 48.085349081], [-123.147461465, 48.085985396], [-123.147617088, 48.086333693], [-123.148195783, 48.086526576], [-123.149122696, 48.086524469], [-123.150249815, 48.087545881], [-123.150482828, 48.089167256], [-123.149642651, 48.089556542], [-123.149412918, 48.090044665], [-123.149249268, 48.090061072], [-123.148676739, 48.089468541], [-123.148259847, 48.088749871], [-123.148275648, 48.08938608], [-123.149076915, 48.090494144], [-123.148994715, 48.091015274], [-123.148404849, 48.091662268], [-123.148314447, 48.092051546], [-123.149050648, 48.092912943], [-123.149001049, 48.09347248], [-123.149622648, 48.09439955], [-123.149450049, 48.095403138], [-123.14951505, 48.09596254], [-123.150177117, 48.097257147], [-123.151036517, 48.097789542], [-123.151347121, 48.098513682], [-123.152411119, 48.098963685], [-123.152763058, 48.099479355], [-123.153581656, 48.099600147], [-123.153802451, 48.100050082], [-123.153703452, 48.101185344], [-123.152679052, 48.102430144], [-123.152719319, 48.103461278], [-123.153406653, 48.104262148], [-123.15324212, 48.105271277], [-123.153511452, 48.106412276], [-123.153147435, 48.107456375], [-123.15350667, 48.107536276], [-123.154199346, 48.10657148], [-123.154167345, 48.10547447], [-123.153954453, 48.105386672], [-123.153920853, 48.106609737], [-123.153740679, 48.106807137], [-123.153585947, 48.105298871], [-123.153767079, 48.104125145], [-123.153145145, 48.10343394], [-123.153022745, 48.102830673], [-123.153358943, 48.102084745], [-123.154194879, 48.100949679]]], [[[-123.212006, 48.088227], [-123.211988, 48.083729], [-123.218701, 48.083716], [-123.218704, 48.084416], [-123.220216, 48.084413], [-123.220236, 48.088912], [-123.213521, 48.088925], [-123.213518, 48.088225], [-123.212006, 48.088227]]], [[[-122.928496, 48.089432], [-122.932757, 48.089435], [-122.93113, 48.089275], [-122.931136, 48.084777], [-122.934115, 48.084778], [-122.934119, 48.081845], [-122.940832, 48.081849], [-122.940827, 48.086347], [-122.938037, 48.086346], [-122.938034, 48.089081], [-122.939472, 48.089082], [-122.939467, 48.09358], [-122.936255, 48.093578], [-122.936255, 48.094211], [-122.92954, 48.094207], [-122.92954, 48.093931], [-122.927268, 48.09393], [-122.92727, 48.092206], [-122.921777, 48.092202], [-122.921784, 48.087704], [-122.928498, 48.087708], [-122.928496, 48.089432]]], [[[-123.231147, 48.091148], [-123.231127, 48.08665], [-123.237841, 48.086636], [-123.237843, 48.087037], [-123.238194, 48.087115], [-123.241978, 48.087107], [-123.24198, 48.087522], [-123.242607, 48.087521], [-123.242628, 48.092019], [-123.235913, 48.092033], [-123.235911, 48.091618], [-123.2315, 48.091548], [-123.231498, 48.091147], [-123.231147, 48.091148]]], [[[-123.262589, 48.094307], [-123.255874, 48.094322], [-123.255851, 48.089823], [-123.262566, 48.089808], [-123.262589, 48.094307]]], [[[-123.270323, 48.095577], [-123.2703, 48.091079], [-123.277014, 48.091063], [-123.277017, 48.091573], [-123.278084, 48.091571], [-123.278109, 48.096069], [-123.271393, 48.096085], [-123.271391, 48.095575], [-123.270323, 48.095577]]], [[[-123.287627, 48.097882], [-123.287503, 48.093073], [-123.294218, 48.093056], [-123.294342, 48.097865], [-123.287627, 48.097882]]], [[[-122.923287, 48.09786], [-122.916572, 48.097855], [-122.916579, 48.093356], [-122.923294, 48.093361], [-122.923287, 48.09786]]], [[[-123.095862513, 48.096989318], [-123.095555811, 48.096426864], [-123.095767342, 48.096338892], [-123.095534358, 48.095803487], [-123.095967186, 48.095688994], [-123.095850423, 48.094164183], [-123.098282019, 48.094163315], [-123.09836286, 48.097387049], [-123.095797025, 48.097424134], [-123.095862513, 48.096989318]]], [[[-123.297825, 48.098259], [-123.297799, 48.093761], [-123.304514, 48.093743], [-123.304517, 48.094182], [-123.307234, 48.094175], [-123.307261, 48.098673], [-123.300545, 48.098691], [-123.300543, 48.098252], [-123.297825, 48.098259]]], [[[-123.320603, 48.100154], [-123.320519, 48.095301], [-123.327234, 48.095282], [-123.327295, 48.09642], [-123.331588, 48.096408], [-123.33159, 48.096671], [-123.335569, 48.096659], [-123.335598, 48.101157], [-123.328883, 48.101177], [-123.328881, 48.100914], [-123.324901, 48.100926], [-123.324896, 48.100142], [-123.320603, 48.100154]]], [[[-123.344460153, 48.117210847], [-123.343757049, 48.116722543], [-123.34520533, 48.117447755], [-123.344460153, 48.117210847]]], [[[-123.351196834, 48.117652077], [-123.35062066, 48.117778194], [-123.350578247, 48.117702068], [-123.350801098, 48.117584893], [-123.351196834, 48.117652077]]], [[[-123.349593091, 48.118060264], [-123.348281013, 48.117869019], [-123.348845532, 48.117814418], [-123.349331229, 48.117886336], [-123.349526406, 48.117852719], [-123.350085628, 48.117669618], [-123.350563726, 48.117338716], [-123.352072022, 48.117371894], [-123.352130827, 48.11747709], [-123.352009079, 48.117403381], [-123.351462604, 48.117653518], [-123.351117713, 48.117577694], [-123.350586684, 48.117576929], [-123.350571603, 48.117792208], [-123.349593091, 48.118060264]]], [[[-123.353015976, 48.117805042], [-123.351381879, 48.117973325], [-123.35248316, 48.117773769], [-123.353018783, 48.117501016], [-123.353015976, 48.117805042]]], [[[-123.348248271, 48.117860359], [-123.348259284, 48.117862087], [-123.34817536, 48.117854222], [-123.348248271, 48.117860359]]], [[[-123.13698309, 48.138952615], [-123.135280065, 48.138422331], [-123.136438014, 48.137963882], [-123.138594004, 48.137790625], [-123.138589484, 48.138087936], [-123.137679156, 48.138726589], [-123.13698309, 48.138952615]]]]}, "properties": {}}]}