{
"type": "FeatureCollection",
"name": "asotin_ui_with_pop_centers",
"crs": { "type": "name", "properties": { "name": "urn:ogc:def:crs:OGC:1.3:CRS84" } },
"features": [
{ "type": "Feature", "properties": { }, "geometry": { "type": "MultiPolygon", "coordinates": [ [ [ [ -117.1326456, 46.13278552 ], [ -117.1332466, 46.13277652 ], [ -117.13725161, 46.13277651 ], [ -117.13725061, 46.13362851 ], [ -117.13728761, 46.13371651 ], [ -117.13531361, 46.13731651 ], [ -117.13423461, 46.13730451 ], [ -117.13413461, 46.13724451 ], [ -117.1339946, 46.13719451 ], [ -117.1338746, 46.13718451 ], [ -117.1336136, 46.13718451 ], [ -117.1335446, 46.13718451 ], [ -117.1330246, 46.13720451 ], [ -117.1328346, 46.13720451 ], [ -117.1325746, 46.13720451 ], [ -117.1323876, 46.13719851 ], [ -117.1322146, 46.13719451 ], [ -117.1319946, 46.13718451 ], [ -117.1318286, 46.13718551 ], [ -117.1316766, 46.13718051 ], [ -117.1315286, 46.13718051 ], [ -117.1314246, 46.13720451 ], [ -117.1311806, 46.13725151 ], [ -117.1310646, 46.13727451 ], [ -117.1309436, 46.13749751 ], [ -117.1309246, 46.13753451 ], [ -117.1308346, 46.13768451 ], [ -117.1306546, 46.13794451 ], [ -117.1305166, 46.13811301 ], [ -117.1303326, 46.13832451 ], [ -117.1302541, 46.13840401 ], [ -117.1298146, 46.13884451 ], [ -117.1295276, 46.13913851 ], [ -117.1289756, 46.13895951 ], [ -117.12699159, 46.13831852 ], [ -117.12813659, 46.13719852 ], [ -117.1293646, 46.13534652 ], [ -117.1303156, 46.13361252 ], [ -117.1303156, 46.13356452 ], [ -117.1303296, 46.13279052 ], [ -117.1326456, 46.13278552 ] ] ], [ [ [ -117.03850628, 46.341892714 ], [ -117.036775062, 46.34170699 ], [ -117.035059585, 46.341499247 ], [ -117.033708056, 46.341130798 ], [ -117.03272462, 46.340860016 ], [ -117.031263496, 46.34039433 ], [ -117.030176625, 46.339929996 ], [ -117.029077823, 46.339373779 ], [ -117.028017214, 46.33882895 ], [ -117.027637307, 46.338612292 ], [ -117.026750793, 46.33788823 ], [ -117.026399376, 46.33765062 ], [ -117.02670663, 46.334839114 ], [ -117.030008734, 46.334857927 ], [ -117.029996745, 46.334794941 ], [ -117.02995842, 46.334715968 ], [ -117.027994255, 46.332918353 ], [ -117.027778812, 46.332641382 ], [ -117.027584852, 46.332224432 ], [ -117.027244398, 46.331133895 ], [ -117.027133235, 46.330934791 ], [ -117.027492753, 46.327643825 ], [ -117.032872788, 46.327664349 ], [ -117.03293858, 46.331264589 ], [ -117.038188184, 46.331297386 ], [ -117.040606055, 46.331279951 ], [ -117.048589488, 46.33121338 ], [ -117.048655044, 46.334832923 ], [ -117.05270441, 46.33479461 ], [ -117.059471187, 46.334730265 ], [ -117.059557515, 46.338339181 ], [ -117.059570156, 46.344684411 ], [ -117.059819822, 46.344568376 ], [ -117.060103585, 46.344697905 ], [ -117.060330025, 46.344839393 ], [ -117.060750486, 46.345149735 ], [ -117.061173058, 46.345451314 ], [ -117.059696196, 46.345374326 ], [ -117.059654432528546, 46.345337768122548 ], [ -117.05968053, 46.34536062 ], [ -117.06117506, 46.34666881 ], [ -117.06154543, 46.34698792 ], [ -117.06197123, 46.34737637 ], [ -117.06227004, 46.34766886 ], [ -117.06230125, 46.34772771 ], [ -117.06229542, 46.34772142 ], [ -117.06202682, 46.34751915 ], [ -117.06163809, 46.34730329 ], [ -117.06117876, 46.34701122 ], [ -117.06086196, 46.34677282 ], [ -117.06062402, 46.34655249 ], [ -117.06027556, 46.34623322 ], [ -117.06006209, 46.34612982 ], [ -117.05972963, 46.34605795 ], [ -117.05966382, 46.34604488 ], [ -117.059637270182776, 46.345322744971668 ], [ -117.059571313, 46.345265009 ], [ -117.059571518, 46.345367826 ], [ -117.054878929, 46.345123071 ], [ -117.0545182, 46.344951098 ], [ -117.053857141, 46.344664435 ], [ -117.053688501, 46.344587426 ], [ -117.053518189, 46.344517449 ], [ -117.051994762, 46.343856794 ], [ -117.051727033, 46.343775942 ], [ -117.051676167, 46.343760581 ], [ -117.051666054, 46.343756426 ], [ -117.051476937, 46.343700414 ], [ -117.050881349, 46.343520547 ], [ -117.049226575, 46.34292823 ], [ -117.047891819, 46.342708177 ], [ -117.046255073, 46.342423338 ], [ -117.044547759, 46.342254148 ], [ -117.0425084, 46.342267461 ], [ -117.040578599, 46.342055103 ], [ -117.03850628, 46.341892714 ] ] ], [ [ [ -117.05997776, 46.37137656 ], [ -117.06102289, 46.37064102 ], [ -117.0618627, 46.36960962 ], [ -117.06281663, 46.36843982 ], [ -117.0628437, 46.36839489 ], [ -117.06315043, 46.36788462 ], [ -117.0634309, 46.36739529 ], [ -117.06360936, 46.36712809 ], [ -117.06373963, 46.36693302 ], [ -117.06398996, 46.36648936 ], [ -117.06436403, 46.36541529 ], [ -117.0645653, 46.36494662 ], [ -117.0647727, 46.36434809 ], [ -117.06494136, 46.36382056 ], [ -117.06516016, 46.36290162 ], [ -117.06552949, 46.36142342 ], [ -117.06552389, 46.36127042 ], [ -117.06547363, 46.36037309 ], [ -117.06549683, 46.35991789 ], [ -117.06550503, 46.35975715 ], [ -117.06533429, 46.35907969 ], [ -117.06470716, 46.35863322 ], [ -117.06426143, 46.35802095 ], [ -117.06421396, 46.35778256 ], [ -117.06411096, 46.35724702 ], [ -117.06408656, 46.35713002 ], [ -117.06400809, 46.35673869 ], [ -117.06393636, 46.35642802 ], [ -117.06392056, 46.35627062 ], [ -117.06390496, 46.35618962 ], [ -117.06384923, 46.35592415 ], [ -117.06383303, 46.35569469 ], [ -117.06388069, 46.35545609 ], [ -117.06391296, 46.35522662 ], [ -117.06393602, 46.35418262 ], [ -117.06394423, 46.35407009 ], [ -117.06398336, 46.35368322 ], [ -117.06395969, 46.35300375 ], [ -117.06394463, 46.35281916 ], [ -117.06392016, 46.35221622 ], [ -117.06388049, 46.35202716 ], [ -117.06382576, 46.35184275 ], [ -117.06364343, 46.35152775 ], [ -117.06350016, 46.35132995 ], [ -117.06347616, 46.35117682 ], [ -117.06345289, 46.35087082 ], [ -117.06342923, 46.35060089 ], [ -117.06329489, 46.35021402 ], [ -117.06325469, 46.35009709 ], [ -117.06310383, 46.34959769 ], [ -117.06303322, 46.34947622 ], [ -117.06265262, 46.34897242 ], [ -117.06263662, 46.34894542 ], [ -117.06265196, 46.34877889 ], [ -117.06272416, 46.34857622 ], [ -117.06273943, 46.34845922 ], [ -117.06273121, 46.3484111 ], [ -117.06356355, 46.34841657 ], [ -117.06319817, 46.3477745 ], [ -117.06332242, 46.34773939 ], [ -117.06346685, 46.3476974 ], [ -117.06338585, 46.3475394 ], [ -117.06333285, 46.3474164 ], [ -117.06390185, 46.3472194 ], [ -117.06408985, 46.3471554 ], [ -117.06415985, 46.3471324 ], [ -117.06437385, 46.3470644 ], [ -117.06444485, 46.3470424 ], [ -117.06603385, 46.3465134 ], [ -117.06719885, 46.3478194 ], [ -117.06753185, 46.3475954 ], [ -117.06777185, 46.3474514 ], [ -117.06791585, 46.3473314 ], [ -117.06791585, 46.3472834 ], [ -117.06786785, 46.3471874 ], [ -117.06781985, 46.3469954 ], [ -117.06781985, 46.3468754 ], [ -117.06781985, 46.3467554 ], [ -117.06791585, 46.3466114 ], [ -117.06813185, 46.34653939 ], [ -117.06825185, 46.3465154 ], [ -117.06844385, 46.3464674 ], [ -117.06853985, 46.34639539 ], [ -117.06865985, 46.34634839 ], [ -117.06877885, 46.34622839 ], [ -117.06911485, 46.34596439 ], [ -117.06921085, 46.34586839 ], [ -117.06945085, 46.34570039 ], [ -117.06957085, 46.34555639 ], [ -117.06959485, 46.34546039 ], [ -117.06966684, 46.34536439 ], [ -117.06973884, 46.34524439 ], [ -117.06985884, 46.34507739 ], [ -117.06988284, 46.34493339 ], [ -117.06993084, 46.34486139 ], [ -117.07007384, 46.34474139 ], [ -117.07024184, 46.34466939 ], [ -117.07045784, 46.34452539 ], [ -117.07055384, 46.34442939 ], [ -117.07057784, 46.34438139 ], [ -117.07064984, 46.34423739 ], [ -117.07076984, 46.34411739 ], [ -117.07086584, 46.34404539 ], [ -117.07093784, 46.34402139 ], [ -117.07098584, 46.34387739 ], [ -117.07108184, 46.34383039 ], [ -117.07120184, 46.34373439 ], [ -117.07132084, 46.34361439 ], [ -117.07139284, 46.34347039 ], [ -117.07163284, 46.34337439 ], [ -117.07177684, 46.34337439 ], [ -117.07194484, 46.34332639 ], [ -117.07213684, 46.34332639 ], [ -117.07225684, 46.34323039 ], [ -117.07232884, 46.34318239 ], [ -117.07244884, 46.34308639 ], [ -117.07273584, 46.34291839 ], [ -117.07295184, 46.34282239 ], [ -117.07321584, 46.34277439 ], [ -117.07355184, 46.34267839 ], [ -117.07379084, 46.34260639 ], [ -117.07391084, 46.34255939 ], [ -117.07407884, 46.34241539 ], [ -117.07434284, 46.34239139 ], [ -117.07446284, 46.34243939 ], [ -117.07465484, 46.34243939 ], [ -117.07482284, 46.34243939 ], [ -117.07491884, 46.34248739 ], [ -117.07520584, 46.34253539 ], [ -117.08701187, 46.34765037 ], [ -117.08782887, 46.34740237 ], [ -117.09028287, 46.34666137 ], [ -117.09110087, 46.34641437 ], [ -117.09291487, 46.34708736 ], [ -117.09835988, 46.34910836 ], [ -117.09879388, 46.34926936 ], [ -117.09915689, 46.34958936 ], [ -117.09922389, 46.34997836 ], [ -117.09905889, 46.35055036 ], [ -117.09899389, 46.35148736 ], [ -117.09998489, 46.35181836 ], [ -117.10008389, 46.35185236 ], [ -117.1019329, 46.35221735 ], [ -117.1058959, 46.35215135 ], [ -117.1061589, 46.35214735 ], [ -117.1067859, 46.35228435 ], [ -117.1068639, 46.35234935 ], [ -117.1071159, 46.35255835 ], [ -117.1075009, 46.35308335 ], [ -117.10976592, 46.35622334 ], [ -117.10999592, 46.35638334 ], [ -117.11002792, 46.35658934 ], [ -117.11013692, 46.35673734 ], [ -117.11188993, 46.35910934 ], [ -117.11224993, 46.35943034 ], [ -117.11270993, 46.35956834 ], [ -117.11339893, 46.35966034 ], [ -117.12242494, 46.35966933 ], [ -117.12453294, 46.35967233 ], [ -117.12551494, 46.35978632 ], [ -117.12581894, 46.36006232 ], [ -117.12644594, 46.36056532 ], [ -117.12667494, 46.36061432 ], [ -117.12743494, 46.36094432 ], [ -117.12782495, 46.36119432 ], [ -117.12795495, 46.36131432 ], [ -117.12806495, 46.36144432 ], [ -117.12811495, 46.36154432 ], [ -117.12814495, 46.36165432 ], [ -117.12815495, 46.36176432 ], [ -117.12815495, 46.36198432 ], [ -117.12813495, 46.36232432 ], [ -117.12809495, 46.36270432 ], [ -117.12809495, 46.36288432 ], [ -117.12810495, 46.36313432 ], [ -117.12812495, 46.36326432 ], [ -117.12817495, 46.36340432 ], [ -117.12824495, 46.36355432 ], [ -117.12868496, 46.36428432 ], [ -117.12901596, 46.36478832 ], [ -117.13006496, 46.36638432 ], [ -117.13046497, 46.36690432 ], [ -117.13067497, 46.36715432 ], [ -117.13112497, 46.36773432 ], [ -117.13142497, 46.36817432 ], [ -117.13160497, 46.36840432 ], [ -117.13170497, 46.36851432 ], [ -117.13181497, 46.36859432 ], [ -117.13202497, 46.36873432 ], [ -117.13253497, 46.36904432 ], [ -117.13290497, 46.36924432 ], [ -117.13321498, 46.36939432 ], [ -117.13336498, 46.36944432 ], [ -117.13357498, 46.36949431 ], [ -117.13376498, 46.36951431 ], [ -117.13421498, 46.36954431 ], [ -117.13444498, 46.36956431 ], [ -117.13458498, 46.36958431 ], [ -117.13469498, 46.36961431 ], [ -117.13485498, 46.36967431 ], [ -117.13496498, 46.36972431 ], [ -117.13505498, 46.36978431 ], [ -117.13510498, 46.36984431 ], [ -117.13516498, 46.36996431 ], [ -117.13524498, 46.37019431 ], [ -117.13538498, 46.37070431 ], [ -117.13545498, 46.37093431 ], [ -117.13551498, 46.37102431 ], [ -117.13562498, 46.37116431 ], [ -117.13575498, 46.37135431 ], [ -117.13591498, 46.37154431 ], [ -117.13600499, 46.37162431 ], [ -117.13615499, 46.37171431 ], [ -117.13653499, 46.37185431 ], [ -117.13687499, 46.37201431 ], [ -117.13705499, 46.37211431 ], [ -117.13749499, 46.37246431 ], [ -117.13771499, 46.37266431 ], [ -117.13806499, 46.37299431 ], [ -117.13828499, 46.37316431 ], [ -117.13887499, 46.37344431 ], [ -117.13926499, 46.37364431 ], [ -117.13955499, 46.37378431 ], [ -117.139785, 46.37391431 ], [ -117.140115, 46.37411431 ], [ -117.140587, 46.37438031 ], [ -117.140665, 46.37442431 ], [ -117.141015, 46.37460431 ], [ -117.141595, 46.37487431 ], [ -117.141825, 46.3750043 ], [ -117.142235, 46.3752743 ], [ -117.143135, 46.3759843 ], [ -117.14350501, 46.3762943 ], [ -117.14433501, 46.3769643 ], [ -117.14485501, 46.3773943 ], [ -117.14480501, 46.3774243 ], [ -117.14472501, 46.3774943 ], [ -117.14469501, 46.3775343 ], [ -117.14467501, 46.3775843 ], [ -117.14466501, 46.3776443 ], [ -117.14466501, 46.3776843 ], [ -117.14467501, 46.3777543 ], [ -117.14493501, 46.3784543 ], [ -117.14496501, 46.3785943 ], [ -117.14496501, 46.3787043 ], [ -117.14495501, 46.3787943 ], [ -117.14486501, 46.3789343 ], [ -117.14477501, 46.3790143 ], [ -117.14463501, 46.3791143 ], [ -117.14450501, 46.3791843 ], [ -117.14398502, 46.3793943 ], [ -117.14372902, 46.3794743 ], [ -117.14303501, 46.3796943 ], [ -117.14282502, 46.3797643 ], [ -117.14258502, 46.3798343 ], [ -117.14195502, 46.3800343 ], [ -117.14161501, 46.38012431 ], [ -117.14136501, 46.38021431 ], [ -117.14062502, 46.38050431 ], [ -117.14008502, 46.38072431 ], [ -117.13972502, 46.38092431 ], [ -117.13954502, 46.38106431 ], [ -117.13934502, 46.38123431 ], [ -117.13920502, 46.38137431 ], [ -117.13911502, 46.38147431 ], [ -117.13900502, 46.38164431 ], [ -117.13880502, 46.38200431 ], [ -117.13874502, 46.38207431 ], [ -117.13869502, 46.38211431 ], [ -117.13848502, 46.38222431 ], [ -117.13808502, 46.38240431 ], [ -117.13772502, 46.38259431 ], [ -117.13747502, 46.38275431 ], [ -117.13736502, 46.38284431 ], [ -117.13728502, 46.38292431 ], [ -117.13724502, 46.38298431 ], [ -117.13721502, 46.38305431 ], [ -117.13720502, 46.38312431 ], [ -117.13721502, 46.38319431 ], [ -117.13723502, 46.38325431 ], [ -117.13728502, 46.38334431 ], [ -117.13735502, 46.38342431 ], [ -117.13745502, 46.38351431 ], [ -117.13769502, 46.38369431 ], [ -117.13799702, 46.38399881 ], [ -117.13821503, 46.38426431 ], [ -117.13834503, 46.38449431 ], [ -117.13841503, 46.38463431 ], [ -117.13845503, 46.38475431 ], [ -117.13862503, 46.38511431 ], [ -117.13897503, 46.38580431 ], [ -117.13902503, 46.38592431 ], [ -117.13904503, 46.38607431 ], [ -117.13904503, 46.38613431 ], [ -117.13901503, 46.38623431 ], [ -117.13896503, 46.38627431 ], [ -117.13885503, 46.38633431 ], [ -117.13873603, 46.38635281 ], [ -117.13855503, 46.38636431 ], [ -117.13850503, 46.38627431 ], [ -117.13838503, 46.38610431 ], [ -117.13832003, 46.38600431 ], [ -117.13825503, 46.38590431 ], [ -117.13814503, 46.38569431 ], [ -117.13807503, 46.38554431 ], [ -117.13797503, 46.38539431 ], [ -117.13767503, 46.38504431 ], [ -117.13727502, 46.38462431 ], [ -117.13715502, 46.38450431 ], [ -117.13709502, 46.38443231 ], [ -117.13705502, 46.38438431 ], [ -117.13689502, 46.38425431 ], [ -117.13672502, 46.38414431 ], [ -117.13661502, 46.38408431 ], [ -117.13647502, 46.38403431 ], [ -117.13546502, 46.38369431 ], [ -117.13517502, 46.38361431 ], [ -117.13485502, 46.38355431 ], [ -117.13471902, 46.38353732 ], [ -117.13451002, 46.38351432 ], [ -117.13413502, 46.38345432 ], [ -117.13390502, 46.38340432 ], [ -117.13373502, 46.38335432 ], [ -117.13299502, 46.38304432 ], [ -117.13240502, 46.38278432 ], [ -117.13172501, 46.38249432 ], [ -117.13152501, 46.38240432 ], [ -117.13104501, 46.38227432 ], [ -117.13084501, 46.38225432 ], [ -117.13070501, 46.38223432 ], [ -117.13021801, 46.38221732 ], [ -117.12983501, 46.38220432 ], [ -117.12939501, 46.38216432 ], [ -117.12911501, 46.38213332 ], [ -117.12887501, 46.38209432 ], [ -117.12793501, 46.38187432 ], [ -117.12781701, 46.38184932 ], [ -117.12698501, 46.38167433 ], [ -117.12661201, 46.38164033 ], [ -117.12653501, 46.38163433 ], [ -117.12502501, 46.38163433 ], [ -117.12336501, 46.38161433 ], [ -117.122944, 46.38166533 ], [ -117.122875, 46.38167433 ], [ -117.122575, 46.38172433 ], [ -117.122195, 46.38181433 ], [ -117.121875, 46.38191433 ], [ -117.121761, 46.38196333 ], [ -117.1215795, 46.38204283 ], [ -117.121475, 46.38210433 ], [ -117.121335, 46.38218433 ], [ -117.12102501, 46.38240433 ], [ -117.12086501, 46.38255433 ], [ -117.12099201, 46.38292133 ], [ -117.12077001, 46.38305733 ], [ -117.11991901, 46.38378534 ], [ -117.11922501, 46.38411734 ], [ -117.11821301, 46.38440734 ], [ -117.11607501, 46.38479634 ], [ -117.11554801, 46.38469034 ], [ -117.11527501, 46.38474434 ], [ -117.11383501, 46.38500434 ], [ -117.11356501, 46.38504434 ], [ -117.11353901, 46.38564034 ], [ -117.11317901, 46.38610535 ], [ -117.11239001, 46.38675635 ], [ -117.10800101, 46.38880935 ], [ -117.10701202, 46.38944135 ], [ -117.10625802, 46.39023135 ], [ -117.10573802, 46.39108736 ], [ -117.10557802, 46.39150236 ], [ -117.10532803, 46.39286136 ], [ -117.10510603, 46.39325836 ], [ -117.10237304, 46.39815636 ], [ -117.10204904, 46.39837736 ], [ -117.10171404, 46.39870336 ], [ -117.10146404, 46.39891436 ], [ -117.10139104, 46.39899336 ], [ -117.10124904, 46.39913336 ], [ -117.10117704, 46.39920636 ], [ -117.10104204, 46.39945036 ], [ -117.10102454, 46.39958436 ], [ -117.10099504, 46.39964436 ], [ -117.10098204, 46.39972036 ], [ -117.10096504, 46.39982436 ], [ -117.10095404, 46.39991936 ], [ -117.10094504, 46.40000436 ], [ -117.10095504, 46.40019436 ], [ -117.10099504, 46.40037436 ], [ -117.10106505, 46.40059436 ], [ -117.10128505, 46.40103436 ], [ -117.10136505, 46.40125436 ], [ -117.10150205, 46.40180836 ], [ -117.10162505, 46.40230436 ], [ -117.10172505, 46.40262436 ], [ -117.10182505, 46.40281436 ], [ -117.10241506, 46.40370436 ], [ -117.10262506, 46.40398436 ], [ -117.10323506, 46.40476436 ], [ -117.10340506, 46.40495436 ], [ -117.10353506, 46.40508436 ], [ -117.10372506, 46.40526436 ], [ -117.10386506, 46.40540436 ], [ -117.10416506, 46.40565436 ], [ -117.10488507, 46.40622436 ], [ -117.10552907, 46.40675836 ], [ -117.10570507, 46.40690436 ], [ -117.10617507, 46.40727436 ], [ -117.10649507, 46.40747436 ], [ -117.10681507, 46.40765436 ], [ -117.10719507, 46.40781436 ], [ -117.10736407, 46.40789636 ], [ -117.10762207, 46.40802136 ], [ -117.10781507, 46.40811436 ], [ -117.10841008, 46.40837036 ], [ -117.10867508, 46.40848436 ], [ -117.10888508, 46.40857435 ], [ -117.10904308, 46.40865735 ], [ -117.10941508, 46.40885435 ], [ -117.10968508, 46.40902435 ], [ -117.10992508, 46.40919435 ], [ -117.11008958, 46.40932235 ], [ -117.11028508, 46.40950435 ], [ -117.11037108, 46.40959035 ], [ -117.11040808, 46.40962735 ], [ -117.11051158, 46.40973085 ], [ -117.11054508, 46.40976535 ], [ -117.11071508, 46.40995435 ], [ -117.11092508, 46.41022435 ], [ -117.11107508, 46.41045435 ], [ -117.11127509, 46.41081435 ], [ -117.11136409, 46.41096235 ], [ -117.11171509, 46.41154435 ], [ -117.11199509, 46.41199435 ], [ -117.11241509, 46.41268435 ], [ -117.11269509, 46.41318435 ], [ -117.11288509, 46.41350435 ], [ -117.1131851, 46.41410435 ], [ -117.1134311, 46.41474835 ], [ -117.1134951, 46.41491435 ], [ -117.1137851, 46.41565435 ], [ -117.1139151, 46.41610435 ], [ -117.1139301, 46.41616235 ], [ -117.1139771, 46.41633935 ], [ -117.1139931, 46.41639835 ], [ -117.1140351, 46.41655435 ], [ -117.1140751, 46.41679435 ], [ -117.11413511, 46.41706935 ], [ -117.11444511, 46.41848435 ], [ -117.11449511, 46.41878435 ], [ -117.11450511, 46.41897435 ], [ -117.11449511, 46.41909235 ], [ -117.11448511, 46.41921435 ], [ -117.11440511, 46.41977435 ], [ -117.11408911, 46.41974635 ], [ -117.11327511, 46.41967435 ], [ -117.11314511, 46.41965135 ], [ -117.11283311, 46.41959835 ], [ -117.11228511, 46.41950435 ], [ -117.11178111, 46.41941135 ], [ -117.11130511, 46.41932435 ], [ -117.11025511, 46.41909435 ], [ -117.10866611, 46.41866236 ], [ -117.10763611, 46.41838336 ], [ -117.1043951, 46.41750436 ], [ -117.1026251, 46.41700437 ], [ -117.10016509, 46.41636437 ], [ -117.09769509, 46.41568437 ], [ -117.09596509, 46.41523437 ], [ -117.09531509, 46.41505438 ], [ -117.09495509, 46.41497438 ], [ -117.09409509, 46.41482438 ], [ -117.09366508, 46.41476438 ], [ -117.09325508, 46.41472438 ], [ -117.09314108, 46.41471738 ], [ -117.09278508, 46.41469438 ], [ -117.09254908, 46.41469138 ], [ -117.09046308, 46.41407838 ], [ -117.08949408, 46.41429438 ], [ -117.08834508, 46.41477839 ], [ -117.08810408, 46.41491539 ], [ -117.08743508, 46.41530439 ], [ -117.08722508, 46.41536439 ], [ -117.08680508, 46.41551439 ], [ -117.08591508, 46.41585439 ], [ -117.08513508, 46.41623439 ], [ -117.08443508, 46.41661439 ], [ -117.08380508, 46.41700439 ], [ -117.08111509, 46.4185844 ], [ -117.08074509, 46.4187644 ], [ -117.08034509, 46.4189444 ], [ -117.07981509, 46.4191544 ], [ -117.07939509, 46.4192944 ], [ -117.07888509, 46.4194444 ], [ -117.07845509, 46.4195544 ], [ -117.07797509, 46.4196544 ], [ -117.07734509, 46.4197644 ], [ -117.07674509, 46.4198444 ], [ -117.07629509, 46.4198744 ], [ -117.07516509, 46.41990441 ], [ -117.07327509, 46.41990441 ], [ -117.072279257026338, 46.419910345703485 ], [ -117.072161, 46.420997 ], [ -117.069205412, 46.420843101 ], [ -117.069231636, 46.421022151 ], [ -117.069253636, 46.421166151 ], [ -117.069253636, 46.421216151 ], [ -117.069287389, 46.421465922 ], [ -117.069303636, 46.421586151 ], [ -117.069325636, 46.421648151 ], [ -117.069453636, 46.421996151 ], [ -117.069573636, 46.422236151 ], [ -117.069793636, 46.422546151 ], [ -117.070088636, 46.422887151 ], [ -117.070113636, 46.422916151 ], [ -117.070443636, 46.423226151 ], [ -117.070636636, 46.423377151 ], [ -117.071217637, 46.423828151 ], [ -117.071411637, 46.423979151 ], [ -117.071635637, 46.424186151 ], [ -117.071803637, 46.424342151 ], [ -117.072158637, 46.424675151 ], [ -117.072212637, 46.424723151 ], [ -117.070791637, 46.425451151 ], [ -117.068747405, 46.426427355 ], [ -117.068387637, 46.426599151 ], [ -117.067550637, 46.426999152 ], [ -117.065170636, 46.427634152 ], [ -117.061569636, 46.428780152 ], [ -117.058259635, 46.429652153 ], [ -117.057928635, 46.429739153 ], [ -117.055435635, 46.429879153 ], [ -117.053575635, 46.429983153 ], [ -117.052930635, 46.430020153 ], [ -117.048336633, 46.429156154 ], [ -117.043811632, 46.427391154 ], [ -117.042652263, 46.42696052 ], [ -117.041878632, 46.426673154 ], [ -117.040449631, 46.426142154 ], [ -117.039779631, 46.425893154 ], [ -117.039765839, 46.425857225 ], [ -117.039765888, 46.425150825 ], [ -117.037234714, 46.423161442 ], [ -117.036533841, 46.42101026 ], [ -117.036064247, 46.418187072 ], [ -117.03496744, 46.416335028 ], [ -117.034996624, 46.416101143 ], [ -117.035258551, 46.414001917 ], [ -117.035305666, 46.411323958 ], [ -117.035436107, 46.410676343 ], [ -117.035642089, 46.409642813 ], [ -117.035718901, 46.409419625 ], [ -117.036908153, 46.407836297 ], [ -117.03723743, 46.407314711 ], [ -117.037370627, 46.407231153 ], [ -117.037452627, 46.407120153 ], [ -117.037944627, 46.406487153 ], [ -117.038364627, 46.405823153 ], [ -117.038583627, 46.405488153 ], [ -117.038718627, 46.405001153 ], [ -117.038872626, 46.404007153 ], [ -117.038958174, 46.403639128 ], [ -117.038970278, 46.403605843 ], [ -117.038973671, 46.403572457 ], [ -117.039021626, 46.403366153 ], [ -117.039141626, 46.402611153 ], [ -117.039249626, 46.401932152 ], [ -117.039332626, 46.401413152 ], [ -117.039405626, 46.400952152 ], [ -117.039449694, 46.400755316 ], [ -117.039757123, 46.400003373 ], [ -117.039797626, 46.399931152 ], [ -117.040540626, 46.398555152 ], [ -117.040588958, 46.39838944 ], [ -117.040610626, 46.398315152 ], [ -117.040930625, 46.397376152 ], [ -117.041457625, 46.396041152 ], [ -117.041504625, 46.395948152 ], [ -117.041909625, 46.394925152 ], [ -117.041864625, 46.393822152 ], [ -117.0418643, 46.393813382 ], [ -117.042168878, 46.392520072 ], [ -117.042619648, 46.39016354 ], [ -117.042806624, 46.389638151 ], [ -117.043222624, 46.388558151 ], [ -117.043534516, 46.387770446 ], [ -117.044290391, 46.386428042 ], [ -117.045186139, 46.383338321 ], [ -117.04629362, 46.381131868 ], [ -117.046747171, 46.380707052 ], [ -117.047697716, 46.380756711 ], [ -117.0478119, 46.379709743 ], [ -117.048310116, 46.379243058 ], [ -117.048339062, 46.379215949 ], [ -117.050402846, 46.377282667 ], [ -117.050412453, 46.377273669 ], [ -117.052499195, 46.375318705 ], [ -117.052990805, 46.374701121 ], [ -117.055193623, 46.374695149 ], [ -117.05594741224769, 46.374688896376057 ], [ -117.05594903, 46.37468717 ], [ -117.05705943, 46.37350216 ], [ -117.05812969, 46.37281822 ], [ -117.05917689, 46.37199289 ], [ -117.05997776, 46.37137656 ] ] ] ] } }
]
}
