{
"type": "FeatureCollection",
"name": "columbia_ui_with_pop_centers",
"crs": { "type": "name", "properties": { "name": "urn:ogc:def:crs:OGC:1.3:CRS84" } },
"features": [
{ "type": "Feature", "properties": { "pop_centers": "Dayton UGA" }, "geometry": { "type": "MultiPolygon", "coordinates": [ [ [ [ -117.96338205, 46.30300279 ], [ -117.96316824, 46.30290413 ], [ -117.96288945, 46.30277533 ], [ -117.9632942, 46.3029137 ], [ -117.96370827, 46.3031071 ], [ -117.96370665, 46.30310699 ], [ -117.96362758, 46.30309053 ], [ -117.96347718, 46.30304659 ], [ -117.96338205, 46.30300279 ] ] ], [ [ [ -117.96142951, 46.30249644 ], [ -117.96190506, 46.30256589 ], [ -117.96238358, 46.30265356 ], [ -117.96241625, 46.30267939 ], [ -117.96251118, 46.30273973 ], [ -117.96265365, 46.30281639 ], [ -117.96277258, 46.30287133 ], [ -117.96289125, 46.30293712 ], [ -117.96301798, 46.30300839 ], [ -117.96316845, 46.30309059 ], [ -117.96325545, 46.30313453 ], [ -117.96332665, 46.30318393 ], [ -117.96345345, 46.30322773 ], [ -117.96358004, 46.30324959 ], [ -117.96370678, 46.30326059 ], [ -117.96381758, 46.30327699 ], [ -117.96399965, 46.30329339 ], [ -117.96412638, 46.30331533 ], [ -117.96420576, 46.30332822 ], [ -117.96490024, 46.30362066 ], [ -117.96490308, 46.30375717 ], [ -117.96491392, 46.30427717 ], [ -117.9657052, 46.30498854 ], [ -117.96577862, 46.30508549 ], [ -117.96582947, 46.30515265 ], [ -117.966244323479359, 46.305955467381388 ], [ -117.9668901, 46.3059589 ], [ -117.968427411352351, 46.305967140840984 ], [ -117.966890082, 46.305958938 ], [ -117.965994640617737, 46.305954140194643 ], [ -117.966015953759054, 46.30595425348443 ], [ -117.965291, 46.3059503600537 ], [ -117.965291, 46.305950370064295 ], [ -117.965290988, 46.30595037 ], [ -117.965290988, 46.305950342 ], [ -117.96528699, 46.305729884 ], [ -117.965271462, 46.304873524 ], [ -117.965227581426078, 46.304873146174629 ], [ -117.965234023750838, 46.304873198076542 ], [ -117.96494585, 46.30487072 ], [ -117.964926238737803, 46.304870551520487 ], [ -117.963994853, 46.304862532 ], [ -117.963994854336093, 46.304862550037257 ], [ -117.96399485, 46.30486255 ], [ -117.9640619, 46.30594995 ], [ -117.96359203, 46.30595293 ], [ -117.963521579993881, 46.305953377181552 ], [ -117.961930329021996, 46.30596346799986 ], [ -117.961927319697381, 46.305957313565365 ], [ -117.961209161, 46.304488581 ], [ -117.961164341840785, 46.304396916171392 ], [ -117.9609187, 46.30389452 ], [ -117.960918697183345, 46.303894519946866 ], [ -117.960918685, 46.303894495 ], [ -117.960061275572286, 46.303878345090617 ], [ -117.9600292, 46.30387774 ], [ -117.960000647743442, 46.30387719936126 ], [ -117.959950701, 46.303876252 ], [ -117.959950315, 46.303876242 ], [ -117.959947756, 46.303930904 ], [ -117.959936507, 46.305962825 ], [ -117.959785979486327, 46.305990297871936 ], [ -117.95972371, 46.30573233 ], [ -117.95973714, 46.30533251 ], [ -117.9597213, 46.30478616 ], [ -117.95975189, 46.30421851 ], [ -117.95984626, 46.30397782 ], [ -117.9597279, 46.30389627 ], [ -117.95966424, 46.30382312 ], [ -117.95966682, 46.30352528 ], [ -117.95969064, 46.30314267 ], [ -117.95968142, 46.30236799 ], [ -117.9596786, 46.3021445 ], [ -117.96000532, 46.30204375 ], [ -117.96102922, 46.30249775 ], [ -117.96142951, 46.30249644 ] ] ], [ [ [ -117.9703972, 46.3059777 ], [ -117.9703628, 46.3095923 ], [ -117.9756324, 46.3095973 ], [ -117.975632399938078, 46.309597341959005 ], [ -117.970362786, 46.309592325 ], [ -117.970397164535768, 46.305977699809894 ], [ -117.9703972, 46.3059777 ] ] ], [ [ [ -117.975627100003706, 46.313197497465069 ], [ -117.975627095, 46.313197489 ], [ -117.975627466893684, 46.312947201260094 ], [ -117.975627100003706, 46.313197497465069 ] ] ], [ [ [ -117.9756465, 46.3132303 ], [ -117.975654097536534, 46.313243170453688 ], [ -117.975646492, 46.313230304 ], [ -117.975629555737015, 46.313201651967731 ], [ -117.9756465, 46.3132303 ] ] ], [ [ [ -117.9785036, 46.3132623 ], [ -117.9813183, 46.3132678 ], [ -117.9818287, 46.3132688 ], [ -117.984208635530706, 46.313269725341989 ], [ -117.98182874, 46.313268826 ], [ -117.981318329, 46.313267836 ], [ -117.978503588, 46.313262335 ], [ -117.977176595513043, 46.313259708288101 ], [ -117.9785036, 46.3132623 ] ] ], [ [ [ -117.99154539, 46.30910753 ], [ -117.99155669, 46.31003548 ], [ -117.988164156467576, 46.312572190569732 ], [ -117.987229763, 46.313270867 ], [ -117.986083163475399, 46.313270433709931 ], [ -117.99135181, 46.30961441 ], [ -117.99136164, 46.30765459 ], [ -117.99318699, 46.30914951 ], [ -117.99659934, 46.30588873 ], [ -117.99766787, 46.30588289 ], [ -118.00173784, 46.30586173 ], [ -118.001838, 46.30653064 ], [ -118.00302137, 46.30583887 ], [ -118.00414076, 46.30666378 ], [ -118.00337617, 46.30729638 ], [ -118.00241442, 46.308113 ], [ -118.00173433, 46.30868197 ], [ -118.0017428, 46.30917393 ], [ -118.00173455, 46.30954497 ], [ -118.00469662, 46.30954959 ], [ -118.00685467, 46.30953752 ], [ -118.00760225, 46.30953502 ], [ -118.00889711, 46.30952789 ], [ -118.00843642, 46.31042478 ], [ -118.00828186, 46.31079948 ], [ -118.00809721, 46.31098597 ], [ -118.00771257, 46.31122464 ], [ -118.00746607, 46.31144847 ], [ -118.00721401, 46.31179424 ], [ -118.00635719, 46.31282528 ], [ -118.00565616, 46.3135075 ], [ -118.0046186, 46.31438715 ], [ -118.00412178, 46.31509777 ], [ -118.00445946, 46.31508063 ], [ -118.004191074731807, 46.315374134825333 ], [ -118.001639277, 46.315322773 ], [ -118.001639275, 46.315322812 ], [ -118.001613492238079, 46.315782392466311 ], [ -118.00161099, 46.31582691 ], [ -118.001599734237786, 46.3160276259757 ], [ -118.001582577, 46.316333449 ], [ -118.001421084269495, 46.316331618248981 ], [ -118.001431402641515, 46.316331732075476 ], [ -118.0014013, 46.31633139 ], [ -118.001343528073221, 46.3163307365569 ], [ -118.001358255244782, 46.316330905681262 ], [ -118.001070400790667, 46.316327640360619 ], [ -118.001070400790482, 46.316327640351268 ], [ -118.00107037, 46.31632764 ], [ -118.001070370000221, 46.316327640011345 ], [ -118.001070369, 46.31632764 ], [ -118.001083226, 46.316981028 ], [ -118.001085631, 46.317103268 ], [ -118.001242088315109, 46.317097113542331 ], [ -118.0010856, 46.3171033 ], [ -118.0010832, 46.316981 ], [ -118.001082355332841, 46.316937882381055 ], [ -118.00106539, 46.31693952 ], [ -118.00072206, 46.31695499 ], [ -118.00053999, 46.31696052 ], [ -118.00039746, 46.31697159 ], [ -118.00023906, 46.31699919 ], [ -118.00008879, 46.31701572 ], [ -117.99994626, 46.31705972 ], [ -117.99986705, 46.31709259 ], [ -117.99980722, 46.31712285 ], [ -117.99976498, 46.31712358 ], [ -117.99972225, 46.31716067 ], [ -117.99970099, 46.31716952 ], [ -117.99961385, 46.31721352 ], [ -117.99953479, 46.31726279 ], [ -117.99946346, 46.31732872 ], [ -117.99941619, 46.31740559 ], [ -117.9993981, 46.31744203 ], [ -117.99804399, 46.31861735 ], [ -117.99788159, 46.31867379 ], [ -117.99779439, 46.31869572 ], [ -117.99760459, 46.31877812 ], [ -117.99741459, 46.31886599 ], [ -117.99727999, 46.31893739 ], [ -117.99714559, 46.31902532 ], [ -117.99705845, 46.31909659 ], [ -117.99698726, 46.31915699 ], [ -117.99682905, 46.31926679 ], [ -117.99663905, 46.31939312 ], [ -117.99650459, 46.31947552 ], [ -117.99620399, 46.31962919 ], [ -117.99596646, 46.31976652 ], [ -117.99583199, 46.31983792 ], [ -117.99580039, 46.31985979 ], [ -117.99577659, 46.31992572 ], [ -117.99576079, 46.31996412 ], [ -117.99573705, 46.31998612 ], [ -117.99569759, 46.32000799 ], [ -117.99566586, 46.32002452 ], [ -117.99556299, 46.32005199 ], [ -117.99549959, 46.32007939 ], [ -117.99544419, 46.32009039 ], [ -117.99540466, 46.32009052 ], [ -117.99536506, 46.32008499 ], [ -117.99530166, 46.32007399 ], [ -117.99526219, 46.32007412 ], [ -117.99520679, 46.32010699 ], [ -117.99515125, 46.32012899 ], [ -117.99496125, 46.32021692 ], [ -117.99489006, 46.32023892 ], [ -117.99477925, 46.32026632 ], [ -117.99465266, 46.32030479 ], [ -117.99442305, 46.32037079 ], [ -117.99433599, 46.32039832 ], [ -117.99430425, 46.32041473 ], [ -117.99427266, 46.32044772 ], [ -117.99426232, 46.3204588 ], [ -117.99160761, 46.32047327 ], [ -117.991595479836462, 46.317984805997675 ], [ -117.991583841216013, 46.315596235882367 ], [ -117.991583630032778, 46.315552486791574 ], [ -117.991583628047096, 46.315552487664881 ], [ -117.991583628, 46.315552478 ], [ -117.991796353910587, 46.315458930724013 ], [ -117.991749217535343, 46.315479661325355 ], [ -117.992233812486276, 46.315266556142092 ], [ -117.992586109, 46.315111632 ], [ -117.992914672, 46.31496714 ], [ -117.992939339977482, 46.314956360009845 ], [ -117.992970549375869, 46.314942722502153 ], [ -117.992968410391114, 46.314943656140095 ], [ -117.992988676, 46.3149348 ], [ -117.992953458, 46.314875989 ], [ -117.992852797, 46.314719068 ], [ -117.992852731309981, 46.314719082040611 ], [ -117.99285273, 46.31471908 ], [ -117.992805691803895, 46.314729085875065 ], [ -117.992812476053018, 46.314727644707993 ], [ -117.99262581, 46.31476735 ], [ -117.992625631, 46.314767388 ], [ -117.992625492974696, 46.314767417425173 ], [ -117.99259939, 46.31477297 ], [ -117.992432531440926, 46.314808461711955 ], [ -117.992202552, 46.314857379 ], [ -117.991787198, 46.31493436 ], [ -117.991763634209164, 46.314938727241831 ], [ -117.99166471, 46.31495706 ], [ -117.99160395, 46.314968 ], [ -117.991584000851489, 46.314914359178346 ], [ -117.9915848, 46.3149699 ], [ -117.9915848, 46.314970947000113 ], [ -117.991584784, 46.314969875 ], [ -117.99158399, 46.314914334 ], [ -117.991583133282703, 46.314739776328331 ], [ -117.991583229505551, 46.314759151926125 ], [ -117.99158251489385, 46.314613778501098 ], [ -117.991579345, 46.313967907 ], [ -117.991575883, 46.313262588 ], [ -117.991322084922857, 46.313264579378647 ], [ -117.990388518718049, 46.313271889696821 ], [ -117.9903885, 46.3132719 ], [ -117.990388563846992, 46.313271904075336 ], [ -117.990388446, 46.313271905 ], [ -117.990388506, 46.313271872 ], [ -117.990490639, 46.313215671 ], [ -117.990922568, 46.312990823 ], [ -117.991787311, 46.312540658 ], [ -117.991868522, 46.312493792 ], [ -117.991890061, 46.312465334 ], [ -117.991895137576947, 46.312458627188661 ], [ -117.991894237322896, 46.312459819671773 ], [ -117.99189965, 46.31245267 ], [ -117.99189970308565, 46.31245259556421 ], [ -117.991909234, 46.312440004 ], [ -117.992060894804865, 46.312226575336204 ], [ -117.99206184, 46.31222525 ], [ -117.99229534, 46.31196849 ], [ -117.992392112040065, 46.311883328747577 ], [ -117.992566305, 46.311730041 ], [ -117.992637392491162, 46.311679419532553 ], [ -117.992665233544031, 46.311659595679323 ], [ -117.992661421116736, 46.311662308726319 ], [ -117.99266857, 46.311657218 ], [ -117.992871766, 46.311512522 ], [ -117.992871790466239, 46.311512506789057 ], [ -117.992668734740221, 46.311657104050639 ], [ -117.992895308901524, 46.311497634007523 ], [ -117.9928895, 46.3115015 ], [ -117.9928844, 46.3115047 ], [ -117.992872123505521, 46.31151229973468 ], [ -117.992884386, 46.311504676 ], [ -117.992889548, 46.311501466 ], [ -117.992918766, 46.311481971 ], [ -117.992968834, 46.311448562 ], [ -117.993049953, 46.311403553 ], [ -117.99394929, 46.310872793 ], [ -117.994034787, 46.310826214 ], [ -117.992878074, 46.310027636 ], [ -117.991545392, 46.309107528 ], [ -117.991545392041516, 46.309107531409509 ], [ -117.99154539, 46.30910753 ] ] ], [ [ [ -118.0044463, 46.3153651 ], [ -118.004446436612255, 46.3153651 ], [ -118.00444627, 46.315365126 ], [ -118.004407709471778, 46.315371231660222 ], [ -118.0044463, 46.3153651 ] ] ], [ [ [ -118.0044466, 46.3153651 ], [ -118.00439742383378, 46.315408210027286 ], [ -118.004446557786125, 46.3153651 ], [ -118.0044466, 46.3153651 ] ] ], [ [ [ -118.003682452218229, 46.315993866366902 ], [ -118.00427346, 46.31556959 ], [ -118.00471726, 46.31518579 ], [ -118.00483999, 46.3150613 ], [ -118.0051981, 46.31504312 ], [ -118.00524877, 46.31540339 ], [ -118.00550874, 46.31538583 ], [ -118.00484125, 46.31582083 ], [ -118.00462134, 46.31598176 ], [ -118.00413821, 46.31633532 ], [ -118.00336336, 46.31669106 ], [ -118.0029051, 46.31692546 ], [ -118.00222216, 46.31699715 ], [ -118.0015916, 46.31706333 ], [ -118.001859575691498, 46.316985107095725 ], [ -118.001923369, 46.316968505 ], [ -118.002230781418362, 46.31684167485551 ], [ -118.001940179564613, 46.316961576775043 ], [ -118.00227679, 46.31686332 ], [ -118.00259366, 46.31673179 ], [ -118.00279354204298, 46.316609494868395 ], [ -118.00279813, 46.316607602 ], [ -118.002800545082195, 46.316605940135823 ], [ -118.00281009, 46.31659938 ], [ -118.00300565, 46.31647972 ], [ -118.003506779071756, 46.316119979096229 ], [ -118.003260540235047, 46.316289408685563 ], [ -118.003642199, 46.316026782 ], [ -118.00415188695257, 46.315609783402444 ], [ -118.003682452218229, 46.315993866366902 ] ] ], [ [ [ -117.9893529, 46.3245035 ], [ -117.9851599, 46.3264469 ], [ -117.98515986866569, 46.326446868837408 ], [ -117.989352913067819, 46.324503357195091 ], [ -117.9893529, 46.3245035 ] ] ], [ [ [ -117.9847037, 46.3259932 ], [ -117.9811068, 46.3277025 ], [ -117.981106791210621, 46.327702494366299 ], [ -117.984703714, 46.325993162 ], [ -117.985107024347414, 46.326394314108768 ], [ -117.9847037, 46.3259932 ] ] ], [ [ [ -117.9807994, 46.3278514 ], [ -117.9768513, 46.3277862 ], [ -117.972804, 46.3277192 ], [ -117.972792304055574, 46.327319164173929 ], [ -117.97141618, 46.32828542 ], [ -117.97060746, 46.32774421 ], [ -117.97018481, 46.32805741 ], [ -117.97018492, 46.32790737 ], [ -117.969352, 46.32790814 ], [ -117.96937223, 46.3301522 ], [ -117.96886027, 46.33044058 ], [ -117.96965645, 46.3310074 ], [ -117.96905335, 46.33144242 ], [ -117.96542024, 46.33140067 ], [ -117.9650115, 46.33139614 ], [ -117.96231066, 46.33136546 ], [ -117.96197282, 46.33137658 ], [ -117.96445048, 46.32946409 ], [ -117.96501447, 46.32902809 ], [ -117.96563065, 46.32855242 ], [ -117.96500921, 46.32855605 ], [ -117.96494603, 46.32409598 ], [ -117.9648488, 46.32052252 ], [ -117.96485939, 46.31701029 ], [ -117.96362711, 46.31699133 ], [ -117.96083977, 46.31698281 ], [ -117.95975222, 46.31695297 ], [ -117.95975657, 46.31320917 ], [ -117.95981251, 46.31321042 ], [ -117.96348152, 46.3132192 ], [ -117.964404625704319, 46.31322138889432 ], [ -117.964404626615007, 46.313221378989091 ], [ -117.965063282, 46.313222951 ], [ -117.965044811, 46.314859978 ], [ -117.965044809, 46.314860052 ], [ -117.9650448, 46.314860042639339 ], [ -117.9650448, 46.31486 ], [ -117.965044800004378, 46.314859999604629 ], [ -117.964580781980075, 46.314377424266112 ], [ -117.964623357930151, 46.314421712153788 ], [ -117.964355865, 46.3141435 ], [ -117.963752915, 46.313573216 ], [ -117.962975395433489, 46.313877397155764 ], [ -117.9607943, 46.31473068 ], [ -117.960803537660794, 46.315271918295487 ], [ -117.960815976, 46.316000917 ], [ -117.960814313218563, 46.316806093968459 ], [ -117.96081419, 46.31686431 ], [ -117.9608247779057, 46.316896195151315 ], [ -117.960832496, 46.316919446 ], [ -117.96083249871748, 46.316919446137753 ], [ -117.9608325, 46.31691945 ], [ -117.96091128, 46.31692344 ], [ -117.96381909238886, 46.316932331300634 ], [ -117.964982928, 46.31693589 ], [ -117.965027590043192, 46.316934205055247 ], [ -117.965016707767532, 46.31693461778378 ], [ -117.96506205, 46.31693291 ], [ -117.965104554233832, 46.316933063489216 ], [ -117.965124805, 46.316933139 ], [ -117.96512803, 46.316933151 ], [ -117.965141013, 46.3169332 ], [ -117.968748456, 46.316966565 ], [ -117.970166879, 46.316979652 ], [ -117.970166795446858, 46.31697969903437 ], [ -117.968749516843189, 46.316966609391322 ], [ -117.96901729, 46.31697659 ], [ -117.968997193707352, 46.317044273359514 ], [ -117.9690171, 46.3169841 ], [ -117.969304712778907, 46.317012384931246 ], [ -117.969017146, 46.316984124 ], [ -117.968972020806632, 46.317120235008616 ], [ -117.968954996068902, 46.317171579334982 ], [ -117.968956024563539, 46.317168484436934 ], [ -117.968929648, 46.317248044 ], [ -117.97023895, 46.31836466 ], [ -117.970238951771549, 46.318364658869157 ], [ -117.970238951769204, 46.318364658867154 ], [ -117.970310012, 46.318319158 ], [ -117.97031001, 46.318319441 ], [ -117.97028883, 46.321433801 ], [ -117.970281618759273, 46.322494047747554 ], [ -117.970282004199575, 46.32243714083868 ], [ -117.97027039, 46.32414434 ], [ -117.970270394339252, 46.32414434001619 ], [ -117.970270353, 46.324150418 ], [ -117.97235743, 46.324146876 ], [ -117.972699385, 46.324146292 ], [ -117.972716039743958, 46.324714979303842 ], [ -117.97272605, 46.32505689 ], [ -117.972738901201282, 46.325495598961702 ], [ -117.972776878, 46.326792342 ], [ -117.972790564750355, 46.327259687317849 ], [ -117.972790805484593, 46.327267908622339 ], [ -117.972790783841177, 46.327267168353593 ], [ -117.972804021, 46.327719162 ], [ -117.976851295, 46.327786167 ], [ -117.980799401410124, 46.327851391263358 ], [ -117.9807994, 46.3278514 ] ], [ [ -117.967402405039095, 46.316954137194266 ], [ -117.965141, 46.3169332 ], [ -117.96513561065585, 46.3169332 ], [ -117.967402405039095, 46.316954137194266 ] ], [ [ -117.97031, 46.318319306383344 ], [ -117.97031, 46.3183192 ], [ -117.970267637600429, 46.318346347734931 ], [ -117.97031, 46.318319306383344 ] ] ], [ [ [ -117.991614713140621, 46.314966547123028 ], [ -117.991584819, 46.31497222 ], [ -117.991584818648889, 46.3149721964758 ], [ -117.991614713140621, 46.314966547123028 ] ] ], [ [ [ -117.9916232, 46.3149649 ], [ -117.991643896860438, 46.314961009987677 ], [ -117.991623244, 46.314964928 ], [ -117.991622945, 46.314964985 ], [ -117.991622944999975, 46.31496498500001 ], [ -117.9916232, 46.3149649 ] ] ], [ [ [ -117.9699893, 46.3170796 ], [ -117.970018342365307, 46.317063265675202 ], [ -117.969989294, 46.317079617 ], [ -117.969989269161289, 46.317079630838712 ], [ -117.9699893, 46.3170796 ] ] ], [ [ [ -117.99595106, 46.32005179 ], [ -117.99632285, 46.31983212 ], [ -117.99656026, 46.31967839 ], [ -117.99665248, 46.31960903 ], [ -117.99664726, 46.31976768 ], [ -117.99665042, 46.31988348 ], [ -117.99561774, 46.32045139 ], [ -117.99522481, 46.32045354 ], [ -117.99543659, 46.32034279 ], [ -117.99564239, 46.32022752 ], [ -117.99595106, 46.32005179 ] ] ], [ [ [ -118.129336992851989, 46.517787289992775 ], [ -118.129330005, 46.517777547 ], [ -118.129304057159942, 46.51769812463246 ], [ -118.12933, 46.5177775 ], [ -118.129336992851989, 46.517787289992775 ] ] ], [ [ [ -118.1294966, 46.5179917 ], [ -118.129517837064085, 46.518019107833645 ], [ -118.129496557, 46.517991741 ], [ -118.129345284089936, 46.517797966179245 ], [ -118.1294966, 46.5179917 ] ] ], [ [ [ -118.1301511, 46.5185476 ], [ -118.1302262, 46.5186665 ], [ -118.130312231922844, 46.518791874088642 ], [ -118.13022615, 46.518666487 ], [ -118.130151119, 46.518547643 ], [ -118.129725465042682, 46.51819401121459 ], [ -118.1301511, 46.5185476 ] ] ], [ [ [ -118.1308316, 46.5194922 ], [ -118.1308598, 46.5195284 ], [ -118.130908098019205, 46.519593047607742 ], [ -118.130859763, 46.519528438 ], [ -118.130831562, 46.51949225 ], [ -118.130739046777819, 46.519372975906542 ], [ -118.1308316, 46.5194922 ] ] ], [ [ [ -118.1311354, 46.5198821 ], [ -118.131135385302088, 46.519882100165887 ], [ -118.131018758642583, 46.519734114961324 ], [ -118.1311354, 46.5198821 ] ] ], [ [ [ -118.130858100304181, 46.520050295630426 ], [ -118.1308581, 46.520050283 ], [ -118.130858364529615, 46.520046499974463 ], [ -118.130858100304181, 46.520050295630426 ] ] ], [ [ [ -118.1308645, 46.5203149 ], [ -118.1308676, 46.5204437 ], [ -118.130977115018837, 46.520442321368762 ], [ -118.130867576, 46.520443734 ], [ -118.130864472, 46.520314869 ], [ -118.130858194719835, 46.520054216073397 ], [ -118.1308645, 46.5203149 ] ] ], [ [ [ -118.1318256, 46.5207988 ], [ -118.131856319639994, 46.520838633457245 ], [ -118.131825598084291, 46.520798800041185 ], [ -118.1318256, 46.5207988 ] ] ], [ [ [ -118.1328886, 46.5213243 ], [ -118.13288865583408, 46.521327713854696 ], [ -118.132888599, 46.521324313 ], [ -118.132666618364951, 46.521270133412436 ], [ -118.1328886, 46.5213243 ] ] ], [ [ [ -118.1329036, 46.522258 ], [ -118.1329171, 46.523107 ], [ -118.1329316, 46.5240143 ], [ -118.132931554424871, 46.524014277901315 ], [ -118.132917099, 46.523106962 ], [ -118.132898848149011, 46.521961359255094 ], [ -118.1329036, 46.522258 ] ] ], [ [ [ -118.1313372, 46.5232412 ], [ -118.12942849444913, 46.5222971974096 ], [ -118.131337234, 46.523241174 ], [ -118.132202257634546, 46.523660653121709 ], [ -118.1313372, 46.5232412 ] ] ], [ [ [ -118.1287381, 46.5219558 ], [ -118.128170931580186, 46.521723828939471 ], [ -118.128738085, 46.521955752 ], [ -118.128962205575689, 46.522066591939776 ], [ -118.1287381, 46.5219558 ] ] ], [ [ [ -118.129002, 46.5155597 ], [ -118.129005449962705, 46.515736928496437 ], [ -118.129001973359678, 46.515559700335139 ], [ -118.129002, 46.5155597 ] ] ], [ [ [ -118.1291014, 46.5161194 ], [ -118.129101400020843, 46.516119400271506 ], [ -118.129011749, 46.516058037 ], [ -118.129011748931219, 46.516058033493607 ], [ -118.1291014, 46.5161194 ] ] ], [ [ [ -118.127657, 46.5220642 ], [ -118.127653, 46.5228288 ], [ -118.1282201, 46.5228496 ], [ -118.128220097931475, 46.522849644703498 ], [ -118.127652978, 46.522828804 ], [ -118.127656958699703, 46.522064660860742 ], [ -118.127657, 46.5220642 ] ] ] ] } }
]
}
