{
"type": "FeatureCollection",
"name": "douglas_ui_with_pop_centers",
"crs": { "type": "name", "properties": { "name": "urn:ogc:def:crs:OGC:1.3:CRS84" } },
"features": [
{ "type": "Feature", "properties": { }, "geometry": { "type": "MultiPolygon", "coordinates": [ [ [ [ -120.14687786, 47.36804401 ], [ -120.146927, 47.36803223 ], [ -120.14696379, 47.36803148 ], [ -120.14696375, 47.36803568 ], [ -120.14687786, 47.36804401 ] ] ], [ [ [ -120.14546687, 47.36807703 ], [ -120.14577514, 47.36811327 ], [ -120.14499741, 47.36811628 ], [ -120.14535386, 47.36807877 ], [ -120.14546687, 47.36807703 ] ] ], [ [ [ -120.14473377, 47.36814403 ], [ -120.14379903, 47.36827595 ], [ -120.14411106, 47.36820957 ], [ -120.14473377, 47.36814403 ] ] ], [ [ [ -120.14229566, 47.36836237 ], [ -120.14255538, 47.36838718 ], [ -120.14201476, 47.36839834 ], [ -120.14187625, 47.36842998 ], [ -120.14197246, 47.36839477 ], [ -120.142174, 47.36836837 ], [ -120.14229566, 47.36836237 ] ] ], [ [ [ -120.16112348, 47.37244168 ], [ -120.15981455, 47.37237836 ], [ -120.15981055, 47.37265159 ], [ -120.15981221, 47.37328167 ], [ -120.15714911, 47.37327333 ], [ -120.15714925, 47.37323248 ], [ -120.15715129, 47.37259762 ], [ -120.15715147, 47.3725429 ], [ -120.15715333, 47.37196542 ], [ -120.15827506, 47.37201447 ], [ -120.15881002, 47.3720219 ], [ -120.1587754, 47.37196349 ], [ -120.15871462, 47.37174661 ], [ -120.15990394, 47.3717421 ], [ -120.16114409, 47.37175342 ], [ -120.16115806, 47.37152406 ], [ -120.16166763, 47.3715249 ], [ -120.16207118, 47.37152557 ], [ -120.16248055, 47.37152624 ], [ -120.1624852, 47.37142272 ], [ -120.16514631, 47.37143111 ], [ -120.16514402, 47.37152752 ], [ -120.16513871, 47.3727548 ], [ -120.16394193, 47.37262249 ], [ -120.16286928, 47.37254148 ], [ -120.16112348, 47.37244168 ] ] ], [ [ [ -120.162914, 47.379211 ], [ -120.162908, 47.379316 ], [ -120.159787752868894, 47.379238654091672 ], [ -120.15978565, 47.3796388 ], [ -120.15978464, 47.37995796 ], [ -120.15978069, 47.38052568 ], [ -120.15978119, 47.38060724 ], [ -120.1597764, 47.38146624 ], [ -120.15977152, 47.38154803 ], [ -120.15977099, 47.38237117 ], [ -120.15910465, 47.38236944 ], [ -120.15844, 47.38236657 ], [ -120.15757723, 47.38236577 ], [ -120.15710745, 47.38236429 ], [ -120.1567583, 47.38236318 ], [ -120.15640916, 47.38236208 ], [ -120.15641237, 47.38172991 ], [ -120.15641425, 47.38136121 ], [ -120.15641554, 47.38110646 ], [ -120.15641791, 47.38064024 ], [ -120.15641812, 47.38059909 ], [ -120.1564714, 47.38051771 ], [ -120.15647201, 47.3802264 ], [ -120.15619982, 47.38022477 ], [ -120.15620011, 47.38015918 ], [ -120.15620132, 47.37988504 ], [ -120.15620253, 47.37961089 ], [ -120.15620375, 47.37933675 ], [ -120.15620542, 47.37895782 ], [ -120.15620638, 47.37874137 ], [ -120.156314096683062, 47.378741659116862 ], [ -120.156534, 47.374658 ], [ -120.156766, 47.374664 ], [ -120.156771, 47.374559 ], [ -120.163386, 47.374723 ], [ -120.163145, 47.379217 ], [ -120.162914, 47.379211 ] ] ], [ [ [ -120.188159, 47.375276 ], [ -120.191255, 47.375352 ], [ -120.191016, 47.379846 ], [ -120.184401, 47.379684 ], [ -120.184444, 47.378859 ], [ -120.181348, 47.378782 ], [ -120.181588, 47.374289 ], [ -120.188203, 47.374451 ], [ -120.188159, 47.375276 ] ] ], [ [ [ -120.169904, 47.380019 ], [ -120.169897, 47.380137 ], [ -120.163282, 47.379973 ], [ -120.163523, 47.375479 ], [ -120.164394, 47.375501 ], [ -120.1644, 47.375383 ], [ -120.171015, 47.375547 ], [ -120.170774, 47.380041 ], [ -120.169904, 47.380019 ] ] ], [ [ [ -120.216965, 47.379277 ], [ -120.216729, 47.38377 ], [ -120.210112, 47.383609 ], [ -120.210126, 47.383359 ], [ -120.209784, 47.38335 ], [ -120.210022, 47.378857 ], [ -120.216637, 47.379018 ], [ -120.216624, 47.379268 ], [ -120.216965, 47.379277 ] ] ], [ [ [ -120.237081318647725, 47.381808132534928 ], [ -120.23708947, 47.38088271 ], [ -120.23833679, 47.38127733 ], [ -120.2397531, 47.38102464 ], [ -120.23975502, 47.38086813 ], [ -120.23980882, 47.38088262 ], [ -120.2400017, 47.38092626 ], [ -120.24026441, 47.38101528 ], [ -120.24075724, 47.38110687 ], [ -120.24080062, 47.38113982 ], [ -120.24092142, 47.38118942 ], [ -120.24105862, 47.38119796 ], [ -120.24122008, 47.38119836 ], [ -120.24153468, 47.38123196 ], [ -120.24177328, 47.3812582 ], [ -120.24250879, 47.38146988 ], [ -120.24285936, 47.38180399 ], [ -120.2434405, 47.38181528 ], [ -120.24352189, 47.38182856 ], [ -120.24360482, 47.38181847 ], [ -120.24413306, 47.38182873 ], [ -120.2442345, 47.38180833 ], [ -120.24443422, 47.38182236 ], [ -120.24477328, 47.38180662 ], [ -120.24481369, 47.38179022 ], [ -120.24486242, 47.38174642 ], [ -120.24492134, 47.38172436 ], [ -120.2452985, 47.38177349 ], [ -120.24569848, 47.38183869 ], [ -120.24582242, 47.38187196 ], [ -120.24617728, 47.38195222 ], [ -120.24660442, 47.38209576 ], [ -120.24668838, 47.38211171 ], [ -120.24735512, 47.38240031 ], [ -120.24803134, 47.38266177 ], [ -120.24906068, 47.38272317 ], [ -120.249216284730252, 47.382736071148237 ], [ -120.249161426, 47.381253888 ], [ -120.250073426, 47.381433888 ], [ -120.250418426, 47.381500888 ], [ -120.251193426, 47.381653888 ], [ -120.253095426, 47.381640887 ], [ -120.258867428, 47.383393887 ], [ -120.260302428, 47.383897887 ], [ -120.2638364, 47.385140616 ], [ -120.26638543, 47.386036886 ], [ -120.26672043, 47.385772886 ], [ -120.267417231, 47.385226094 ], [ -120.26772843, 47.384981886 ], [ -120.26806443, 47.384718886 ], [ -120.26821043, 47.384602886 ], [ -120.26822443, 47.384592886 ], [ -120.26843243, 47.384485886 ], [ -120.26862143, 47.384290886 ], [ -120.26865243, 47.384268886 ], [ -120.26874043, 47.384210886 ], [ -120.26880643, 47.384162886 ], [ -120.26887943, 47.384109886 ], [ -120.26890443, 47.384101886 ], [ -120.26910743, 47.384043886 ], [ -120.26920243, 47.383979886 ], [ -120.26922043, 47.383966886 ], [ -120.26926643, 47.383936886 ], [ -120.26930443, 47.383887886 ], [ -120.26935543, 47.383821886 ], [ -120.26958143, 47.383664886 ], [ -120.26975943, 47.383654886 ], [ -120.26985943, 47.383614886 ], [ -120.26998543, 47.383566886 ], [ -120.27016343, 47.383490886 ], [ -120.27026043, 47.383455886 ], [ -120.27043843, 47.383422886 ], [ -120.27066443, 47.383368886 ], [ -120.27093943, 47.383269886 ], [ -120.27108043, 47.383182886 ], [ -120.27137143, 47.383084886 ], [ -120.27153343, 47.383073886 ], [ -120.27169343, 47.383102886 ], [ -120.27175943, 47.383115886 ], [ -120.27193643, 47.383126885 ], [ -120.27221143, 47.383083885 ], [ -120.27232343, 47.383034885 ], [ -120.27216243, 47.382888885 ], [ -120.27213343, 47.382869885 ], [ -120.27191843, 47.382729885 ], [ -120.27167343, 47.382640885 ], [ -120.27153143, 47.382560885 ], [ -120.27148843, 47.382500885 ], [ -120.27144243, 47.382436885 ], [ -120.27140643, 47.382268885 ], [ -120.27139343, 47.382208885 ], [ -120.27138543, 47.382182885 ], [ -120.27134343, 47.382040885 ], [ -120.27126943, 47.381949885 ], [ -120.27122843, 47.381899885 ], [ -120.27121043, 47.381884885 ], [ -120.27148843, 47.381943885 ], [ -120.27232243, 47.382122885 ], [ -120.27260043, 47.382182885 ], [ -120.27454743, 47.382614885 ], [ -120.274872786, 47.382687161 ], [ -120.274732849, 47.385400376 ], [ -120.290170748, 47.385766622 ], [ -120.295498435, 47.386800883 ], [ -120.299647436, 47.388213883 ], [ -120.301064984, 47.388696836 ], [ -120.300282704, 47.404003319 ], [ -120.326761093, 47.404624259 ], [ -120.325850534, 47.422600863 ], [ -120.324939091, 47.440577397 ], [ -120.324184714, 47.455442885 ], [ -120.323623456, 47.455404884 ], [ -120.323383456, 47.455387884 ], [ -120.322200455, 47.455309885 ], [ -120.318953455, 47.455335885 ], [ -120.317420455, 47.455348885 ], [ -120.317397455, 47.455353885 ], [ -120.317597455, 47.455753885 ], [ -120.317698455, 47.456153885 ], [ -120.317798455, 47.456553885 ], [ -120.317998455, 47.456953885 ], [ -120.317998455, 47.457353885 ], [ -120.318098455, 47.457753885 ], [ -120.318098455, 47.458253885 ], [ -120.318098455, 47.458415251 ], [ -120.318098455, 47.458653885 ], [ -120.317998456, 47.458953885 ], [ -120.317998456, 47.459453885 ], [ -120.317897456, 47.459951885 ], [ -120.317897456, 47.460551885 ], [ -120.317897456, 47.461351885 ], [ -120.317796456, 47.462051885 ], [ -120.317796456, 47.462751886 ], [ -120.317696456, 47.463351886 ], [ -120.317596457, 47.463851886 ], [ -120.317595457, 47.464151886 ], [ -120.317695457, 47.464251886 ], [ -120.317595457, 47.464351886 ], [ -120.317595457, 47.464751886 ], [ -120.317495457, 47.465251886 ], [ -120.317395457, 47.465651886 ], [ -120.317195457, 47.466151886 ], [ -120.317094457, 47.466551886 ], [ -120.316994457, 47.466951886 ], [ -120.316994457, 47.467351886 ], [ -120.316994457, 47.467651886 ], [ -120.316894457, 47.467951886 ], [ -120.316894458, 47.468351886 ], [ -120.316893458, 47.468951886 ], [ -120.316893458, 47.469551886 ], [ -120.316793458, 47.470151886 ], [ -120.316793458, 47.470551886 ], [ -120.316693458, 47.470851886 ], [ -120.316622458, 47.471191886 ], [ -120.316608458, 47.471278886 ], [ -120.315346458, 47.471080886 ], [ -120.314624458, 47.470976886 ], [ -120.314378789894377, 47.470941582722091 ], [ -120.31437605, 47.47095135 ], [ -120.31419745, 47.47114842 ], [ -120.31411612, 47.47126896 ], [ -120.31408725, 47.47144442 ], [ -120.31403845, 47.47151015 ], [ -120.31397325, 47.47167442 ], [ -120.31389192, 47.47180596 ], [ -120.31379452, 47.47192635 ], [ -120.31365192, 47.47220022 ], [ -120.31347285, 47.47255096 ], [ -120.31324532, 47.47287955 ], [ -120.31303825, 47.47314236 ], [ -120.31276185, 47.47352856 ], [ -120.31245325, 47.47391176 ], [ -120.31216512, 47.47421836 ], [ -120.31188952, 47.47440435 ], [ -120.31164645, 47.47453555 ], [ -120.31143552, 47.47472162 ], [ -120.31113125, 47.47502816 ], [ -120.31104965, 47.47523635 ], [ -120.31095185, 47.47542262 ], [ -120.31083792, 47.47563075 ], [ -120.31079292, 47.47580616 ], [ -120.31084112, 47.47589396 ], [ -120.31090422, 47.4759026 ], [ -120.31096271, 47.47600399 ], [ -120.31122881, 47.4760486 ], [ -120.31124472, 47.47609196 ], [ -120.31116352, 47.47619055 ], [ -120.31098532, 47.47624502 ], [ -120.31083972, 47.47627775 ], [ -120.31051592, 47.47633475 ], [ -120.31037012, 47.47641136 ], [ -120.31030512, 47.47649896 ], [ -120.31022785, 47.47661942 ], [ -120.31011425, 47.47675082 ], [ -120.31000032, 47.47692616 ], [ -120.30988645, 47.47713422 ], [ -120.30977232, 47.47739722 ], [ -120.30967852, 47.47762742 ], [ -120.30954785, 47.47795616 ], [ -120.30940485, 47.47839456 ], [ -120.30920925, 47.47881096 ], [ -120.30914812, 47.47893962 ], [ -120.30904625, 47.47915882 ], [ -120.30896072, 47.47931496 ], [ -120.30887532, 47.47943542 ], [ -120.30883465, 47.47953122 ], [ -120.30880592, 47.47964916 ], [ -120.30872025, 47.47987922 ], [ -120.30867525, 47.48002176 ], [ -120.30864652, 47.48013682 ], [ -120.30862565, 47.48029022 ], [ -120.30861672, 47.48054796 ], [ -120.30858805, 47.48066302 ], [ -120.30856725, 47.48080282 ], [ -120.30853032, 47.48092616 ], [ -120.30849325, 47.48114536 ], [ -120.30849252, 47.48132355 ], [ -120.30852052, 47.48144156 ], [ -120.30855665, 47.48151836 ], [ -120.30861312, 47.48153756 ], [ -120.30866185, 47.48151842 ], [ -120.30871865, 47.48145822 ], [ -120.30877552, 47.48137616 ], [ -120.30887325, 47.48117616 ], [ -120.30891812, 47.48106662 ], [ -120.30894685, 47.48094602 ], [ -120.30900375, 47.48084864 ], [ -120.3090293, 47.48089288 ], [ -120.30923256, 47.48078401 ], [ -120.30920412, 47.48050918 ], [ -120.30925205, 47.48042016 ], [ -120.30927245, 47.48034896 ], [ -120.30927272, 47.48028316 ], [ -120.30926668, 47.48023829 ], [ -120.30944194, 47.48009055 ], [ -120.30943065, 47.47985272 ], [ -120.3094199, 47.47964493 ], [ -120.30947312, 47.47965562 ], [ -120.30951765, 47.47962836 ], [ -120.30956632, 47.47959002 ], [ -120.30964352, 47.47951882 ], [ -120.30974452, 47.47949442 ], [ -120.30980125, 47.47949442 ], [ -120.30984965, 47.47953296 ], [ -120.30986152, 47.47957682 ], [ -120.30986932, 47.47968102 ], [ -120.30986085, 47.47980982 ], [ -120.30981172, 47.47993036 ], [ -120.30975472, 47.48006736 ], [ -120.30966925, 47.48022076 ], [ -120.30957552, 47.48040696 ], [ -120.30950625, 47.48057402 ], [ -120.30947752, 47.48070296 ], [ -120.30946092, 47.48078516 ], [ -120.30946885, 47.48087555 ], [ -120.30948845, 47.48100995 ], [ -120.30951585, 47.48129236 ], [ -120.30952312, 47.48151722 ], [ -120.30952245, 47.48172282 ], [ -120.30955445, 47.48181322 ], [ -120.30958252, 47.48187096 ], [ -120.30959025, 47.48196142 ], [ -120.30961792, 47.48216156 ], [ -120.30963752, 47.48231516 ], [ -120.30964505, 47.48250156 ], [ -120.30968512, 47.48257282 ], [ -120.30972952, 47.48261682 ], [ -120.30977005, 47.48261696 ], [ -120.30980645, 47.48259222 ], [ -120.30989152, 47.48252662 ], [ -120.30999995, 47.4824279 ], [ -120.31015932, 47.48247926 ], [ -120.3104589, 47.48219715 ], [ -120.31067677, 47.48196061 ], [ -120.31069228, 47.48176873 ], [ -120.3106599, 47.48174652 ], [ -120.31065072, 47.48169175 ], [ -120.31061452, 47.48164782 ], [ -120.31056612, 47.48160116 ], [ -120.31046112, 47.48158176 ], [ -120.31044847, 47.48157582 ], [ -120.31057693, 47.48141846 ], [ -120.31062352, 47.48140382 ], [ -120.31073692, 47.48132722 ], [ -120.31085052, 47.48124242 ], [ -120.31099252, 47.48108915 ], [ -120.31117512, 47.48089756 ], [ -120.31132532, 47.48077442 ], [ -120.31162125, 47.48056382 ], [ -120.31197385, 47.48032595 ], [ -120.31220892, 47.48017002 ], [ -120.31235072, 47.48010176 ], [ -120.31248405, 47.48011296 ], [ -120.31254865, 47.48016516 ], [ -120.31256865, 47.48021722 ], [ -120.31257652, 47.48028576 ], [ -120.31256012, 47.48035695 ], [ -120.31249105, 47.48046655 ], [ -120.31244625, 47.48054322 ], [ -120.31222685, 47.48082522 ], [ -120.31211312, 47.48095396 ], [ -120.31206445, 47.48101962 ], [ -120.31199145, 47.48107162 ], [ -120.31186605, 47.48111522 ], [ -120.31168772, 47.48120542 ], [ -120.31159032, 47.48128756 ], [ -120.31153345, 47.48137242 ], [ -120.31142785, 47.48152576 ], [ -120.31134245, 47.48162982 ], [ -120.31131385, 47.48170655 ], [ -120.31135412, 47.48177782 ], [ -120.31141865, 47.48184655 ], [ -120.31150312, 47.48195622 ], [ -120.31151492, 47.48203302 ], [ -120.31147425, 47.48209056 ], [ -120.31142965, 47.48214256 ], [ -120.31133232, 47.48220002 ], [ -120.31123912, 47.48226556 ], [ -120.31107712, 47.48234762 ], [ -120.31087845, 47.48247615 ], [ -120.31077312, 47.48254176 ], [ -120.31067972, 47.48262382 ], [ -120.31030999, 47.4830446 ], [ -120.3075396, 47.48300976 ], [ -120.3076395, 47.48315636 ], [ -120.3077511, 47.4833304 ], [ -120.30780362, 47.48343865 ], [ -120.30750939, 47.48344445 ], [ -120.30702983, 47.48344457 ], [ -120.3062217, 47.48344437 ], [ -120.3028695, 47.48344376 ], [ -120.30278795, 47.4834434 ], [ -120.30278644, 47.48312265 ], [ -120.30139092, 47.48311936 ], [ -120.30108762, 47.4831193 ], [ -120.30100509, 47.48365168 ], [ -120.30064476, 47.48448513 ], [ -120.2998391, 47.48570939 ], [ -120.299516, 47.48612963 ], [ -120.2993778, 47.48631513 ], [ -120.29833305, 47.4873811 ], [ -120.29775875, 47.48818447 ], [ -120.2974328, 47.48890535 ], [ -120.29736464, 47.48963718 ], [ -120.29735954, 47.49718572 ], [ -120.29749955, 47.49718268 ], [ -120.29859663, 47.49718244 ], [ -120.30005292, 47.4971821 ], [ -120.300045392184728, 47.498234576863346 ], [ -120.300871, 47.498254 ], [ -120.300641, 47.502748 ], [ -120.300405, 47.502743 ], [ -120.300366, 47.503515 ], [ -120.297338812571468, 47.503443793540583 ], [ -120.29728868, 47.51100454 ], [ -120.29728729, 47.51119141 ], [ -120.29726263, 47.51351627 ], [ -120.29725698, 47.51367229 ], [ -120.29721395, 47.51399136 ], [ -120.29702537, 47.51463593 ], [ -120.29697838, 47.51484488 ], [ -120.29677223, 47.51523014 ], [ -120.2964496, 47.51583016 ], [ -120.29604553, 47.51638504 ], [ -120.29543566, 47.51704989 ], [ -120.29508343, 47.51736088 ], [ -120.29470258, 47.51765582 ], [ -120.29429348, 47.5179322 ], [ -120.29209399, 47.51917721 ], [ -120.29153905, 47.51948713 ], [ -120.29078706, 47.51990658 ], [ -120.29018885, 47.52024041 ], [ -120.28975724, 47.52048156 ], [ -120.28948885, 47.52064167 ], [ -120.28919508, 47.5208191 ], [ -120.28883495, 47.52106448 ], [ -120.28870003, 47.52115676 ], [ -120.28836209, 47.52141795 ], [ -120.28819361, 47.52155197 ], [ -120.28778003, 47.52192038 ], [ -120.28738453, 47.5223215 ], [ -120.28718902, 47.52255119 ], [ -120.28702163, 47.52274757 ], [ -120.28670116, 47.52319017 ], [ -120.28642347, 47.5236445 ], [ -120.28618991, 47.52410987 ], [ -120.28592574, 47.52480706 ], [ -120.28572201, 47.52540202 ], [ -120.285419391151237, 47.526284584534501 ], [ -120.288208, 47.526351 ], [ -120.287977, 47.530845 ], [ -120.287587, 47.530835 ], [ -120.287572, 47.531135 ], [ -120.283759706590274, 47.531044231109291 ], [ -120.28374932, 47.53106474 ], [ -120.28372076, 47.53112294 ], [ -120.28369406, 47.53117646 ], [ -120.2836643, 47.53123615 ], [ -120.2836351, 47.53128521 ], [ -120.28360657, 47.53133336 ], [ -120.28357226, 47.53139178 ], [ -120.28354951, 47.53142943 ], [ -120.28352065, 47.53147757 ], [ -120.28346128, 47.53156085 ], [ -120.28342464, 47.53161241 ], [ -120.28339275, 47.53165689 ], [ -120.28335408, 47.53171096 ], [ -120.28331476, 47.53175864 ], [ -120.28327612, 47.53180517 ], [ -120.283189, 47.53191078 ], [ -120.28315206, 47.53195251 ], [ -120.28296506, 47.53215 ], [ -120.28204971, 47.53295013 ], [ -120.28124981, 47.53363808 ], [ -120.28057618, 47.53421044 ], [ -120.27995599, 47.53466616 ], [ -120.27960664, 47.53488069 ], [ -120.27943894, 47.53497358 ], [ -120.27911947, 47.53514111 ], [ -120.27897245, 47.53521028 ], [ -120.27891566, 47.5352369 ], [ -120.27884891, 47.53526841 ], [ -120.27877016, 47.5353055 ], [ -120.278697, 47.5353354 ], [ -120.2776695, 47.53573665 ], [ -120.27760091, 47.53576348 ], [ -120.27734411, 47.53550199 ], [ -120.27692489, 47.53519747 ], [ -120.27641734, 47.5350046 ], [ -120.27651399, 47.53439895 ], [ -120.27577998, 47.53399456 ], [ -120.27584829, 47.53355174 ], [ -120.27615529, 47.53338122 ], [ -120.27627352, 47.53326015 ], [ -120.27650745, 47.53273791 ], [ -120.27695322, 47.53172515 ], [ -120.27697079, 47.53167756 ], [ -120.27706616, 47.53141743 ], [ -120.27716693, 47.5311942 ], [ -120.27682217, 47.52990967 ], [ -120.27900073, 47.52992274 ], [ -120.27900963, 47.52964611 ], [ -120.27901339, 47.52955405 ], [ -120.27902056, 47.52936994 ], [ -120.27907314, 47.52774784 ], [ -120.28004156, 47.52625587 ], [ -120.28007019, 47.52569097 ], [ -120.28008803, 47.52537118 ], [ -120.28010161, 47.52510438 ], [ -120.2803134, 47.52141743 ], [ -120.2804499, 47.51897605 ], [ -120.28533646, 47.51894975 ], [ -120.28590342, 47.51817339 ], [ -120.28647782, 47.51738653 ], [ -120.28699625, 47.51667838 ], [ -120.28750654, 47.5159789 ], [ -120.28801411, 47.51528374 ], [ -120.28987909, 47.51290945 ], [ -120.29046491, 47.51210614 ], [ -120.29063406, 47.51187571 ], [ -120.2906861, 47.51159002 ], [ -120.29079226, 47.51099944 ], [ -120.2908815, 47.51051187 ], [ -120.2909201, 47.51029811 ], [ -120.29116923, 47.50892878 ], [ -120.29133154, 47.50803013 ], [ -120.2910517, 47.50803077 ], [ -120.29162658, 47.50491166 ], [ -120.29181139, 47.50437719 ], [ -120.29205183, 47.50366783 ], [ -120.29464978, 47.49647266 ], [ -120.29334956, 47.49544576 ], [ -120.29335774, 47.49437618 ], [ -120.29480337, 47.49316841 ], [ -120.29628779, 47.49193533 ], [ -120.29653135, 47.49126069 ], [ -120.29647161, 47.48924566 ], [ -120.29664426, 47.48612282 ], [ -120.29475864, 47.48611928 ], [ -120.29508328, 47.48310454 ], [ -120.29711286, 47.48310992 ], [ -120.29714221, 47.48287993 ], [ -120.29716887, 47.48260606 ], [ -120.29721485, 47.48212046 ], [ -120.29724192, 47.48182489 ], [ -120.29727034, 47.48152932 ], [ -120.29729707, 47.4812349 ], [ -120.2973255, 47.48093465 ], [ -120.29735395, 47.48063211 ], [ -120.29737709, 47.48039479 ], [ -120.29739292, 47.48021754 ], [ -120.29743222, 47.479808 ], [ -120.29746982, 47.47939868 ], [ -120.29750349, 47.47905058 ], [ -120.29754075, 47.4786456 ], [ -120.29756955, 47.47833496 ], [ -120.29655628, 47.47833342 ], [ -120.29662022, 47.47764795 ], [ -120.29763516, 47.47764949 ], [ -120.29765097, 47.47747978 ], [ -120.29748956, 47.47747904 ], [ -120.29748108, 47.47704885 ], [ -120.2921999, 47.4770304 ], [ -120.29208736, 47.47122183 ], [ -120.29208429, 47.47105733 ], [ -120.29202455, 47.46796445 ], [ -120.29202358, 47.46344863 ], [ -120.29202211, 47.4608831 ], [ -120.29202193, 47.46006067 ], [ -120.29202159, 47.45928325 ], [ -120.29202127, 47.4589328 ], [ -120.29202069, 47.45778048 ], [ -120.29202092, 47.45728817 ], [ -120.291340291313787, 47.457287497392024 ], [ -120.29133945, 47.457287888 ], [ -120.29123145, 47.457337888 ], [ -120.29109745, 47.457401888 ], [ -120.290827451, 47.457744888 ], [ -120.290770997, 47.457772336 ], [ -120.29035645, 47.457973888 ], [ -120.289890697, 47.457751517 ], [ -120.28944745, 47.457539888 ], [ -120.28914745, 47.457285888 ], [ -120.289146791359869, 47.457285329740856 ], [ -120.28838811, 47.45728458 ], [ -120.28803444, 47.45702624 ], [ -120.28762558, 47.45701111 ], [ -120.28718657, 47.45703818 ], [ -120.28694476, 47.45711107 ], [ -120.28656976, 47.45705121 ], [ -120.28597285, 47.45697586 ], [ -120.28551353, 47.45711072 ], [ -120.28527453, 47.45724164 ], [ -120.28477643, 47.45713403 ], [ -120.28457896, 47.45707175 ], [ -120.28429135, 47.45714341 ], [ -120.28399174, 47.45726485 ], [ -120.28369755, 47.45738036 ], [ -120.2835064, 47.45737943 ], [ -120.28348949, 47.457104 ], [ -120.2830281, 47.45683631 ], [ -120.28264794, 47.45680224 ], [ -120.28263405, 47.45665646 ], [ -120.28194699, 47.45638834 ], [ -120.28155627, 47.45630217 ], [ -120.281560411171924, 47.455849348952135 ], [ -120.281555448, 47.455840889 ], [ -120.281526448, 47.455790889 ], [ -120.281229448, 47.455275889 ], [ -120.280601448, 47.454700889 ], [ -120.28058080110641, 47.454681618565992 ], [ -120.280542466362718, 47.454654666119708 ], [ -120.280162448, 47.454539889 ], [ -120.279950448, 47.454475889 ], [ -120.277896447, 47.454452889 ], [ -120.275303447, 47.453537889 ], [ -120.275120447, 47.453443889 ], [ -120.275050657671187, 47.453408143246222 ], [ -120.27092344, 47.45338492 ], [ -120.270925827115278, 47.453027726953529 ], [ -120.270920446, 47.45302689 ], [ -120.268602445, 47.45266689 ], [ -120.268299445, 47.45234689 ], [ -120.268570445, 47.45129689 ], [ -120.267964445, 47.45104489 ], [ -120.267459445, 47.45090789 ], [ -120.267055445, 47.45102189 ], [ -120.266347445, 47.45092989 ], [ -120.265842445, 47.45070189 ], [ -120.265607444, 47.45035889 ], [ -120.264967444, 47.45015289 ], [ -120.263789444, 47.45001489 ], [ -120.262070444, 47.450310891 ], [ -120.261195444, 47.449945891 ], [ -120.260687443, 47.449535891 ], [ -120.260651685672642, 47.449535891 ], [ -120.26044682, 47.44953743 ], [ -120.260446827736331, 47.449535891 ], [ -120.260436443, 47.449535891 ], [ -120.260438443, 47.449334891 ], [ -120.259950443, 47.448939891 ], [ -120.259648443, 47.448093891 ], [ -120.259385443, 47.448063891 ], [ -120.259332443, 47.447600891 ], [ -120.259292443, 47.447060891 ], [ -120.258092441, 47.442216891 ], [ -120.257473441, 47.439714891 ], [ -120.25728544, 47.438999891 ], [ -120.257265108, 47.438977297 ], [ -120.254607439, 47.436023891 ], [ -120.254560439, 47.435634891 ], [ -120.254539439, 47.435428891 ], [ -120.254464439, 47.434696891 ], [ -120.254207438, 47.43247489 ], [ -120.253814437, 47.42907489 ], [ -120.253641437, 47.42759089 ], [ -120.253626437, 47.42745889 ], [ -120.253225465190496, 47.423992142377053 ], [ -120.24555692, 47.42401797 ], [ -120.24555929, 47.42377673 ], [ -120.24556229, 47.4235102 ], [ -120.24536839, 47.42329025 ], [ -120.24546957, 47.42302424 ], [ -120.24546208, 47.42244352 ], [ -120.24570341, 47.42218775 ], [ -120.24577525, 47.42203581 ], [ -120.24570694, 47.42187363 ], [ -120.24553992, 47.42175853 ], [ -120.24571249, 47.42156843 ], [ -120.24571826, 47.4213612 ], [ -120.24574181, 47.42119128 ], [ -120.24493558, 47.42119124 ], [ -120.24193185, 47.42121637 ], [ -120.24109637, 47.42142492 ], [ -120.24028196, 47.42173243 ], [ -120.23987512, 47.42184415 ], [ -120.2396027, 47.42186205 ], [ -120.2370412, 47.42203471 ], [ -120.23618886, 47.42285773 ], [ -120.23507932, 47.42279512 ], [ -120.23548935, 47.42156422 ], [ -120.23604492, 47.42050932 ], [ -120.23608202, 47.42042671 ], [ -120.23695653, 47.42042755 ], [ -120.23695592, 47.42034553 ], [ -120.2369586, 47.41897799 ], [ -120.23695972, 47.4186136 ], [ -120.2369603, 47.41787843 ], [ -120.23696104, 47.41779664 ], [ -120.2369616, 47.41733881 ], [ -120.23696385, 47.4168819 ], [ -120.23696398, 47.41671741 ], [ -120.23696459, 47.41638867 ], [ -120.23696643, 47.41567154 ], [ -120.23696778, 47.41498571 ], [ -120.23599878, 47.41498603 ], [ -120.23589579, 47.41498557 ], [ -120.23590004, 47.41446424 ], [ -120.23590541, 47.41317209 ], [ -120.2369713, 47.41317245 ], [ -120.23697131, 47.41276077 ], [ -120.23697035, 47.41254465 ], [ -120.23697038, 47.41226501 ], [ -120.23695549, 47.41135663 ], [ -120.23695708, 47.41044943 ], [ -120.23696827, 47.40954224 ], [ -120.23696769, 47.40917991 ], [ -120.23696824, 47.40886281 ], [ -120.23696713, 47.40854137 ], [ -120.23696731, 47.40809427 ], [ -120.23696676, 47.40772668 ], [ -120.23516357, 47.40772814 ], [ -120.23443519, 47.40772858 ], [ -120.23423251, 47.40772857 ], [ -120.23290083, 47.40772906 ], [ -120.23166893, 47.40772898 ], [ -120.23166803, 47.40602465 ], [ -120.22956541, 47.40603187 ], [ -120.22924158, 47.406042 ], [ -120.22920988, 47.40580575 ], [ -120.22921177, 47.40529175 ], [ -120.22921399, 47.40468177 ], [ -120.22921608, 47.40410566 ], [ -120.2317993, 47.40410494 ], [ -120.23180478, 47.4023926 ], [ -120.23180479, 47.40225501 ], [ -120.23516452, 47.4022545 ], [ -120.23516601, 47.40170628 ], [ -120.23516987, 47.40054107 ], [ -120.23439407, 47.40054128 ], [ -120.23439946, 47.39882785 ], [ -120.23440104, 47.39869132 ], [ -120.23698478, 47.39869098 ], [ -120.2369901, 47.39697755 ], [ -120.23440643, 47.39697789 ], [ -120.23441182, 47.39526446 ], [ -120.23441183, 47.39512686 ], [ -120.23441493, 47.39430457 ], [ -120.23441879, 47.39341453 ], [ -120.23442304, 47.39193757 ], [ -120.23442506, 47.39148501 ], [ -120.23442637, 47.39132103 ], [ -120.23704516, 47.39131933 ], [ -120.23704422, 47.39140101 ], [ -120.23748271, 47.39140117 ], [ -120.23811904, 47.39140021 ], [ -120.23957061, 47.39139923 ], [ -120.2397343, 47.3913442 ], [ -120.24156209, 47.39133224 ], [ -120.24188506, 47.3913301 ], [ -120.24236088, 47.39132694 ], [ -120.24326187, 47.39132098 ], [ -120.24378665, 47.39131752 ], [ -120.24503583, 47.39130817 ], [ -120.24504283, 47.39040211 ], [ -120.24621428, 47.39039508 ], [ -120.24621005, 47.38951276 ], [ -120.24622859, 47.38815735 ], [ -120.24622787, 47.38809612 ], [ -120.24506388, 47.38775884 ], [ -120.2443342, 47.38775202 ], [ -120.24416432, 47.38775102 ], [ -120.24415284, 47.38768982 ], [ -120.24414579, 47.38761635 ], [ -120.24412283, 47.3875633 ], [ -120.243513187572489, 47.387364319604657 ], [ -120.242834807371551, 47.387348018795841 ], [ -120.24279386, 47.38735464 ], [ -120.242750000080349, 47.387345980960063 ], [ -120.241752, 47.387322 ], [ -120.241776945927057, 47.386850461134976 ], [ -120.2415584, 47.38669678 ], [ -120.24103077, 47.38655648 ], [ -120.23970307, 47.38654528 ], [ -120.23875691, 47.38651871 ], [ -120.23856153, 47.3865747 ], [ -120.23790479, 47.38655883 ], [ -120.237680351520297, 47.386533554811869 ], [ -120.231944, 47.386395 ], [ -120.231936, 47.386551 ], [ -120.227074, 47.386433 ], [ -120.227067, 47.386559 ], [ -120.220451, 47.386399 ], [ -120.220455, 47.386318 ], [ -120.219519, 47.386296 ], [ -120.219756, 47.381802 ], [ -120.225524, 47.381942 ], [ -120.225532, 47.38179 ], [ -120.231368, 47.381931 ], [ -120.231375, 47.381798 ], [ -120.23616, 47.381914 ], [ -120.236166, 47.381786 ], [ -120.237081318647725, 47.381808132534928 ] ], [ [ -120.28903236, 47.39863131 ], [ -120.28791058, 47.39923155 ], [ -120.2878193, 47.39923299 ], [ -120.28761302, 47.39927822 ], [ -120.28756471, 47.3992189 ], [ -120.28743495, 47.39925918 ], [ -120.28716264, 47.39934371 ], [ -120.28564594, 47.39987895 ], [ -120.28548493, 47.39989629 ], [ -120.28541285, 47.39992348 ], [ -120.285412871426615, 47.399923520664437 ], [ -120.285442175, 47.399969233 ], [ -120.285442110348498, 47.399979011682923 ], [ -120.28544212, 47.39997903 ], [ -120.28544185, 47.40002021 ], [ -120.28541632, 47.40006152 ], [ -120.28537122, 47.40009717 ], [ -120.28530073, 47.40011641 ], [ -120.28522863, 47.4001361 ], [ -120.28516443, 47.40015362 ], [ -120.2851061, 47.40016955 ], [ -120.2849111, 47.40022279 ], [ -120.28491424, 47.40009212 ], [ -120.28444132, 47.40008639 ], [ -120.28395703, 47.40008052 ], [ -120.28371295, 47.40007756 ], [ -120.28346916, 47.4000746 ], [ -120.28322695, 47.40007166 ], [ -120.28298, 47.40006867 ], [ -120.28273781, 47.40006573 ], [ -120.28195824, 47.40005627 ], [ -120.28106058, 47.40020662 ], [ -120.28074611, 47.40020559 ], [ -120.280744906915046, 47.400205579249359 ], [ -120.280526403, 47.400204863 ], [ -120.280502312561012, 47.40020341145263 ], [ -120.28050215, 47.40020341 ], [ -120.27857867, 47.40008752 ], [ -120.27811787, 47.40005975 ], [ -120.27791663, 47.40004763 ], [ -120.27770019, 47.40003458 ], [ -120.276987, 47.39999514 ], [ -120.27686829, 47.39997894 ], [ -120.2767456, 47.39996219 ], [ -120.27662325, 47.39994548 ], [ -120.27649692, 47.39992824 ], [ -120.27638761, 47.39989121 ], [ -120.27627604, 47.39985341 ], [ -120.27617165, 47.39981804 ], [ -120.27606112, 47.3997806 ], [ -120.27594105, 47.39973992 ], [ -120.27547671, 47.39924144 ], [ -120.27492018, 47.39891914 ], [ -120.27483816, 47.39899775 ], [ -120.27416994, 47.39856666 ], [ -120.2738373, 47.39856242 ], [ -120.27333568, 47.39855604 ], [ -120.2725663, 47.39854625 ], [ -120.27196179, 47.39853855 ], [ -120.27129066, 47.39853 ], [ -120.27105913, 47.39852705 ], [ -120.27082637, 47.39852628 ], [ -120.27023923, 47.39852434 ], [ -120.26991622, 47.39852327 ], [ -120.26955216, 47.39852207 ], [ -120.26922914, 47.39852099 ], [ -120.26886508, 47.39851979 ], [ -120.26850237, 47.39851858 ], [ -120.26812115, 47.39851731 ], [ -120.26781782, 47.3985163 ], [ -120.26325971, 47.39848214 ], [ -120.26060626, 47.39846216 ], [ -120.26025988, 47.39845955 ], [ -120.26026132, 47.39869175 ], [ -120.26026385, 47.39910025 ], [ -120.26026531, 47.39933568 ], [ -120.26026658, 47.39954101 ], [ -120.26026829, 47.39981746 ], [ -120.26026959, 47.40002691 ], [ -120.26027078, 47.40021933 ], [ -120.26027265, 47.40052033 ], [ -120.26027432, 47.40079106 ], [ -120.26027482, 47.40087061 ], [ -120.26027533, 47.40095339 ], [ -120.26027711, 47.4012404 ], [ -120.26027939, 47.40160806 ], [ -120.26028291, 47.40217674 ], [ -120.2602852, 47.40254654 ], [ -120.26028622, 47.40271101 ], [ -120.26028851, 47.40307973 ], [ -120.26029018, 47.40334955 ], [ -120.26029153, 47.40356671 ], [ -120.26029273, 47.40376129 ], [ -120.26029546, 47.40420111 ], [ -120.26029682, 47.40442044 ], [ -120.26029817, 47.40463849 ], [ -120.26029953, 47.40485779 ], [ -120.26030263, 47.40535767 ], [ -120.26030417, 47.40560596 ], [ -120.26030493, 47.40572921 ], [ -120.26030672, 47.4060177 ], [ -120.26031112, 47.40672826 ], [ -120.26031445, 47.40726466 ], [ -120.26031631, 47.40756565 ], [ -120.26031699, 47.40767422 ], [ -120.26031819, 47.4078677 ], [ -120.26031937, 47.40805905 ], [ -120.26032057, 47.40825147 ], [ -120.26032178, 47.40844712 ], [ -120.26032229, 47.40852989 ], [ -120.2603236, 47.40874166 ], [ -120.26032491, 47.40895264 ], [ -120.26032622, 47.409164 ], [ -120.2603271, 47.4093058 ], [ -120.26032872, 47.40956701 ], [ -120.2603305, 47.40985403 ], [ -120.2603322, 47.41012813 ], [ -120.2603339, 47.41040226 ], [ -120.26033562, 47.41067887 ], [ -120.26033731, 47.41095298 ], [ -120.26033901, 47.41122709 ], [ -120.26034071, 47.41150121 ], [ -120.2603421, 47.4117248 ], [ -120.2603436, 47.41196774 ], [ -120.2603453, 47.41224186 ], [ -120.26034684, 47.41248909 ], [ -120.26034836, 47.41273525 ], [ -120.26034964, 47.41294165 ], [ -120.26035117, 47.41318782 ], [ -120.26035249, 47.41340172 ], [ -120.2603534, 47.41364897 ], [ -120.26035401, 47.41381344 ], [ -120.26035471, 47.41400479 ], [ -120.26035561, 47.41425095 ], [ -120.26035632, 47.41444337 ], [ -120.26035702, 47.41463472 ], [ -120.26035772, 47.41482592 ], [ -120.26035873, 47.41510124 ], [ -120.26035975, 47.41538074 ], [ -120.26036076, 47.41565485 ], [ -120.26036167, 47.41590209 ], [ -120.26036237, 47.41609396 ], [ -120.26036327, 47.41634069 ], [ -120.26036428, 47.4166147 ], [ -120.26036509, 47.41683409 ], [ -120.26036599, 47.41708025 ], [ -120.26020484, 47.41708048 ], [ -120.26020586, 47.41732549 ], [ -120.26020709, 47.41762551 ], [ -120.26020732, 47.41767967 ], [ -120.26020833, 47.41792531 ], [ -120.26020934, 47.4181704 ], [ -120.26021036, 47.41841777 ], [ -120.26033073, 47.4184173 ], [ -120.26031809, 47.41863898 ], [ -120.26030328, 47.41889874 ], [ -120.26037466, 47.41917751 ], [ -120.26040498, 47.41928453 ], [ -120.2604265, 47.41936051 ], [ -120.2604611, 47.4194333 ], [ -120.26049616, 47.41950705 ], [ -120.26049723, 47.419793 ], [ -120.2604983, 47.42008108 ], [ -120.26049907, 47.42028693 ], [ -120.26052387, 47.42036139 ], [ -120.26114281, 47.4203719 ], [ -120.26149161, 47.42037338 ], [ -120.26154835, 47.42038762 ], [ -120.261604, 47.42040158 ], [ -120.2616603, 47.4204157 ], [ -120.26171507, 47.42042944 ], [ -120.26177037, 47.42044331 ], [ -120.26231044, 47.42044563 ], [ -120.26336519, 47.42045016 ], [ -120.26468448, 47.42045581 ], [ -120.266065769027492, 47.420465316717944 ], [ -120.269305116161718, 47.420487583309281 ], [ -120.26982677, 47.42049116 ], [ -120.26993147, 47.42316104 ], [ -120.27017338, 47.42316333 ], [ -120.27112554, 47.42317232 ], [ -120.27112249, 47.42344471 ], [ -120.27112095, 47.42358179 ], [ -120.27111776, 47.4238665 ], [ -120.27111578, 47.42404367 ], [ -120.27107509, 47.42767582 ], [ -120.27107592, 47.42798979 ], [ -120.27107715, 47.42845259 ], [ -120.27107821, 47.42885647 ], [ -120.27107919, 47.42922519 ], [ -120.27108025, 47.42962495 ], [ -120.27108503, 47.43142927 ], [ -120.27099947, 47.43513559 ], [ -120.27107011, 47.4351351 ], [ -120.27123003, 47.43513398 ], [ -120.2714254, 47.43500018 ], [ -120.27314885, 47.43447724 ], [ -120.27389257, 47.43456138 ], [ -120.27431172, 47.43436331 ], [ -120.27484156, 47.43411292 ], [ -120.27490443, 47.43408321 ], [ -120.27533324, 47.43377682 ], [ -120.27582535, 47.43342518 ], [ -120.27634486, 47.43305396 ], [ -120.27680705, 47.43294812 ], [ -120.27720878, 47.43285611 ], [ -120.27759646, 47.4328684 ], [ -120.27800509, 47.43288135 ], [ -120.27812545, 47.43288517 ], [ -120.27851815, 47.43289761 ], [ -120.27890933, 47.43291 ], [ -120.27930267, 47.43292247 ], [ -120.27930071, 47.43299132 ], [ -120.27929123, 47.4333246 ], [ -120.27928705, 47.43347148 ], [ -120.27922687, 47.43347011 ], [ -120.27918558, 47.43374797 ], [ -120.2791337, 47.4340971 ], [ -120.27911345, 47.43423343 ], [ -120.27905114, 47.43465276 ], [ -120.27946095, 47.43466757 ], [ -120.27967034, 47.43467514 ], [ -120.27981529, 47.43490051 ], [ -120.27998677, 47.43516363 ], [ -120.28040675, 47.43544839 ], [ -120.28079686, 47.43571257 ], [ -120.28092652, 47.43573578 ], [ -120.28117769, 47.43595521 ], [ -120.28148338, 47.4359546 ], [ -120.28147354, 47.4362526 ], [ -120.28146715, 47.43644895 ], [ -120.28146336, 47.43656886 ], [ -120.28181534, 47.43657013 ], [ -120.28189621, 47.43657042 ], [ -120.2822957, 47.43657187 ], [ -120.28269975, 47.43657333 ], [ -120.28269348, 47.43675724 ], [ -120.28268525, 47.43699815 ], [ -120.28290783, 47.43699895 ], [ -120.28332618, 47.43700046 ], [ -120.2837298, 47.43696226 ], [ -120.28397133, 47.4369394 ], [ -120.28445296, 47.43693558 ], [ -120.28465404, 47.43693399 ], [ -120.28487721, 47.43693222 ], [ -120.28521979, 47.43692951 ], [ -120.28530144, 47.43692886 ], [ -120.285456541544605, 47.43692763508264 ], [ -120.285480648859348, 47.436927444021656 ], [ -120.28572567, 47.4369255 ], [ -120.28594973, 47.43692372 ], [ -120.28643465, 47.43691987 ], [ -120.28656047, 47.43691888 ], [ -120.28656043, 47.43651853 ], [ -120.28656043, 47.43647073 ], [ -120.28688288, 47.43659318 ], [ -120.28723225, 47.43672585 ], [ -120.28751745, 47.43675598 ], [ -120.28751722, 47.43679578 ], [ -120.28822468, 47.43686201 ], [ -120.28902964, 47.43725041 ], [ -120.289030047032071, 47.437250291333257 ], [ -120.289200344, 47.437193814 ], [ -120.289219356379164, 47.437195099801869 ], [ -120.28921939, 47.43719509 ], [ -120.28970804, 47.43722814 ], [ -120.29003207, 47.43711027 ], [ -120.29024463, 47.43675714 ], [ -120.29064811, 47.43645419 ], [ -120.29081964, 47.43635746 ], [ -120.29098058, 47.4362667 ], [ -120.29111422, 47.43619134 ], [ -120.29173032, 47.43609889 ], [ -120.29194356, 47.43606689 ], [ -120.29206511, 47.43602111 ], [ -120.29225932, 47.43602165 ], [ -120.29223877, 47.43522485 ], [ -120.292502567375024, 47.43522431792011 ], [ -120.298685627, 47.435211518 ], [ -120.302690542739768, 47.435203226729904 ], [ -120.30295857, 47.43520266 ], [ -120.30297969, 47.4351219 ], [ -120.30335812, 47.43511851 ], [ -120.30419188, 47.43511104 ], [ -120.3052934, 47.43510117 ], [ -120.30529340057879, 47.435101176741803 ], [ -120.30592199, 47.435095545 ], [ -120.305921991, 47.435095545 ], [ -120.305921992, 47.435095545 ], [ -120.305921993, 47.435095545 ], [ -120.305921994, 47.435095545 ], [ -120.305921995, 47.435095544 ], [ -120.305921996, 47.435095544 ], [ -120.305921997, 47.435095543 ], [ -120.305921997, 47.435095542 ], [ -120.305921998, 47.435095542 ], [ -120.305921998, 47.435095541 ], [ -120.305921999, 47.43509554 ], [ -120.305921999, 47.435095539 ], [ -120.305922, 47.435095538 ], [ -120.305922, 47.435095537 ], [ -120.305988881, 47.434686183 ], [ -120.306070475, 47.434345325 ], [ -120.306070475, 47.434345324 ], [ -120.306070475, 47.434345323 ], [ -120.306073951, 47.434131384 ], [ -120.306080846, 47.433698045 ], [ -120.306080846, 47.433698044 ], [ -120.306080845, 47.433698043 ], [ -120.306080845, 47.433698042 ], [ -120.306080845, 47.433698041 ], [ -120.30596045, 47.433359251 ], [ -120.305839063, 47.432971076 ], [ -120.305839063, 47.432971075 ], [ -120.305839062, 47.432971074 ], [ -120.305839062, 47.432971073 ], [ -120.305839061, 47.432971072 ], [ -120.305739509, 47.432851431 ], [ -120.305702389, 47.432626942 ], [ -120.305702389, 47.432626941 ], [ -120.305702389, 47.43262694 ], [ -120.305702388, 47.432626939 ], [ -120.30549296, 47.432278061 ], [ -120.305433902, 47.432163495 ], [ -120.305433901, 47.432163495 ], [ -120.305433901, 47.432163494 ], [ -120.3054339, 47.432163493 ], [ -120.305236038, 47.431979017 ], [ -120.305219415, 47.431957235 ], [ -120.305219414, 47.431957234 ], [ -120.305219414, 47.431957233 ], [ -120.305112411, 47.431865065 ], [ -120.30511241, 47.431865064 ], [ -120.305112409, 47.431865063 ], [ -120.305112408, 47.431865063 ], [ -120.305108227, 47.431863298 ], [ -120.304998248, 47.431816878 ], [ -120.304931533, 47.431718824 ], [ -120.304931532, 47.431718823 ], [ -120.304931531, 47.431718822 ], [ -120.30493153, 47.431718822 ], [ -120.30493153, 47.431718821 ], [ -120.304931529, 47.431718821 ], [ -120.304931528, 47.43171882 ], [ -120.304842053, 47.431692315 ], [ -120.304842052, 47.431692315 ], [ -120.304842051, 47.431692315 ], [ -120.30484205, 47.431692315 ], [ -120.304842049, 47.431692315 ], [ -120.304842048, 47.431692315 ], [ -120.304842047, 47.431692315 ], [ -120.304842046, 47.431692316 ], [ -120.304842045, 47.431692316 ], [ -120.304842045, 47.431692317 ], [ -120.304842044, 47.431692317 ], [ -120.304778636, 47.431747801 ], [ -120.304778635, 47.431747802 ], [ -120.304778634, 47.431747802 ], [ -120.304778634, 47.431747803 ], [ -120.304778633, 47.431747804 ], [ -120.304778633, 47.431747805 ], [ -120.304778633, 47.431747806 ], [ -120.304778633, 47.431747807 ], [ -120.304778632, 47.431747808 ], [ -120.304778632, 47.431747809 ], [ -120.304778633, 47.43174781 ], [ -120.304778633, 47.431747811 ], [ -120.30481365, 47.431873617 ], [ -120.304767398, 47.431978253 ], [ -120.304767398, 47.431978254 ], [ -120.304767397, 47.431978256 ], [ -120.304767397, 47.431978257 ], [ -120.304767397, 47.431978258 ], [ -120.304773842, 47.432279843 ], [ -120.304770687, 47.4325102 ], [ -120.304770687, 47.432510201 ], [ -120.304770687, 47.432510202 ], [ -120.304770688, 47.432510202 ], [ -120.304770688, 47.432510203 ], [ -120.304796433, 47.432581247 ], [ -120.304932405, 47.432892482 ], [ -120.304975456, 47.433018198 ], [ -120.304975456, 47.433018199 ], [ -120.304975457, 47.4330182 ], [ -120.304975457, 47.433018201 ], [ -120.304975458, 47.433018202 ], [ -120.304975459, 47.433018202 ], [ -120.304975459, 47.433018203 ], [ -120.30497546, 47.433018203 ], [ -120.305098282, 47.433093755 ], [ -120.305075812, 47.43317621 ], [ -120.305075812, 47.433176211 ], [ -120.305075812, 47.433176212 ], [ -120.305075812, 47.433176213 ], [ -120.305076185, 47.433192675 ], [ -120.305076185, 47.433192676 ], [ -120.305076186, 47.433192677 ], [ -120.305076186, 47.433192678 ], [ -120.305076186, 47.433192679 ], [ -120.305076187, 47.43319268 ], [ -120.305076187, 47.433192681 ], [ -120.305159648, 47.433317981 ], [ -120.305159649, 47.433317982 ], [ -120.30515965, 47.433317983 ], [ -120.30515965, 47.433317984 ], [ -120.305159651, 47.433317984 ], [ -120.305159652, 47.433317985 ], [ -120.305159653, 47.433317985 ], [ -120.305159654, 47.433317985 ], [ -120.305257276, 47.433349891 ], [ -120.305276491, 47.433492306 ], [ -120.305286431, 47.433579948 ], [ -120.305248771, 47.433706437 ], [ -120.305177557, 47.433778471 ], [ -120.305097508, 47.43381217 ], [ -120.304969293, 47.433862861 ], [ -120.304969292, 47.433862862 ], [ -120.304969291, 47.433862862 ], [ -120.30496929, 47.433862863 ], [ -120.304890041, 47.433934948 ], [ -120.30489004, 47.433934949 ], [ -120.304890039, 47.433934949 ], [ -120.304890039, 47.43393495 ], [ -120.304890038, 47.433934951 ], [ -120.304890038, 47.433934952 ], [ -120.304821071, 47.434111142 ], [ -120.304797903, 47.434160751 ], [ -120.304651811, 47.434129298 ], [ -120.304610572, 47.434091321 ], [ -120.304568322, 47.434004002 ], [ -120.304559779, 47.433982171 ], [ -120.304559779, 47.43398217 ], [ -120.304559778, 47.433982169 ], [ -120.304559777, 47.433982168 ], [ -120.304559777, 47.433982167 ], [ -120.30437864, 47.43382496 ], [ -120.304278287, 47.43366689 ], [ -120.304292251, 47.433562555 ], [ -120.304292251, 47.433562554 ], [ -120.304292251, 47.433562553 ], [ -120.304292251, 47.433562552 ], [ -120.304247514, 47.433360115 ], [ -120.304429792, 47.433193753 ], [ -120.304597577, 47.433104295 ], [ -120.304597578, 47.433104294 ], [ -120.304701054, 47.433031967 ], [ -120.304701055, 47.433031966 ], [ -120.304701056, 47.433031966 ], [ -120.304701056, 47.433031965 ], [ -120.304701057, 47.433031964 ], [ -120.304701057, 47.433031963 ], [ -120.304701058, 47.433031962 ], [ -120.304701058, 47.433031961 ], [ -120.304701058, 47.43303196 ], [ -120.304714153, 47.432889214 ], [ -120.304714153, 47.432889213 ], [ -120.304714153, 47.432889212 ], [ -120.304714153, 47.432889211 ], [ -120.304714153, 47.43288921 ], [ -120.304714152, 47.43288921 ], [ -120.304663123, 47.432769079 ], [ -120.304597438, 47.432609117 ], [ -120.304535285, 47.432457754 ], [ -120.304525057, 47.432359121 ], [ -120.304524945, 47.43235337 ], [ -120.304524629, 47.432337198 ], [ -120.304524629, 47.432337197 ], [ -120.304505946, 47.432222237 ], [ -120.304505945, 47.432222236 ], [ -120.304505945, 47.432222235 ], [ -120.304505945, 47.432222234 ], [ -120.304505944, 47.432222234 ], [ -120.304505944, 47.432222233 ], [ -120.304505943, 47.432222232 ], [ -120.304480044, 47.432194966 ], [ -120.304464648, 47.432178757 ], [ -120.304464647, 47.432178756 ], [ -120.304464646, 47.432178756 ], [ -120.304464645, 47.432178755 ], [ -120.304464644, 47.432178755 ], [ -120.304464643, 47.432178754 ], [ -120.304464642, 47.432178754 ], [ -120.304464641, 47.432178754 ], [ -120.30446464, 47.432178754 ], [ -120.304367816, 47.432185197 ], [ -120.304367815, 47.432185197 ], [ -120.304367814, 47.432185198 ], [ -120.304367813, 47.432185198 ], [ -120.304223589, 47.432241512 ], [ -120.304119641, 47.432291926 ], [ -120.304038279, 47.432265334 ], [ -120.304061681, 47.432226707 ], [ -120.304205781, 47.432164912 ], [ -120.304205782, 47.432164911 ], [ -120.304205783, 47.432164911 ], [ -120.304205784, 47.43216491 ], [ -120.304205785, 47.432164909 ], [ -120.304205785, 47.432164908 ], [ -120.304268665, 47.432082029 ], [ -120.304268666, 47.432082028 ], [ -120.304268666, 47.432082027 ], [ -120.304268667, 47.432082026 ], [ -120.304268667, 47.432082025 ], [ -120.304268667, 47.432082024 ], [ -120.304268667, 47.432082023 ], [ -120.304268667, 47.432082022 ], [ -120.304268667, 47.432082021 ], [ -120.304268666, 47.43208202 ], [ -120.304268666, 47.432082019 ], [ -120.304268665, 47.432082018 ], [ -120.304268665, 47.432082017 ], [ -120.304268664, 47.432082016 ], [ -120.304194349, 47.432005979 ], [ -120.30423179, 47.431868502 ], [ -120.30423179, 47.431868501 ], [ -120.30423179, 47.4318685 ], [ -120.30423179, 47.431868499 ], [ -120.30423179, 47.431868498 ], [ -120.30423179, 47.431868497 ], [ -120.304231789, 47.431868496 ], [ -120.304231789, 47.431868495 ], [ -120.30413062, 47.431672081 ], [ -120.304120102, 47.431557008 ], [ -120.304120102, 47.431557007 ], [ -120.304120102, 47.431557006 ], [ -120.304120102, 47.431557005 ], [ -120.304051958, 47.431393159 ], [ -120.304074088, 47.431294262 ], [ -120.304089908, 47.43127763 ], [ -120.304145014, 47.43121126 ], [ -120.304145014, 47.431211259 ], [ -120.304145015, 47.431211258 ], [ -120.304145015, 47.431211257 ], [ -120.304145016, 47.431211256 ], [ -120.304145016, 47.431211255 ], [ -120.304145016, 47.431211254 ], [ -120.304145016, 47.431211253 ], [ -120.304145016, 47.431211252 ], [ -120.304135656, 47.431151036 ], [ -120.304135655, 47.431151035 ], [ -120.304135655, 47.431151034 ], [ -120.304135655, 47.431151033 ], [ -120.304135654, 47.431151032 ], [ -120.304135653, 47.431151031 ], [ -120.304019517, 47.431009581 ], [ -120.303993433, 47.4309221 ], [ -120.303991558, 47.430834387 ], [ -120.303991558, 47.430834386 ], [ -120.303991558, 47.430834385 ], [ -120.303991558, 47.430834384 ], [ -120.303991558, 47.430834383 ], [ -120.303991557, 47.430834383 ], [ -120.303991557, 47.430834382 ], [ -120.303833004, 47.430600135 ], [ -120.303833004, 47.430600134 ], [ -120.303633978, 47.43036082 ], [ -120.303566074, 47.430207983 ], [ -120.303566074, 47.430207982 ], [ -120.303364136, 47.429831577 ], [ -120.303364135, 47.429831576 ], [ -120.303123106, 47.429515927 ], [ -120.30299008, 47.429341755 ], [ -120.302990079, 47.429341754 ], [ -120.302990079, 47.429341753 ], [ -120.302990078, 47.429341753 ], [ -120.302990077, 47.429341752 ], [ -120.302801979, 47.42923395 ], [ -120.302801978, 47.42923395 ], [ -120.302655179, 47.429169615 ], [ -120.302593114, 47.428912499 ], [ -120.30258432, 47.428879657 ], [ -120.302583281, 47.428830339 ], [ -120.302583281, 47.428830338 ], [ -120.30258328, 47.428830337 ], [ -120.30258328, 47.428830336 ], [ -120.30258328, 47.428830335 ], [ -120.302583279, 47.428830334 ], [ -120.302583279, 47.428830333 ], [ -120.302583278, 47.428830333 ], [ -120.302533533, 47.428770498 ], [ -120.302533532, 47.428770497 ], [ -120.302533531, 47.428770496 ], [ -120.30253353, 47.428770496 ], [ -120.302304403, 47.42863569 ], [ -120.302304402, 47.42863569 ], [ -120.302206478, 47.428587308 ], [ -120.302055544, 47.428331067 ], [ -120.302055543, 47.428331067 ], [ -120.30179651, 47.427927859 ], [ -120.301796509, 47.427927859 ], [ -120.301796509, 47.427927858 ], [ -120.301432342, 47.427520172 ], [ -120.301066618, 47.427041241 ], [ -120.300776447, 47.426693179 ], [ -120.300442596, 47.426191966 ], [ -120.300442596, 47.426191965 ], [ -120.300142974, 47.425778155 ], [ -120.299859214, 47.425353238 ], [ -120.299609086, 47.424988294 ], [ -120.299483498, 47.424781146 ], [ -120.299483497, 47.424781145 ], [ -120.299483496, 47.424781145 ], [ -120.299483496, 47.424781144 ], [ -120.299483495, 47.424781143 ], [ -120.299376836, 47.424705442 ], [ -120.299376835, 47.424705441 ], [ -120.299376834, 47.424705441 ], [ -120.299376833, 47.424705441 ], [ -120.299376832, 47.42470544 ], [ -120.299376831, 47.42470544 ], [ -120.29937683, 47.42470544 ], [ -120.299376829, 47.42470544 ], [ -120.299376828, 47.42470544 ], [ -120.299376827, 47.42470544 ], [ -120.299376826, 47.424705441 ], [ -120.299376825, 47.424705442 ], [ -120.299376824, 47.424705442 ], [ -120.299376823, 47.424705443 ], [ -120.299376822, 47.424705444 ], [ -120.299345467, 47.424749636 ], [ -120.299329797, 47.424771755 ], [ -120.299329796, 47.424771756 ], [ -120.299329796, 47.424771757 ], [ -120.299299108, 47.42484882 ], [ -120.299217193, 47.424830123 ], [ -120.299217192, 47.424830123 ], [ -120.299217191, 47.424830123 ], [ -120.299161124, 47.424817325 ], [ -120.299092866, 47.424647991 ], [ -120.299092866, 47.42464799 ], [ -120.298949301, 47.424353253 ], [ -120.2989493, 47.424353252 ], [ -120.2989493, 47.424353251 ], [ -120.29893166, 47.424331572 ], [ -120.298708977, 47.424070502 ], [ -120.298501097, 47.42379287 ], [ -120.298316779, 47.423482139 ], [ -120.298204307, 47.423132252 ], [ -120.29811565, 47.422760188 ], [ -120.29811565, 47.422760187 ], [ -120.298036516, 47.422459375 ], [ -120.297936888, 47.421945747 ], [ -120.297936887, 47.421945747 ], [ -120.297936887, 47.421945746 ], [ -120.297936887, 47.421945745 ], [ -120.297936713, 47.421944846 ], [ -120.297936712, 47.421944845 ], [ -120.297830458, 47.421507145 ], [ -120.297697913, 47.420971013 ], [ -120.297626558, 47.420566943 ], [ -120.297644389, 47.420351821 ], [ -120.297644389, 47.42035182 ], [ -120.297652938, 47.419995249 ], [ -120.297708709, 47.419577885 ], [ -120.297822411, 47.419225715 ], [ -120.297911958, 47.418879326 ], [ -120.297911958, 47.418879325 ], [ -120.297911959, 47.418879324 ], [ -120.297911959, 47.418879323 ], [ -120.297911958, 47.418879322 ], [ -120.297911958, 47.418879321 ], [ -120.297823886, 47.418534681 ], [ -120.297823886, 47.41853468 ], [ -120.297823885, 47.418534679 ], [ -120.297823885, 47.418534678 ], [ -120.297823884, 47.418534677 ], [ -120.297600222, 47.418273674 ], [ -120.297583589, 47.418251911 ], [ -120.297583588, 47.418251911 ], [ -120.297583588, 47.41825191 ], [ -120.297320393, 47.418029672 ], [ -120.297320392, 47.418029671 ], [ -120.297320391, 47.418029671 ], [ -120.29732039, 47.41802967 ], [ -120.297320389, 47.41802967 ], [ -120.297320388, 47.41802967 ], [ -120.29727989, 47.4180246 ], [ -120.297156665, 47.417927146 ], [ -120.296818674, 47.417606946 ], [ -120.296677527, 47.41742736 ], [ -120.296677527, 47.417427359 ], [ -120.296677526, 47.417427359 ], [ -120.296463629, 47.417243045 ], [ -120.296158318, 47.416938995 ], [ -120.296158317, 47.416938994 ], [ -120.296158316, 47.416938994 ], [ -120.296158315, 47.416938993 ], [ -120.29585635, 47.41679392 ], [ -120.295863277, 47.416739035 ], [ -120.29592696, 47.416694524 ], [ -120.296014969, 47.416655264 ], [ -120.29601497, 47.416655263 ], [ -120.296014971, 47.416655263 ], [ -120.296014972, 47.416655262 ], [ -120.296014973, 47.416655261 ], [ -120.296014973, 47.41665526 ], [ -120.296014974, 47.416655259 ], [ -120.296014974, 47.416655258 ], [ -120.296045397, 47.416567184 ], [ -120.296045397, 47.416567183 ], [ -120.296045398, 47.416567182 ], [ -120.296045398, 47.416567181 ], [ -120.296045398, 47.41656718 ], [ -120.296045398, 47.416567179 ], [ -120.296045397, 47.416567178 ], [ -120.296045397, 47.416567177 ], [ -120.295967635, 47.416326658 ], [ -120.295846769, 47.415960413 ], [ -120.295814254, 47.415571336 ], [ -120.295813338, 47.4155275 ], [ -120.295813338, 47.415527499 ], [ -120.295789613, 47.415171243 ], [ -120.295789612, 47.415171242 ], [ -120.295744729, 47.414957797 ], [ -120.295744729, 47.414957796 ], [ -120.295744729, 47.414957795 ], [ -120.295676862, 47.41480489 ], [ -120.295676862, 47.414804889 ], [ -120.295483559, 47.414450343 ], [ -120.295483559, 47.414450342 ], [ -120.295483558, 47.414450342 ], [ -120.295483557, 47.414450341 ], [ -120.295318336, 47.414276533 ], [ -120.295125409, 47.413938417 ], [ -120.294947458, 47.413545345 ], [ -120.294903224, 47.41336478 ], [ -120.294903224, 47.413364779 ], [ -120.294903223, 47.413364778 ], [ -120.29478543, 47.413141109 ], [ -120.294664476, 47.412769375 ], [ -120.294558057, 47.412320717 ], [ -120.294558057, 47.412320716 ], [ -120.294411617, 47.411888921 ], [ -120.294392197, 47.411735569 ], [ -120.294443929, 47.411510202 ], [ -120.294443929, 47.411510201 ], [ -120.294443929, 47.4115102 ], [ -120.294443929, 47.411510199 ], [ -120.294428088, 47.411142914 ], [ -120.294413532, 47.410835917 ], [ -120.294413532, 47.410835916 ], [ -120.294413532, 47.410835915 ], [ -120.29432615, 47.41052418 ], [ -120.29432615, 47.410524179 ], [ -120.294317513, 47.41049684 ], [ -120.294317512, 47.410496839 ], [ -120.294317512, 47.410496838 ], [ -120.294317511, 47.410496837 ], [ -120.294209042, 47.410333388 ], [ -120.294198986, 47.410240261 ], [ -120.294278584, 47.410184621 ], [ -120.294278585, 47.410184621 ], [ -120.294278586, 47.41018462 ], [ -120.294278586, 47.410184619 ], [ -120.294278587, 47.410184618 ], [ -120.294278588, 47.410184617 ], [ -120.294301436, 47.410118569 ], [ -120.294301437, 47.410118568 ], [ -120.294301437, 47.410118567 ], [ -120.294301437, 47.410118566 ], [ -120.294301437, 47.410118565 ], [ -120.294296316, 47.410059919 ], [ -120.294296316, 47.410059918 ], [ -120.294223349, 47.409483183 ], [ -120.294223349, 47.409483181 ], [ -120.294125914, 47.409078308 ], [ -120.294062433, 47.408749891 ], [ -120.294014062, 47.408371945 ], [ -120.293966401, 47.40802689 ], [ -120.2939664, 47.408026889 ], [ -120.2939664, 47.408026888 ], [ -120.293853861, 47.407671552 ], [ -120.293793849, 47.407507619 ], [ -120.293797381, 47.407293699 ], [ -120.29379738, 47.407293698 ], [ -120.29379738, 47.407293697 ], [ -120.29379738, 47.407293696 ], [ -120.29379738, 47.407293695 ], [ -120.293651699, 47.406894775 ], [ -120.293529818, 47.406479216 ], [ -120.293529817, 47.406479216 ], [ -120.293529817, 47.406479215 ], [ -120.29332687, 47.406047987 ], [ -120.293325925, 47.406004105 ], [ -120.293325925, 47.406004104 ], [ -120.293325925, 47.406004103 ], [ -120.293325925, 47.406004102 ], [ -120.293205465, 47.405654317 ], [ -120.293205465, 47.405654316 ], [ -120.292994697, 47.40523411 ], [ -120.292842623, 47.404917548 ], [ -120.292842622, 47.404917547 ], [ -120.292842621, 47.404917546 ], [ -120.292826044, 47.404895761 ], [ -120.292640662, 47.404530165 ], [ -120.292504023, 47.404180527 ], [ -120.292401506, 47.403816674 ], [ -120.292401505, 47.403816674 ], [ -120.292401505, 47.403816673 ], [ -120.292401505, 47.403816672 ], [ -120.292401505, 47.403816671 ], [ -120.292373047, 47.403715667 ], [ -120.292373047, 47.403715666 ], [ -120.292373046, 47.403715665 ], [ -120.292373046, 47.403715664 ], [ -120.292272718, 47.403552151 ], [ -120.292203876, 47.403349918 ], [ -120.292203876, 47.403349917 ], [ -120.292042551, 47.402978604 ], [ -120.291998514, 47.402839567 ], [ -120.291998514, 47.402839566 ], [ -120.291700259, 47.402066109 ], [ -120.291700259, 47.402066108 ], [ -120.291624001, 47.401896879 ], [ -120.291624001, 47.401896878 ], [ -120.291624, 47.401896877 ], [ -120.291399884, 47.40160842 ], [ -120.291399883, 47.40160842 ], [ -120.291126394, 47.401276626 ], [ -120.290909906, 47.400966173 ], [ -120.290798104, 47.400643723 ], [ -120.290798104, 47.400643722 ], [ -120.290798104, 47.400643721 ], [ -120.290562682, 47.400201831 ], [ -120.290562682, 47.40020183 ], [ -120.290329219, 47.399853146 ], [ -120.290329218, 47.399853145 ], [ -120.290047447, 47.399510459 ], [ -120.289798661, 47.399200323 ], [ -120.28979866, 47.399200322 ], [ -120.289798659, 47.399200322 ], [ -120.289261539, 47.398721985 ], [ -120.289131351, 47.398578336 ], [ -120.28913135, 47.398578335 ], [ -120.28913135, 47.398578334 ], [ -120.289131349, 47.398578334 ], [ -120.289131348, 47.398578333 ], [ -120.289131347, 47.398578333 ], [ -120.289131346, 47.398578333 ], [ -120.289131345, 47.398578333 ], [ -120.289131344, 47.398578332 ], [ -120.289131343, 47.398578332 ], [ -120.289131342, 47.398578333 ], [ -120.289131341, 47.398578333 ], [ -120.28913134, 47.398578333 ], [ -120.289131339, 47.398578334 ], [ -120.289127531935492, 47.39858037110676 ], [ -120.28912754, 47.39858038 ], [ -120.28903236, 47.39863131 ] ], [ [ -120.270999478308028, 47.435134799898343 ], [ -120.270999460068339, 47.435135590039451 ], [ -120.27099947, 47.43513559 ], [ -120.270999478308028, 47.435134799898343 ] ] ], [ [ [ -120.21812811, 47.42277373 ], [ -120.21658385, 47.42284977 ], [ -120.21477604, 47.42253697 ], [ -120.21308835, 47.42297149 ], [ -120.20885033, 47.42173265 ], [ -120.20773982, 47.42164936 ], [ -120.20774933, 47.42042046 ], [ -120.20244103, 47.42040393 ], [ -120.19841243, 47.41629044 ], [ -120.1984491, 47.41133276 ], [ -120.19710861, 47.41133247 ], [ -120.19711015, 47.40999005 ], [ -120.19057877, 47.4099998 ], [ -120.18815563, 47.41000338 ], [ -120.18634096, 47.41000626 ], [ -120.18635248, 47.40907372 ], [ -120.18634938, 47.40862662 ], [ -120.18622991, 47.40862652 ], [ -120.18096772, 47.40864578 ], [ -120.18099876, 47.40603366 ], [ -120.180999, 47.40593771 ], [ -120.18636662, 47.40593242 ], [ -120.18636696, 47.40585386 ], [ -120.18637956, 47.40412452 ], [ -120.18639276, 47.40231265 ], [ -120.18640596, 47.40050092 ], [ -120.18641856, 47.39877145 ], [ -120.18641923, 47.39868021 ], [ -120.19020241, 47.39868144 ], [ -120.19060068, 47.39875389 ], [ -120.19090248, 47.39884096 ], [ -120.19117335, 47.39897257 ], [ -120.19136956, 47.3991367 ], [ -120.19154812, 47.39932161 ], [ -120.19166967, 47.39951827 ], [ -120.19172985, 47.39971773 ], [ -120.19175646, 47.39992514 ], [ -120.19446204, 47.39993525 ], [ -120.19525242, 47.39993824 ], [ -120.19655256, 47.39994302 ], [ -120.19713802, 47.39994523 ], [ -120.1971399, 47.3994938 ], [ -120.19714745, 47.39768419 ], [ -120.19714946, 47.39732825 ], [ -120.19715302, 47.39634086 ], [ -120.19715897, 47.39499136 ], [ -120.19717427, 47.39139247 ], [ -120.19951952, 47.39139033 ], [ -120.19982231, 47.39138997 ], [ -120.19996361, 47.39138988 ], [ -120.20247236, 47.39138765 ], [ -120.20512073, 47.39138527 ], [ -120.20542318, 47.39138467 ], [ -120.20570645, 47.39138515 ], [ -120.2077692, 47.39136432 ], [ -120.21836514, 47.39139758 ], [ -120.21838523, 47.3951912 ], [ -120.21839309, 47.39696064 ], [ -120.21840685, 47.39875888 ], [ -120.21842345, 47.40232061 ], [ -120.21843831, 47.40467903 ], [ -120.21844595, 47.40591409 ], [ -120.21856945, 47.40591371 ], [ -120.22109165, 47.40591453 ], [ -120.22109034, 47.40603813 ], [ -120.22108872, 47.40699491 ], [ -120.22108658, 47.40772803 ], [ -120.22108438, 47.40886095 ], [ -120.22108252, 47.40954129 ], [ -120.22107982, 47.41044758 ], [ -120.2210788, 47.41135479 ], [ -120.22107609, 47.41226107 ], [ -120.22000719, 47.41226056 ], [ -120.21969882, 47.41208368 ], [ -120.21916778, 47.41188158 ], [ -120.21884902, 47.41176041 ], [ -120.21860534, 47.41169996 ], [ -120.21841484, 47.4116698 ], [ -120.21841392, 47.41181282 ], [ -120.21841279, 47.41202688 ], [ -120.21840646, 47.41316664 ], [ -120.2172231, 47.41316697 ], [ -120.21722495, 47.41453795 ], [ -120.21841776, 47.41453879 ], [ -120.21842585, 47.41555956 ], [ -120.21846529, 47.42041209 ], [ -120.22104713, 47.42041585 ], [ -120.22104635, 47.42049837 ], [ -120.22104455, 47.42176768 ], [ -120.21843474, 47.42266796 ], [ -120.21812811, 47.42277373 ] ], [ [ -120.21842173, 47.41052022 ], [ -120.21829989, 47.41052061 ], [ -120.21351856, 47.41052171 ], [ -120.21389875, 47.41073077 ], [ -120.21498699, 47.41132927 ], [ -120.21516896, 47.41134822 ], [ -120.21550567, 47.41138331 ], [ -120.21569874, 47.41140343 ], [ -120.21590191, 47.41142472 ], [ -120.21629108, 47.41146542 ], [ -120.21720769, 47.41156109 ], [ -120.21841484, 47.4116698 ], [ -120.21842173, 47.41052022 ] ] ], [ [ [ -120.282490615, 47.424284451 ], [ -120.282490456, 47.424557122 ], [ -120.282088727, 47.424561079 ], [ -120.282088887, 47.424288407 ], [ -120.282490615, 47.424284451 ] ] ], [ [ [ -120.318441693, 47.473465858 ], [ -120.318591525, 47.473269767 ], [ -120.318662649, 47.472996211 ], [ -120.318707227, 47.472788057 ], [ -120.318726046, 47.472413284 ], [ -120.318631041, 47.471966941 ], [ -120.31870062, 47.471756926 ], [ -120.318887549, 47.470955003 ], [ -120.318879213, 47.470891743 ], [ -120.318905414, 47.470605215 ], [ -120.318913185, 47.470263876 ], [ -120.318957479, 47.470056128 ], [ -120.318968656, 47.469944846 ], [ -120.319033521, 47.469765707 ], [ -120.319026429, 47.469493227 ], [ -120.319013892, 47.469336629 ], [ -120.319044663, 47.46929039 ], [ -120.319191423, 47.469279959 ], [ -120.319357086, 47.469152559 ], [ -120.319459921, 47.468910841 ], [ -120.31955067, 47.468417083 ], [ -120.319535404, 47.468193265 ], [ -120.319528068, 47.46795467 ], [ -120.319384175, 47.467441105 ], [ -120.319348835, 47.46712568 ], [ -120.319457106, 47.466640326 ], [ -120.319594667, 47.466218203 ], [ -120.31965814, 47.465973297 ], [ -120.319819295, 47.465547215 ], [ -120.320016865, 47.465115111 ], [ -120.320116136, 47.464697343 ], [ -120.320351585, 47.464194326 ], [ -120.320459788, 47.463926971 ], [ -120.320582253, 47.463779173 ], [ -120.32076031, 47.463634834 ], [ -120.320874922, 47.463415167 ], [ -120.321046886, 47.463023647 ], [ -120.321256865, 47.462770087 ], [ -120.321483009, 47.462518155 ], [ -120.321767125, 47.46235298 ], [ -120.32172531, 47.462223036 ], [ -120.321720743, 47.462056707 ], [ -120.321754968, 47.461869499 ], [ -120.321852043, 47.46171655 ], [ -120.321937612, 47.461652047 ], [ -120.322022102, 47.461649212 ], [ -120.322387133, 47.461638338 ], [ -120.322491946, 47.461631392 ], [ -120.322575953, 47.461578222 ], [ -120.322634083, 47.461429074 ], [ -120.322608204, 47.461333098 ], [ -120.322674641, 47.461199219 ], [ -120.322878413, 47.460852112 ], [ -120.323080446, 47.460345568 ], [ -120.323224812, 47.460063597 ], [ -120.323439149, 47.459773896 ], [ -120.323618939, 47.459346274 ], [ -120.323825027, 47.458865026 ], [ -120.323965451, 47.458672426 ], [ -120.323991242, 47.458553031 ], [ -120.324027308, 47.458386068 ], [ -120.324011105, 47.458204695 ], [ -120.324039411, 47.457892186 ], [ -120.324064396, 47.457812731 ], [ -120.324026765, 47.458553861 ], [ -120.323113554, 47.476530255 ], [ -120.317712101, 47.47640394 ], [ -120.317712166, 47.476403646 ], [ -120.318083306, 47.475642723 ], [ -120.318120266, 47.47509545 ], [ -120.318217881, 47.474774344 ], [ -120.31814912, 47.474351839 ], [ -120.318264545, 47.47395342 ], [ -120.318318121, 47.473679838 ], [ -120.318441693, 47.473465858 ] ] ], [ [ [ -120.230526, 47.628092 ], [ -120.223878, 47.627931 ], [ -120.224117, 47.623438 ], [ -120.224119, 47.623438 ], [ -120.224121, 47.623402 ], [ -120.230767, 47.623563 ], [ -120.23053, 47.628056 ], [ -120.230528, 47.628056 ], [ -120.230526, 47.628092 ] ] ], [ [ [ -120.13742946, 47.36789437 ], [ -120.1375996, 47.36795277 ], [ -120.13737286, 47.36805497 ], [ -120.13724419, 47.36807877 ], [ -120.13703406, 47.36804203 ], [ -120.13705786, 47.36793444 ], [ -120.13742946, 47.36789437 ] ] ], [ [ [ -120.14164966, 47.36823817 ], [ -120.14173026, 47.36826723 ], [ -120.14169, 47.36833823 ], [ -120.1414154, 47.36835843 ], [ -120.1413188, 47.36838744 ], [ -120.14118966, 47.36838437 ], [ -120.1411492, 47.36833823 ], [ -120.1411814, 47.36827597 ], [ -120.14133466, 47.36821237 ], [ -120.141424, 47.36820563 ], [ -120.14164966, 47.36823817 ] ] ], [ [ [ -120.14034227, 47.36832257 ], [ -120.140367, 47.36839963 ], [ -120.1403104, 47.36848363 ], [ -120.14018866, 47.36851223 ], [ -120.13993886, 47.36850597 ], [ -120.13977766, 47.36848857 ], [ -120.13969626, 47.36844157 ], [ -120.1398502, 47.36835083 ], [ -120.13993086, 47.36827177 ], [ -120.14027726, 47.36829383 ], [ -120.14034227, 47.36832257 ] ] ], [ [ [ -120.13324919, 47.36871237 ], [ -120.13417162, 47.36887069 ], [ -120.1334054, 47.3687798 ], [ -120.13306728, 47.36872863 ], [ -120.13295496, 47.36871164 ], [ -120.13310486, 47.36871203 ], [ -120.13324919, 47.36871237 ] ] ], [ [ [ -120.1374935, 47.3687109 ], [ -120.13745798, 47.36877891 ], [ -120.13726794, 47.36893293 ], [ -120.13720318, 47.36894958 ], [ -120.13707482, 47.36898259 ], [ -120.13716266, 47.36892703 ], [ -120.13729107, 47.36888983 ], [ -120.1373478, 47.36885523 ], [ -120.1374368, 47.36868183 ], [ -120.13753124, 47.36863862 ], [ -120.1374935, 47.3687109 ] ] ], [ [ [ -120.13667046, 47.36891917 ], [ -120.13668578, 47.36892723 ], [ -120.13648662, 47.36894048 ], [ -120.13644548, 47.36900062 ], [ -120.13640605, 47.36902407 ], [ -120.1364438, 47.36894064 ], [ -120.13667046, 47.36891917 ] ] ], [ [ [ -120.13696347, 47.3690031 ], [ -120.1369846, 47.36900363 ], [ -120.137058, 47.36898692 ], [ -120.1369775, 47.36900762 ], [ -120.13696347, 47.3690031 ] ] ], [ [ [ -120.1393812, 47.36915803 ], [ -120.13927865, 47.36918624 ], [ -120.13927598, 47.36903432 ], [ -120.13900838, 47.36896225 ], [ -120.1392436, 47.36898803 ], [ -120.13941386, 47.36902837 ], [ -120.1394214, 47.36910504 ], [ -120.1393812, 47.36915803 ] ] ], [ [ [ -120.13994883, 47.3689738 ], [ -120.13973464, 47.3690899 ], [ -120.13975838, 47.36916905 ], [ -120.13990854, 47.36926722 ], [ -120.139838, 47.36929503 ], [ -120.1398408, 47.36929097 ], [ -120.1396152, 47.36918183 ], [ -120.1396076, 47.36909163 ], [ -120.139664, 47.36902997 ], [ -120.13980106, 47.36898403 ], [ -120.13995956, 47.36896864 ], [ -120.13994883, 47.3689738 ] ] ], [ [ [ -120.13852762, 47.36926848 ], [ -120.13854429, 47.36926235 ], [ -120.13854718, 47.36928147 ], [ -120.13852762, 47.36926848 ] ] ], [ [ [ -120.13945346, 47.36935337 ], [ -120.13974505, 47.36933168 ], [ -120.13968776, 47.36935426 ], [ -120.13918949, 47.36942872 ], [ -120.13877615, 47.36943347 ], [ -120.13867221, 47.36936447 ], [ -120.13888867, 47.36941563 ], [ -120.13907366, 47.36942037 ], [ -120.13945346, 47.36935337 ] ] ], [ [ [ -120.12424746, 47.36569697 ], [ -120.12444939, 47.36589084 ], [ -120.12468359, 47.36602263 ], [ -120.1247562, 47.36594804 ], [ -120.12496599, 47.36595337 ], [ -120.12514339, 47.36590397 ], [ -120.125337, 47.36598524 ], [ -120.12572479, 47.36629177 ], [ -120.12575254, 47.36632783 ], [ -120.12577815, 47.36642258 ], [ -120.12584154, 47.36645882 ], [ -120.12587806, 47.36665577 ], [ -120.12601539, 47.36678064 ], [ -120.1261884, 47.36688043 ], [ -120.12765766, 47.36753277 ], [ -120.12785139, 47.36766804 ], [ -120.12815806, 47.36781983 ], [ -120.12856086, 47.36799177 ], [ -120.12998086, 47.36835597 ], [ -120.13059426, 47.36851077 ], [ -120.13074226, 47.36855384 ], [ -120.13093306, 47.36860917 ], [ -120.1314656, 47.36871703 ], [ -120.13155883, 47.36872422 ], [ -120.13040718, 47.36877269 ], [ -120.1299684, 47.36866478 ], [ -120.12934705, 47.36848876 ], [ -120.12920497, 47.3684446 ], [ -120.12912868, 47.36842089 ], [ -120.12905352, 47.36839578 ], [ -120.12895883, 47.36836272 ], [ -120.12849102, 47.36819938 ], [ -120.12842996, 47.36817806 ], [ -120.12833772, 47.36814071 ], [ -120.12821542, 47.36809391 ], [ -120.12792037, 47.3679735 ], [ -120.12786097, 47.36794769 ], [ -120.12773727, 47.36789761 ], [ -120.12731232, 47.36770385 ], [ -120.12701922, 47.36755887 ], [ -120.12696175, 47.36753407 ], [ -120.12315966, 47.36557914 ], [ -120.12311231, 47.36791846 ], [ -120.12310937, 47.36818797 ], [ -120.12309241, 47.3697424 ], [ -120.12308204, 47.3706933 ], [ -120.12309204, 47.37098699 ], [ -120.12310084, 47.37124532 ], [ -120.12307757, 47.37156119 ], [ -120.12307735, 47.37174081 ], [ -120.12337466, 47.37237316 ], [ -120.12357792, 47.37271897 ], [ -120.12388755, 47.3731395 ], [ -120.12404036, 47.37331035 ], [ -120.12411922, 47.3733809 ], [ -120.12450647, 47.37372734 ], [ -120.12464178, 47.37402392 ], [ -120.1246988, 47.37445011 ], [ -120.12593188, 47.3760722 ], [ -120.12664844, 47.37701476 ], [ -120.12646819, 47.37691343 ], [ -120.12572513, 47.37644498 ], [ -120.12382923, 47.37361573 ], [ -120.12336579, 47.37289777 ], [ -120.12308608, 47.37226151 ], [ -120.12244588, 47.37019001 ], [ -120.12231707, 47.36990561 ], [ -120.12210775, 47.3695917 ], [ -120.12139386, 47.36872693 ], [ -120.12109195, 47.36828843 ], [ -120.12056892, 47.36721135 ], [ -120.12038996, 47.36674447 ], [ -120.12030217, 47.36651046 ], [ -120.12026191, 47.36640318 ], [ -120.12020762, 47.36613936 ], [ -120.12021106, 47.3660802 ], [ -120.12022154, 47.36588307 ], [ -120.12030925, 47.36560577 ], [ -120.12048597, 47.36534316 ], [ -120.12061515, 47.36519348 ], [ -120.12085892, 47.36491098 ], [ -120.12126, 47.36435255 ], [ -120.12135558, 47.36424597 ], [ -120.12142219, 47.36429397 ], [ -120.12214886, 47.36473523 ], [ -120.12262479, 47.36498577 ], [ -120.12285359, 47.36510404 ], [ -120.12387666, 47.36563357 ], [ -120.12417499, 47.36567257 ], [ -120.12424746, 47.36569697 ] ] ], [ [ [ -120.14355241, 47.3784726 ], [ -120.14354247, 47.37885294 ], [ -120.14759615, 47.37884128 ], [ -120.14765964, 47.38047986 ], [ -120.14766123, 47.38052099 ], [ -120.14766443, 47.38060362 ], [ -120.14896538, 47.38060204 ], [ -120.14902557, 47.38060197 ], [ -120.14908646, 47.38060184 ], [ -120.15035819, 47.38059926 ], [ -120.15036163, 47.38235591 ], [ -120.1490294, 47.38235599 ], [ -120.14633675, 47.3823561 ], [ -120.14587952, 47.38235611 ], [ -120.14503072, 47.38235613 ], [ -120.14366576, 47.38235604 ], [ -120.14366656, 47.38184193 ], [ -120.1436688, 47.38061215 ], [ -120.14366876, 47.38056737 ], [ -120.14306432, 47.38056803 ], [ -120.14179966, 47.38056991 ], [ -120.14103207, 47.38057059 ], [ -120.14052561, 47.3805718 ], [ -120.13963298, 47.38057278 ], [ -120.13860425, 47.380574 ], [ -120.13837476, 47.38057475 ], [ -120.13700892, 47.38057603 ], [ -120.1358045, 47.3805783 ], [ -120.13305856, 47.38058135 ], [ -120.13305994, 47.38000668 ], [ -120.13700942, 47.37994241 ], [ -120.13761098, 47.37993261 ], [ -120.13785716, 47.37976985 ], [ -120.13922518, 47.3788654 ], [ -120.13963353, 47.37886315 ], [ -120.14079681, 47.37885675 ], [ -120.14059283, 47.37848464 ], [ -120.14198874, 47.37847897 ], [ -120.14283072, 47.37847554 ], [ -120.14321531, 47.37847398 ], [ -120.14355241, 47.3784726 ] ] ], [ [ [ -120.08220392, 47.64183456 ], [ -120.08236705, 47.64183335 ], [ -120.08230395, 47.6408517 ], [ -120.08250983, 47.64084469 ], [ -120.08488685, 47.64085217 ], [ -120.08482242, 47.64916904 ], [ -120.08482485, 47.65011499 ], [ -120.08478607, 47.65283688 ], [ -120.08240864, 47.65279456 ], [ -120.08213672, 47.65278229 ], [ -120.08209968, 47.64183534 ], [ -120.08220392, 47.64183456 ] ] ], [ [ [ -120.06074674, 47.64940014 ], [ -120.05883838, 47.64939329 ], [ -120.05885411, 47.6509101 ], [ -120.06076648, 47.65093201 ], [ -120.06076685, 47.65097584 ], [ -120.06078211, 47.65279521 ], [ -120.06080475, 47.65549339 ], [ -120.06081242, 47.65640815 ], [ -120.0696005, 47.65644063 ], [ -120.06979892, 47.65644135 ], [ -120.0697969, 47.65635715 ], [ -120.06978008, 47.65565274 ], [ -120.06967492, 47.65565227 ], [ -120.06960151, 47.65565193 ], [ -120.06639558, 47.65562403 ], [ -120.06637812, 47.65347534 ], [ -120.06760482, 47.65347405 ], [ -120.06802523, 47.6534742 ], [ -120.07006465, 47.65347489 ], [ -120.0711678, 47.65347525 ], [ -120.07116795, 47.6529258 ], [ -120.07127603, 47.65292493 ], [ -120.07148626, 47.65292323 ], [ -120.07685516, 47.65287979 ], [ -120.076867, 47.65635603 ], [ -120.07686491, 47.65644854 ], [ -120.07149057, 47.65647211 ], [ -120.06960236, 47.65647937 ], [ -120.06605875, 47.65645387 ], [ -120.06076419, 47.6564359 ], [ -120.05011255, 47.65639899 ], [ -120.05011222, 47.65631744 ], [ -120.05010102, 47.65543826 ], [ -120.05383862, 47.65544976 ], [ -120.05416318, 47.65545077 ], [ -120.05787154, 47.65546473 ], [ -120.05858205, 47.65526553 ], [ -120.05866471, 47.65466312 ], [ -120.05843288, 47.65390361 ], [ -120.05863114, 47.6532714 ], [ -120.05984857, 47.65279314 ], [ -120.05808289, 47.65278781 ], [ -120.05807471, 47.65096831 ], [ -120.05806968, 47.65072255 ], [ -120.05806341, 47.64932841 ], [ -120.05806637, 47.64914916 ], [ -120.05803381, 47.64186445 ], [ -120.06069301, 47.64187484 ], [ -120.06069321, 47.64196529 ], [ -120.06069754, 47.64387636 ], [ -120.06070463, 47.64467234 ], [ -120.06071171, 47.64546735 ], [ -120.06071366, 47.64568666 ], [ -120.06072099, 47.64650908 ], [ -120.06072654, 47.64713197 ], [ -120.06072783, 47.64727668 ], [ -120.06072978, 47.64749595 ], [ -120.06073686, 47.648291 ], [ -120.06074324, 47.64900741 ], [ -120.06074469, 47.64916951 ], [ -120.06074674, 47.64940014 ] ] ], [ [ [ -119.68840145, 48.01779977 ], [ -119.68880041, 48.01763717 ], [ -119.6884668, 48.01728536 ], [ -119.68843842, 48.01723193 ], [ -119.68839789, 48.01711678 ], [ -119.68800428, 48.01599848 ], [ -119.68795434, 48.01585658 ], [ -119.68821004, 48.01531527 ], [ -119.69044773, 48.01382281 ], [ -119.69043316, 48.01401878 ], [ -119.69042237, 48.01551907 ], [ -119.69041043, 48.01751173 ], [ -119.6904046, 48.01831564 ], [ -119.69039719, 48.01901631 ], [ -119.6882525, 48.01900425 ], [ -119.68791542, 48.01880553 ], [ -119.68782995, 48.01875515 ], [ -119.68815589, 48.01868953 ], [ -119.68860189, 48.01859974 ], [ -119.68818656, 48.01828987 ], [ -119.68794085, 48.0173555 ], [ -119.68840145, 48.01779977 ] ] ], [ [ [ -119.68545394, 48.01856891 ], [ -119.68555252, 48.01863724 ], [ -119.68571649, 48.01875089 ], [ -119.68567867, 48.01875346 ], [ -119.68551527, 48.01864385 ], [ -119.68545394, 48.01856891 ] ] ], [ [ [ -119.68573011, 48.01874997 ], [ -119.6857653, 48.01871525 ], [ -119.68583635, 48.01864515 ], [ -119.68585188, 48.01864397 ], [ -119.68576034, 48.01874792 ], [ -119.68573011, 48.01874997 ] ] ], [ [ [ -119.68599983, 48.01863277 ], [ -119.68607615, 48.01876957 ], [ -119.68614088, 48.0189282 ], [ -119.68618794, 48.01904354 ], [ -119.6862404, 48.01907513 ], [ -119.68647495, 48.01902792 ], [ -119.68738122, 48.01984954 ], [ -119.68815725, 48.02046114 ], [ -119.68905593, 48.02126801 ], [ -119.68965242, 48.021668 ], [ -119.68998745, 48.02179964 ], [ -119.69014142, 48.0217796 ], [ -119.6901677, 48.02149568 ], [ -119.69024037, 48.02142469 ], [ -119.69029786, 48.02140539 ], [ -119.6903195, 48.02141471 ], [ -119.69029554, 48.02140665 ], [ -119.69023834, 48.02142866 ], [ -119.69018108, 48.02150532 ], [ -119.69023834, 48.02176852 ], [ -119.68998514, 48.02180145 ], [ -119.68965008, 48.02166992 ], [ -119.68905334, 48.02126965 ], [ -119.68815447, 48.02046385 ], [ -119.68737827, 48.01984985 ], [ -119.68661834, 48.01941672 ], [ -119.68617707, 48.01912072 ], [ -119.68607087, 48.01898912 ], [ -119.68600547, 48.01866025 ], [ -119.68593194, 48.01864372 ], [ -119.68591414, 48.01863926 ], [ -119.68599983, 48.01863277 ] ] ], [ [ [ -119.69037058, 48.02143673 ], [ -119.69038178, 48.02144156 ], [ -119.69038257, 48.02144677 ], [ -119.69037058, 48.02143673 ] ] ], [ [ [ -119.62851567, 47.81542763 ], [ -119.6286995, 47.80818512 ], [ -119.63141006, 47.80819581 ], [ -119.631501, 47.80817702 ], [ -119.63150452, 47.80948892 ], [ -119.63149937, 47.81284687 ], [ -119.63148438, 47.81299319 ], [ -119.63141981, 47.81331727 ], [ -119.63127193, 47.81358155 ], [ -119.63119817, 47.81371337 ], [ -119.6311777, 47.81374995 ], [ -119.63111446, 47.81381888 ], [ -119.63100611, 47.81393699 ], [ -119.63090176, 47.81404663 ], [ -119.63051455, 47.81433606 ], [ -119.62876998, 47.81528523 ], [ -119.62851567, 47.81542763 ] ] ], [ [ [ -119.64243789, 47.80818895 ], [ -119.64481998, 47.80687876 ], [ -119.64780705, 47.80684955 ], [ -119.64767986, 47.81562382 ], [ -119.65809737, 47.81561832 ], [ -119.65803202, 47.81847955 ], [ -119.65303105, 47.81844644 ], [ -119.64634224, 47.818395 ], [ -119.64633995, 47.81866914 ], [ -119.64593292, 47.81866759 ], [ -119.64593217, 47.81839498 ], [ -119.64235236, 47.81838628 ], [ -119.64222195, 47.81838507 ], [ -119.64221463, 47.81729326 ], [ -119.64210893, 47.8172954 ], [ -119.6341842, 47.81727991 ], [ -119.634121, 47.82129645 ], [ -119.63411405, 47.82403791 ], [ -119.63143033, 47.82403323 ], [ -119.63143382, 47.82268602 ], [ -119.63144636, 47.81668596 ], [ -119.63145273, 47.81544277 ], [ -119.64496721, 47.81549187 ], [ -119.64496885, 47.81539702 ], [ -119.64509149, 47.80827601 ], [ -119.64501098, 47.80827531 ], [ -119.64273455, 47.80825564 ], [ -119.64233163, 47.80825216 ], [ -119.64219295, 47.80825096 ], [ -119.63852578, 47.80821916 ], [ -119.63826754, 47.80821691 ], [ -119.64221459, 47.80617081 ], [ -119.64246022, 47.80602881 ], [ -119.64243789, 47.80818895 ] ] ], [ [ [ -119.65339712, 47.99732781 ], [ -119.65318749, 47.99726577 ], [ -119.65309999, 47.99723987 ], [ -119.65263791, 47.99710311 ], [ -119.65170855, 47.99682804 ], [ -119.6483043, 47.99654548 ], [ -119.64803416, 47.996348 ], [ -119.64754941, 47.99599364 ], [ -119.64753994, 47.99698178 ], [ -119.6475462, 47.9976316 ], [ -119.64761021, 47.99765552 ], [ -119.64768255, 47.99767738 ], [ -119.64775934, 47.99769912 ], [ -119.64794677, 47.99774574 ], [ -119.64808742, 47.99777814 ], [ -119.64828994, 47.99782102 ], [ -119.64848124, 47.99786092 ], [ -119.64869189, 47.99790963 ], [ -119.64829213, 47.99785686 ], [ -119.64754086, 47.99772506 ], [ -119.64736113, 47.99766472 ], [ -119.64714073, 47.99745086 ], [ -119.64706733, 47.99733566 ], [ -119.64689613, 47.99686426 ], [ -119.64683106, 47.99653526 ], [ -119.64677386, 47.99652426 ], [ -119.64671653, 47.99656812 ], [ -119.64656093, 47.99723132 ], [ -119.64636486, 47.99735192 ], [ -119.64596473, 47.99732432 ], [ -119.64557266, 47.99719266 ], [ -119.64511546, 47.99700613 ], [ -119.64473973, 47.99682512 ], [ -119.64462553, 47.99668806 ], [ -119.64445433, 47.99622746 ], [ -119.64426673, 47.99591493 ], [ -119.64410353, 47.99573392 ], [ -119.64404646, 47.99558046 ], [ -119.64391593, 47.99532272 ], [ -119.64373626, 47.99534466 ], [ -119.64374433, 47.99548166 ], [ -119.64290313, 47.99550872 ], [ -119.64286213, 47.99570613 ], [ -119.63725072, 47.99580826 ], [ -119.63483366, 47.99521526 ], [ -119.63425651, 47.99633596 ], [ -119.63419063, 47.99632712 ], [ -119.63381846, 47.9963229 ], [ -119.63449086, 47.99496286 ], [ -119.63471172, 47.99448606 ], [ -119.63405846, 47.99429933 ], [ -119.63406686, 47.99420072 ], [ -119.63416492, 47.99404173 ], [ -119.63434472, 47.99392673 ], [ -119.63472053, 47.99386106 ], [ -119.63510446, 47.99384472 ], [ -119.63543112, 47.99387773 ], [ -119.63547186, 47.99388332 ], [ -119.63573326, 47.99391072 ], [ -119.63628846, 47.99408092 ], [ -119.63715386, 47.99450346 ], [ -119.63749666, 47.99486546 ], [ -119.64561533, 47.99476966 ], [ -119.64558333, 47.99376092 ], [ -119.64552613, 47.99374446 ], [ -119.64274993, 47.99273272 ], [ -119.64272552, 47.99272386 ], [ -119.64077413, 47.99201592 ], [ -119.64050466, 47.99204872 ], [ -119.64030866, 47.99198832 ], [ -119.64015353, 47.99185126 ], [ -119.63993313, 47.99177446 ], [ -119.63946766, 47.99165366 ], [ -119.63937792, 47.99146726 ], [ -119.63918192, 47.99139586 ], [ -119.63863486, 47.99131346 ], [ -119.63790806, 47.99131312 ], [ -119.63765493, 47.99125826 ], [ -119.63756512, 47.99121432 ], [ -119.63725486, 47.99115393 ], [ -119.63638092, 47.99117546 ], [ -119.63623386, 47.99115893 ], [ -119.63607886, 47.99109866 ], [ -119.63562146, 47.99116426 ], [ -119.63531926, 47.99115312 ], [ -119.63515592, 47.99110926 ], [ -119.63463326, 47.99113092 ], [ -119.63425746, 47.99119653 ], [ -119.63344052, 47.99140992 ], [ -119.63276252, 47.99151933 ], [ -119.63182306, 47.99186986 ], [ -119.63072812, 47.99239006 ], [ -119.63003352, 47.99278452 ], [ -119.62991106, 47.99278993 ], [ -119.62982932, 47.99272406 ], [ -119.62972326, 47.99267472 ], [ -119.62953546, 47.99262533 ], [ -119.62935586, 47.99261973 ], [ -119.62872692, 47.99254272 ], [ -119.62850652, 47.99247133 ], [ -119.62835932, 47.99262472 ], [ -119.62815506, 47.99269593 ], [ -119.62790186, 47.99266292 ], [ -119.62768146, 47.99259153 ], [ -119.62755905, 47.99250926 ], [ -119.62735492, 47.99251466 ], [ -119.62709352, 47.99248166 ], [ -119.62684045, 47.99241566 ], [ -119.62666906, 47.99233886 ], [ -119.62648126, 47.99234426 ], [ -119.62637492, 47.99238266 ], [ -119.62633406, 47.99242646 ], [ -119.62643206, 47.99250326 ], [ -119.62670132, 47.99265133 ], [ -119.62667672, 47.99273366 ], [ -119.62652146, 47.99285966 ], [ -119.62618052, 47.99292246 ], [ -119.62583746, 47.99292813 ], [ -119.62577226, 47.99294453 ], [ -119.62563346, 47.99297213 ], [ -119.62552552, 47.99300383 ], [ -119.62552396, 47.99290554 ], [ -119.62557083, 47.99086794 ], [ -119.62616108, 47.99079505 ], [ -119.6265774, 47.99079905 ], [ -119.6270076, 47.99076593 ], [ -119.6274244, 47.99067353 ], [ -119.62795917, 47.99056629 ], [ -119.62942449, 47.99038972 ], [ -119.63029346, 47.99018127 ], [ -119.63141043, 47.98977644 ], [ -119.63147023, 47.98975477 ], [ -119.63244333, 47.98953738 ], [ -119.63330991, 47.98951061 ], [ -119.63539532, 47.98941844 ], [ -119.63569564, 47.98941253 ], [ -119.63600368, 47.98941202 ], [ -119.63619868, 47.98941746 ], [ -119.63641288, 47.98942859 ], [ -119.63679405, 47.98945859 ], [ -119.63719169, 47.98951563 ], [ -119.63758379, 47.9895884 ], [ -119.63803889, 47.98969913 ], [ -119.63842107, 47.98981581 ], [ -119.63865133, 47.98989723 ], [ -119.63895379, 47.99001854 ], [ -119.63930523, 47.9901824 ], [ -119.64161295, 47.99134691 ], [ -119.64551592, 47.9933161 ], [ -119.64725282, 47.99420695 ], [ -119.64724096, 47.9939986 ], [ -119.64724098, 47.99346916 ], [ -119.64725032, 47.98986657 ], [ -119.64957585, 47.98987647 ], [ -119.65033019, 47.98987968 ], [ -119.65260938, 47.98988932 ], [ -119.65590142, 47.98990318 ], [ -119.65641597, 47.99125161 ], [ -119.65475369, 47.99153658 ], [ -119.65468101, 47.99163473 ], [ -119.65447412, 47.99184862 ], [ -119.65495839, 47.99197179 ], [ -119.65515317, 47.99206843 ], [ -119.6551833, 47.99241924 ], [ -119.65529119, 47.99239672 ], [ -119.65525297, 47.99246725 ], [ -119.65507565, 47.99279008 ], [ -119.65484887, 47.99311986 ], [ -119.6545457, 47.99335339 ], [ -119.6544783, 47.99354011 ], [ -119.65793932, 47.99356025 ], [ -119.66329582, 47.99360559 ], [ -119.66516433, 47.99362139 ], [ -119.66600946, 47.99362831 ], [ -119.66601064, 47.99400701 ], [ -119.66651754, 47.99433767 ], [ -119.66864735, 47.994834 ], [ -119.66864232, 47.99554452 ], [ -119.6719944, 47.9973216 ], [ -119.6687256, 47.99732599 ], [ -119.66869476, 48.00016196 ], [ -119.66862934, 48.00013961 ], [ -119.66433422, 47.9986723 ], [ -119.66384653, 47.99850568 ], [ -119.66384601, 47.99855301 ], [ -119.66384344, 47.99878734 ], [ -119.66373915, 47.99873831 ], [ -119.66021251, 47.99708051 ], [ -119.65453279, 47.99602357 ], [ -119.65452829, 47.99616703 ], [ -119.65448181, 47.99764884 ], [ -119.65434324, 47.99760783 ], [ -119.65380574, 47.99744875 ], [ -119.65339712, 47.99732781 ] ] ], [ [ [ -119.6542668, 47.99940392 ], [ -119.65303706, 47.99908612 ], [ -119.65273506, 47.99898186 ], [ -119.65240013, 47.99882286 ], [ -119.6522465, 47.9987681 ], [ -119.65226119, 47.99877152 ], [ -119.65279689, 47.99889985 ], [ -119.65308738, 47.9989756 ], [ -119.65334037, 47.99904903 ], [ -119.65363041, 47.99914522 ], [ -119.65378991, 47.99920622 ], [ -119.65390511, 47.99925323 ], [ -119.65397841, 47.99928384 ], [ -119.6542668, 47.99940392 ] ] ], [ [ [ -119.65584614, 48.00010144 ], [ -119.65607164, 48.00019684 ], [ -119.65597893, 48.00018126 ], [ -119.65587286, 48.00013732 ], [ -119.65584614, 48.00010144 ] ] ], [ [ [ -119.65665653, 48.00060906 ], [ -119.65645747, 48.0003415 ], [ -119.65653838, 48.00037247 ], [ -119.65667696, 48.00062218 ], [ -119.65665653, 48.00060906 ] ] ], [ [ [ -119.65753144, 48.00100927 ], [ -119.65755714, 48.00101836 ], [ -119.65782089, 48.00114218 ], [ -119.65753144, 48.00100927 ] ] ], [ [ [ -119.65832707, 48.00110865 ], [ -119.65813486, 48.00120152 ], [ -119.65798647, 48.00119045 ], [ -119.65812466, 48.00117312 ], [ -119.65831158, 48.00110559 ], [ -119.65832707, 48.00110865 ] ] ], [ [ [ -119.68479305, 48.00377584 ], [ -119.68479572, 48.00459827 ], [ -119.68663637, 48.0045898 ], [ -119.68674426, 48.00830461 ], [ -119.68687909, 48.00830434 ], [ -119.69033931, 48.0082975 ], [ -119.69046259, 48.0120205 ], [ -119.69044773, 48.01382281 ], [ -119.69040482, 48.01202063 ], [ -119.69040088, 48.01185492 ], [ -119.69031476, 48.01185512 ], [ -119.68497533, 48.01186792 ], [ -119.68491737, 48.0046612 ], [ -119.68479498, 48.00466131 ], [ -119.67950499, 48.00466563 ], [ -119.67950532, 48.00462243 ], [ -119.67950594, 48.0045424 ], [ -119.67953338, 48.00097921 ], [ -119.68478369, 48.00101317 ], [ -119.68479305, 48.00377584 ] ] ], [ [ [ -119.67089127, 48.01035926 ], [ -119.67045007, 48.01012885 ], [ -119.66972307, 48.00968472 ], [ -119.6693479, 48.00941567 ], [ -119.67048945, 48.01013684 ], [ -119.67102053, 48.01041084 ], [ -119.67089127, 48.01035926 ] ] ], [ [ [ -119.67267994, 48.01159845 ], [ -119.67227987, 48.01136266 ], [ -119.67145474, 48.01072652 ], [ -119.67129688, 48.01057748 ], [ -119.67257039, 48.01152693 ], [ -119.6731347, 48.01178151 ], [ -119.67267994, 48.01159845 ] ] ], [ [ [ -119.67556717, 48.01329418 ], [ -119.67543231, 48.0130919 ], [ -119.67526531, 48.01296142 ], [ -119.67552287, 48.01310626 ], [ -119.67570254, 48.01333112 ], [ -119.67567814, 48.01345172 ], [ -119.67554734, 48.01349006 ], [ -119.67544927, 48.01349006 ], [ -119.67433007, 48.01271706 ], [ -119.67391354, 48.01239345 ], [ -119.67331051, 48.01186082 ], [ -119.673396, 48.01189939 ], [ -119.67412, 48.01252011 ], [ -119.67489121, 48.01304146 ], [ -119.67530652, 48.01335684 ], [ -119.67550397, 48.01341019 ], [ -119.67556717, 48.01329418 ] ] ], [ [ [ -119.67534933, 48.01262386 ], [ -119.67533514, 48.01262386 ], [ -119.67517987, 48.01268412 ], [ -119.67510634, 48.01272792 ], [ -119.67514714, 48.01283212 ], [ -119.67520529, 48.01291453 ], [ -119.67517471, 48.01289064 ], [ -119.67505719, 48.01273767 ], [ -119.67523452, 48.01259874 ], [ -119.67534933, 48.01262386 ] ] ], [ [ [ -119.67584412, 48.0129165 ], [ -119.6759051, 48.01299446 ], [ -119.67590545, 48.01332312 ], [ -119.67589067, 48.01328732 ], [ -119.67584973, 48.01292546 ], [ -119.67584412, 48.0129165 ] ] ], [ [ [ -119.67764687, 48.01476212 ], [ -119.67695471, 48.01430839 ], [ -119.67750013, 48.01463597 ], [ -119.67792382, 48.01481694 ], [ -119.67789207, 48.01481692 ], [ -119.67764687, 48.01476212 ] ] ], [ [ [ -119.68098854, 48.01625346 ], [ -119.68032883, 48.01593565 ], [ -119.68181921, 48.01658787 ], [ -119.68098854, 48.01625346 ] ] ], [ [ [ -119.68199624, 48.01666534 ], [ -119.68205788, 48.01669231 ], [ -119.68228441, 48.01680759 ], [ -119.68199624, 48.01666534 ] ] ], [ [ [ -119.68285967, 48.01710872 ], [ -119.68272543, 48.017032 ], [ -119.68287554, 48.01710839 ], [ -119.68285967, 48.01710872 ] ] ], [ [ [ -119.68312107, 48.01710332 ], [ -119.6828812, 48.01710828 ], [ -119.68318668, 48.01707865 ], [ -119.68331372, 48.01729749 ], [ -119.68369959, 48.01747087 ], [ -119.68341527, 48.01739386 ], [ -119.68328454, 48.01732805 ], [ -119.68318647, 48.01713612 ], [ -119.68312107, 48.01710332 ] ] ] ] } }
]
}
