{
"type": "FeatureCollection",
"name": "garfield_ui_with_pop_centers",
"crs": { "type": "name", "properties": { "name": "urn:ogc:def:crs:OGC:1.3:CRS84" } },
"features": [
{ "type": "Feature", "properties": { }, "geometry": { "type": "MultiPolygon", "coordinates": [ [ [ [ -117.58497154, 46.4657972 ], [ -117.58489709, 46.46761427 ], [ -117.58093109, 46.46763578 ], [ -117.57956023, 46.46764318 ], [ -117.57956764, 46.46750302 ], [ -117.58475747, 46.46755177 ], [ -117.58474877, 46.4657451 ], [ -117.58474149, 46.46530492 ], [ -117.58468349, 46.46114245 ], [ -117.58467148, 46.46026193 ], [ -117.58465447, 46.45669094 ], [ -117.58570347, 46.45670094 ], [ -117.58621347, 46.45670594 ], [ -117.58993747, 46.45674294 ], [ -117.58998147, 46.46316183 ], [ -117.58998749, 46.46398192 ], [ -117.59061035, 46.46397292 ], [ -117.59501717, 46.46394197 ], [ -117.59757748, 46.46392392 ], [ -117.60280348, 46.46388391 ], [ -117.60310448, 46.46388191 ], [ -117.61098748, 46.46382091 ], [ -117.61124748, 46.46381891 ], [ -117.61127744, 46.46631635 ], [ -117.61128764, 46.46719383 ], [ -117.61131678, 46.46744154 ], [ -117.6113462, 46.4675198 ], [ -117.590086494, 46.467666549972385 ], [ -117.590086494, 46.467666612 ], [ -117.611340116, 46.467519843 ], [ -117.611352276, 46.467519758 ], [ -117.611357145, 46.468397618 ], [ -117.610356708871535, 46.478502759096088 ], [ -117.61120796, 46.47850284 ], [ -117.62178451, 46.47850314 ], [ -117.62178598, 46.47856097 ], [ -117.62180967, 46.47949678 ], [ -117.6218301, 46.48030335 ], [ -117.6221119, 46.48029973 ], [ -117.62278645, 46.47905076 ], [ -117.62277244, 46.47871087 ], [ -117.62278962, 46.4785273 ], [ -117.62603059, 46.47850913 ], [ -117.62699823, 46.47850372 ], [ -117.62840838, 46.47849579 ], [ -117.62840723, 46.47815319 ], [ -117.62840629, 46.4778753 ], [ -117.6284024, 46.47672047 ], [ -117.62840224, 46.4766735 ], [ -117.62709193, 46.47667232 ], [ -117.62708096, 46.47536395 ], [ -117.62708357, 46.47508535 ], [ -117.62710167, 46.47314623 ], [ -117.62710376, 46.47292339 ], [ -117.62621327, 46.47293844 ], [ -117.62612122, 46.47293999 ], [ -117.62597828, 46.47294243 ], [ -117.62246862, 46.47300179 ], [ -117.62235558, 46.47315487 ], [ -117.62221835, 46.47334098 ], [ -117.62171307, 46.47354424 ], [ -117.62097322, 46.47347416 ], [ -117.62057327, 46.47343061 ], [ -117.62035223, 46.47340653 ], [ -117.61908136, 46.4731787 ], [ -117.61283636, 46.47205888 ], [ -117.6125037, 46.47203502 ], [ -117.61198675, 46.47206178 ], [ -117.6114368, 46.47206188 ], [ -117.61137986, 46.47205804 ], [ -117.61137678, 46.47193898 ], [ -117.61137603, 46.47180326 ], [ -117.61137284, 46.4712284 ], [ -117.61573449, 46.47121289 ], [ -117.61804128, 46.47120589 ], [ -117.61935949, 46.47120189 ], [ -117.62084038, 46.47119389 ], [ -117.6218115, 46.47118889 ], [ -117.62180643, 46.47023752 ], [ -117.62179349, 46.4677849 ], [ -117.62179249, 46.4677209 ], [ -117.62173748, 46.4638609 ], [ -117.62534748, 46.4638599 ], [ -117.62682248, 46.4638589 ], [ -117.62697252, 46.46872623 ], [ -117.62701589, 46.46979043 ], [ -117.62706149, 46.47117989 ], [ -117.62815488, 46.47117688 ], [ -117.63225249, 46.47116588 ], [ -117.63224749, 46.47298288 ], [ -117.65115949, 46.47296387 ], [ -117.66302049, 46.47295086 ], [ -117.66387849, 46.47294986 ], [ -117.66389249, 46.47423086 ], [ -117.6639375, 46.47847085 ], [ -117.6546445, 46.47847585 ], [ -117.6532195, 46.47847686 ], [ -117.6445675, 46.47849486 ], [ -117.64348464, 46.47849684 ], [ -117.64290154, 46.47859613 ], [ -117.64300752, 46.48582285 ], [ -117.63215352, 46.48582285 ], [ -117.63161043, 46.48583669 ], [ -117.62838497, 46.48581516 ], [ -117.61693152, 46.48582586 ], [ -117.61344353, 46.48582887 ], [ -117.61138753, 46.48582887 ], [ -117.60998853, 46.48582887 ], [ -117.60935453, 46.48582887 ], [ -117.60668953, 46.48582687 ], [ -117.60648453, 46.48582987 ], [ -117.60630153, 46.48582787 ], [ -117.60482053, 46.48582487 ], [ -117.60246053, 46.48583187 ], [ -117.60080953, 46.48582087 ], [ -117.60079452, 46.48399388 ], [ -117.59324253, 46.48399388 ], [ -117.59005753, 46.48398088 ], [ -117.57942053, 46.48393489 ], [ -117.57561553, 46.48391289 ], [ -117.56882553, 46.4838729 ], [ -117.55744354, 46.4839649 ], [ -117.55746352, 46.47838691 ], [ -117.54761253, 46.47840592 ], [ -117.53697953, 46.47853193 ], [ -117.52635453, 46.47855393 ], [ -117.52633853, 46.47508265 ], [ -117.52633253, 46.47486294 ], [ -117.52495552, 46.47486294 ], [ -117.52484249, 46.47486294 ], [ -117.52445053, 46.47486294 ], [ -117.50513753, 46.47485995 ], [ -117.5051256, 46.47323667 ], [ -117.50509452, 46.46900601 ], [ -117.50508452, 46.46761097 ], [ -117.50507901, 46.46680747 ], [ -117.50506852, 46.46537163 ], [ -117.50505651, 46.46426397 ], [ -117.51348651, 46.46417997 ], [ -117.51390951, 46.46417497 ], [ -117.52037951, 46.46410996 ], [ -117.52040551, 46.46747496 ], [ -117.52624851, 46.46744395 ], [ -117.53167451, 46.46739195 ], [ -117.5314865, 46.46403096 ], [ -117.53134249, 46.45679197 ], [ -117.53603649, 46.45677397 ], [ -117.53642049, 46.45677297 ], [ -117.53935049, 46.45676196 ], [ -117.54187649, 46.45675196 ], [ -117.5418755, 46.46562895 ], [ -117.5418755, 46.46664795 ], [ -117.5426455, 46.46664294 ], [ -117.5525125, 46.46657694 ], [ -117.5573555, 46.46654394 ], [ -117.5579715, 46.46653994 ], [ -117.5581675, 46.46653894 ], [ -117.5581815, 46.46702894 ], [ -117.55826351, 46.4697904 ], [ -117.55826851, 46.47014693 ], [ -117.55830151, 46.47117793 ], [ -117.56772251, 46.47120292 ], [ -117.56884567, 46.47120692 ], [ -117.56884573, 46.47116287 ], [ -117.57169399, 46.47115825 ], [ -117.5741614, 46.47115797 ], [ -117.57498984, 46.47115771 ], [ -117.5795267, 46.47121104 ], [ -117.57401099, 46.47121827 ], [ -117.56914233, 46.47120759 ], [ -117.56909859, 46.47499763 ], [ -117.56457801, 46.47500011 ], [ -117.5646174, 46.47521865 ], [ -117.56473695, 46.47547652 ], [ -117.56484924, 46.47563189 ], [ -117.56521854, 46.47584083 ], [ -117.56699246, 46.47655197 ], [ -117.56849428, 46.4771478 ], [ -117.56884752, 46.47727125 ], [ -117.56907113, 46.47734939 ], [ -117.56906779, 46.47669016 ], [ -117.56906726, 46.47658594 ], [ -117.57428136, 46.47664087 ], [ -117.57434559, 46.4784438 ], [ -117.57586103, 46.47845781 ], [ -117.57958439, 46.47849213 ], [ -117.584296524237828, 46.478498725294109 ], [ -117.585559588, 46.465801734 ], [ -117.589762817522825, 46.465834049390615 ], [ -117.58497154, 46.4657972 ] ], [ [ -117.60344371, 46.47852383 ], [ -117.60345764, 46.4808881 ], [ -117.60345172, 46.48216303 ], [ -117.60600373, 46.48216629 ], [ -117.606025035327562, 46.480558823258527 ], [ -117.603459739, 46.480437458 ], [ -117.603468627, 46.478523858 ], [ -117.60346834, 46.478523858 ], [ -117.590530174970297, 46.478507105202091 ], [ -117.60344371, 46.47852383 ] ], [ [ -117.606052299946967, 46.478502354 ], [ -117.606052232, 46.478502354 ], [ -117.606030649996583, 46.480135232067155 ], [ -117.606052299946967, 46.478502354 ] ], [ [ -117.550238394224792, 46.474535299244181 ], [ -117.549254518, 46.474463927 ], [ -117.547723518, 46.474345928 ], [ -117.547711519, 46.474815928 ], [ -117.53254175, 46.474849901 ], [ -117.532871196, 46.471570082 ], [ -117.532916517, 46.471561942 ], [ -117.533218516, 46.471451942 ], [ -117.533464516, 46.471396942 ], [ -117.533694516, 46.471391942 ], [ -117.533949516, 46.471421942 ], [ -117.534195516, 46.471510941 ], [ -117.534306516, 46.471523941 ], [ -117.534553516, 46.471472941 ], [ -117.534671516, 46.471463941 ], [ -117.534671516157388, 46.471463940293077 ], [ -117.53455352, 46.47147294 ], [ -117.53430652, 46.47152394 ], [ -117.53419552, 46.47151094 ], [ -117.53394952, 46.47142194 ], [ -117.53369452, 46.47139194 ], [ -117.53346452, 46.47139694 ], [ -117.53321852, 46.47145194 ], [ -117.53291652, 46.47156194 ], [ -117.53271052, 46.47159894 ], [ -117.53259952, 46.47159494 ], [ -117.53247252, 46.47157294 ], [ -117.53228152, 46.47149694 ], [ -117.53202752, 46.47134594 ], [ -117.53187152, 46.47128694 ], [ -117.53161352, 46.47128694 ], [ -117.53148752, 46.47132594 ], [ -117.53095552, 46.47154394 ], [ -117.53087652, 46.47154394 ], [ -117.53070952, 46.47147294 ], [ -117.53062052, 46.47142494 ], [ -117.53055152, 46.47138794 ], [ -117.53038452, 46.47135794 ], [ -117.53024152, 46.47136694 ], [ -117.53005052, 46.47142694 ], [ -117.52988352, 46.47152194 ], [ -117.52941552, 46.47184394 ], [ -117.52927952, 46.47188494 ], [ -117.52919252, 46.47187594 ], [ -117.52908952, 46.47180494 ], [ -117.52897852, 46.47169294 ], [ -117.52889052, 46.47162594 ], [ -117.52782752, 46.47162594 ], [ -117.52762852, 46.47165795 ], [ -117.52752352, 46.47165095 ], [ -117.52723152, 46.47163295 ], [ -117.52691352, 46.47162995 ], [ -117.52680252, 46.47168495 ], [ -117.52677852, 46.47173395 ], [ -117.52668652, 46.47182695 ], [ -117.52659552, 46.47191995 ], [ -117.52651252, 46.47206845 ], [ -117.52774252, 46.47224394 ], [ -117.53076552, 46.47266394 ], [ -117.53102552, 46.47269394 ], [ -117.53144752, 46.47274594 ], [ -117.53214552, 46.47283394 ], [ -117.53268552, 46.47289394 ], [ -117.53267452, 46.47294894 ], [ -117.53264302, 46.47310844 ], [ -117.53261552, 46.47316394 ], [ -117.53259552, 46.47320394 ], [ -117.53249552, 46.47328394 ], [ -117.53252552, 46.47484994 ], [ -117.54771152, 46.47481593 ], [ -117.54772352, 46.47434593 ], [ -117.54925452, 46.47446393 ], [ -117.550238394224792, 46.474535299244181 ] ], [ [ -117.55747552, 46.47522392 ], [ -117.55741552, 46.47508792 ], [ -117.557410776050347, 46.474414029240911 ], [ -117.557415517, 46.475087921 ], [ -117.557475518, 46.47522392 ], [ -117.557455017946353, 46.47522442005009 ], [ -117.55747552, 46.47522392 ] ], [ [ -117.55736751, 46.47115893 ], [ -117.557367509997533, 46.47115893000003 ], [ -117.557367508356037, 46.47116025749898 ], [ -117.55736751, 46.47115893 ] ], [ [ -117.552998510972031, 46.471159929999558 ], [ -117.552998511, 46.471159931 ], [ -117.554103260443313, 46.471159429886626 ], [ -117.552998510972031, 46.471159929999558 ] ], [ [ -117.55298951, 46.47083793 ], [ -117.547684510763418, 46.470851929997984 ], [ -117.547684511, 46.470851935 ], [ -117.55298951, 46.470837931 ], [ -117.552989761579013, 46.470846930937832 ], [ -117.55298951, 46.47083793 ] ], [ [ -117.54448251, 46.46906094 ], [ -117.54439151, 46.46893294 ], [ -117.54340851, 46.46892094 ], [ -117.543408510007282, 46.468920940024503 ], [ -117.544391509, 46.46893294 ], [ -117.544482509, 46.46906094 ], [ -117.544712076219056, 46.469300800668343 ], [ -117.54448251, 46.46906094 ] ], [ [ -117.54097751, 46.46957694 ], [ -117.54098251, 46.46973094 ], [ -117.54099151, 46.46997094 ], [ -117.541019509946622, 46.470785938446532 ], [ -117.541019514, 46.470785938 ], [ -117.540991512, 46.46997094 ], [ -117.540982511, 46.469730941 ], [ -117.540977511, 46.469576941 ], [ -117.54360451, 46.46958094 ], [ -117.54097751, 46.46957694 ] ], [ [ -117.53912751, 46.47092094 ], [ -117.539005510434464, 46.471202938995731 ], [ -117.539005515, 46.471202939 ], [ -117.539127513549559, 46.470920940041204 ], [ -117.53912751, 46.47092094 ] ], [ [ -117.53473052, 46.47119894 ], [ -117.534730519553761, 46.471198942004257 ], [ -117.537578303036071, 46.471201604598548 ], [ -117.53473052, 46.47119894 ] ] ], [ [ [ -117.582545, 46.473174 ], [ -117.582099, 46.477654 ], [ -117.575615, 46.477346 ], [ -117.576061, 46.472866 ], [ -117.582545, 46.473174 ] ] ] ] } }
]
}
