{
"type": "FeatureCollection",
"name": "king_ui_with_pop_centers",
"crs": { "type": "name", "properties": { "name": "urn:ogc:def:crs:OGC:1.3:CRS84" } },
"features": [
{ "type": "Feature", "properties": { "pop_centers": "Ames Lake CDP,Baring CDP,Black Diamond UGA,Carnation UGA,Cottage Lake CDP,Duvall UGA,East Renton Highlands CDP,Enumclaw UGA,Fairwood CDP,Fall City CDP,Federal Way,Hobart CDP,King County UGA,Lake Holm CDP,Lake Morton-Berrydale CDP,Lakeland South CDP,Maple Heights-Lake Desire CDP,Mirrormont CDP,Newcastle,Ravensdale CDP,Riverbend CDP,Riverpoint CDP,Shadow Lake CDP,Snoqualmie UGA,Union Hill-Novelty Hill CDP,Vashon CDP,Wilderness Rim CDP,Yarrow Point" }, "geometry": { "type": "MultiPolygon", "coordinates": [ [ [ [ -122.3559936, 47.2610885 ], [ -122.355842, 47.2681865 ], [ -122.3506241, 47.2703177 ], [ -122.3515257, 47.2716699 ], [ -122.3557774, 47.2716818 ], [ -122.3556655, 47.2774499 ], [ -122.3369647, 47.2645869 ], [ -122.3401314, 47.2646212 ], [ -122.3387946, 47.2539403 ], [ -122.3500044, 47.2539937 ], [ -122.3491557, 47.2569987 ], [ -122.3502634, 47.2573999 ], [ -122.3483897, 47.2583162 ], [ -122.3496629, 47.2583273 ], [ -122.3503445, 47.2622056 ], [ -122.3559936, 47.2610885 ] ] ], [ [ [ -122.4093055, 47.3118591 ], [ -122.4145475, 47.3119261 ], [ -122.4146156, 47.315573 ], [ -122.4168704, 47.3155821 ], [ -122.4186927, 47.3119586 ], [ -122.4219634, 47.3119491 ], [ -122.4218855, 47.3190982 ], [ -122.4176547, 47.3201459 ], [ -122.3955838, 47.304771 ], [ -122.4088625, 47.3047092 ], [ -122.4093055, 47.3118591 ] ] ], [ [ [ -122.4140617, 47.320115 ], [ -122.414278, 47.3201119 ], [ -122.414205, 47.320139 ], [ -122.4140617, 47.320115 ] ] ], [ [ [ -122.4135354, 47.3201851 ], [ -122.4135036, 47.3203593 ], [ -122.4135353, 47.3201851 ], [ -122.4135354, 47.3201851 ] ] ], [ [ [ -122.4114954, 47.3209268 ], [ -122.4110427, 47.3209714 ], [ -122.4116725, 47.3208957 ], [ -122.4114954, 47.3209268 ] ] ], [ [ [ -122.4100726, 47.3210986 ], [ -122.4095829, 47.3211794 ], [ -122.4094049, 47.3211896 ], [ -122.4100726, 47.3210986 ] ] ], [ [ [ -122.4014441, 47.3230171 ], [ -122.3972233, 47.3264757 ], [ -122.3953242, 47.3275317 ], [ -122.3953391, 47.3262286 ], [ -122.4014441, 47.3230171 ] ] ], [ [ [ -122.3858877, 47.3271324 ], [ -122.3858328, 47.3270478 ], [ -122.3858878, 47.3271323 ], [ -122.3858877, 47.3271324 ] ] ], [ [ [ -122.3850702, 47.3260581 ], [ -122.3850672, 47.3260571 ], [ -122.3850702, 47.326058 ], [ -122.3850702, 47.3260581 ] ] ], [ [ [ -122.3850322, 47.3260451 ], [ -122.3849392, 47.3260524 ], [ -122.3849392, 47.3260523 ], [ -122.3850322, 47.3260451 ] ] ], [ [ [ -122.3776986, 47.3273194 ], [ -122.377715, 47.327306 ], [ -122.3776783, 47.327535 ], [ -122.3776986, 47.3273194 ] ] ], [ [ [ -122.3769856, 47.3281829 ], [ -122.3765807, 47.328979 ], [ -122.3764748, 47.3292018 ], [ -122.3769856, 47.3281829 ] ] ], [ [ [ -122.3760412, 47.3294807 ], [ -122.376167, 47.3294224 ], [ -122.3759087, 47.3297135 ], [ -122.3760412, 47.3294807 ] ] ], [ [ [ -122.3756563, 47.3299077 ], [ -122.3756522, 47.3299201 ], [ -122.3756521, 47.3299201 ], [ -122.3756563, 47.3299077 ] ] ], [ [ [ -122.3695573, 47.3347389 ], [ -122.3691397, 47.3348041 ], [ -122.3691397, 47.334804 ], [ -122.3695573, 47.3347389 ] ] ], [ [ [ -122.3660915, 47.3357521 ], [ -122.3660733, 47.3357544 ], [ -122.3660734, 47.3357543 ], [ -122.3660915, 47.3357521 ] ] ], [ [ [ -122.3652404, 47.3358507 ], [ -122.3647337, 47.3359089 ], [ -122.3647338, 47.3359088 ], [ -122.3652404, 47.3358507 ] ] ], [ [ [ -122.3553049, 47.3374019 ], [ -122.3549817, 47.3374307 ], [ -122.3550625, 47.3374234 ], [ -122.3553049, 47.3374019 ] ] ], [ [ [ -122.2943467, 47.3580061 ], [ -122.2720224, 47.3577635 ], [ -122.2724445, 47.3651422 ], [ -122.2678853, 47.3668564 ], [ -122.2668915, 47.3650647 ], [ -122.2706114, 47.3720986 ], [ -122.2706141, 47.3757385 ], [ -122.2644677, 47.3758009 ], [ -122.2635564, 47.3774098 ], [ -122.2579798, 47.3786248 ], [ -122.2565005, 47.3771834 ], [ -122.2581161, 47.372793 ], [ -122.2563942, 47.3713418 ], [ -122.2546071, 47.3720702 ], [ -122.2533163, 47.3761043 ], [ -122.2495801, 47.3763823 ], [ -122.2493485, 47.3580497 ], [ -122.2546579, 47.3580223 ], [ -122.2547035, 47.3539875 ], [ -122.2430455, 47.3540153 ], [ -122.2442738, 47.344626 ], [ -122.2493502, 47.3446161 ], [ -122.2492776, 47.3471687 ], [ -122.2655228, 47.3470531 ], [ -122.2664639, 47.3435822 ], [ -122.2709494, 47.3434814 ], [ -122.2710988, 47.3146507 ], [ -122.2804129, 47.3140744 ], [ -122.2786978, 47.3126124 ], [ -122.2733577, 47.3040702 ], [ -122.2655455, 47.3030733 ], [ -122.2655226, 47.2905669 ], [ -122.2624439, 47.2904027 ], [ -122.262419, 47.2869444 ], [ -122.2604191, 47.2869434 ], [ -122.2614869, 47.2783006 ], [ -122.2594369, 47.2783062 ], [ -122.2617611, 47.2682191 ], [ -122.2714805, 47.268193 ], [ -122.2719824, 47.2573578 ], [ -122.2911872, 47.2571937 ], [ -122.2981352, 47.2625369 ], [ -122.2981172, 47.2609634 ], [ -122.3002336, 47.2609845 ], [ -122.3055521, 47.263451 ], [ -122.3036097, 47.2645141 ], [ -122.3032468, 47.268778 ], [ -122.3106806, 47.2786294 ], [ -122.3064221, 47.286982 ], [ -122.3020768, 47.2893255 ], [ -122.2964696, 47.2897612 ], [ -122.2925584, 47.2885806 ], [ -122.2916361, 47.286316 ], [ -122.2886795, 47.2905837 ], [ -122.2869514, 47.2904416 ], [ -122.2869478, 47.2964584 ], [ -122.2738172, 47.3039817 ], [ -122.2798205, 47.3134699 ], [ -122.2869539, 47.3148956 ], [ -122.2865958, 47.3168323 ], [ -122.2881783, 47.3177227 ], [ -122.2898076, 47.3168259 ], [ -122.292222, 47.3168049 ], [ -122.2922, 47.3186398 ], [ -122.2950904, 47.3186522 ], [ -122.2932704, 47.3243598 ], [ -122.2919577, 47.3460325 ], [ -122.2956113, 47.3551968 ], [ -122.2943467, 47.3580061 ] ], [ [ -122.2894444, 47.3277342 ], [ -122.2894728, 47.3256211 ], [ -122.289586, 47.3171735 ], [ -122.2894444, 47.3277342 ] ], [ [ -122.2894444, 47.3277342 ], [ -122.2864854, 47.3237415 ], [ -122.2846831, 47.3229436 ], [ -122.2865352, 47.3270843 ], [ -122.2886592, 47.3285021 ], [ -122.2916506, 47.32852 ], [ -122.2902565, 47.3281978 ], [ -122.2894444, 47.3277342 ] ], [ [ -122.2877604, 47.2897427 ], [ -122.2878257, 47.2896988 ], [ -122.2877513, 47.2896991 ], [ -122.2877604, 47.2897427 ] ], [ [ -122.2873871, 47.2899749 ], [ -122.2869517, 47.2899781 ], [ -122.2869514, 47.2904317 ], [ -122.2873871, 47.2899749 ] ], [ [ -122.2697022, 47.3721102 ], [ -122.265236, 47.3650722 ], [ -122.2651896, 47.3721677 ], [ -122.2697022, 47.3721102 ] ] ], [ [ [ -122.2873898, 47.3168362 ], [ -122.2881888, 47.3168401 ], [ -122.2881962, 47.3168409 ], [ -122.2873898, 47.3168362 ] ] ], [ [ [ -122.2921265, 47.3460324 ], [ -122.292014, 47.3460324 ], [ -122.2921266, 47.3460323 ], [ -122.2921265, 47.3460324 ] ] ], [ [ [ -122.2919584, 47.3456635 ], [ -122.2919585, 47.3455695 ], [ -122.2919594, 47.345104 ], [ -122.2919584, 47.3456635 ] ] ], [ [ [ -122.5103583, 47.3336021 ], [ -122.51959, 47.3341501 ], [ -122.5252113, 47.3403358 ], [ -122.5279173, 47.3460616 ], [ -122.5249305, 47.3620969 ], [ -122.5226175, 47.3663008 ], [ -122.5155863, 47.3704188 ], [ -122.5164268, 47.3732554 ], [ -122.5150643, 47.3785537 ], [ -122.5252142, 47.390022 ], [ -122.5272915, 47.396638 ], [ -122.525736, 47.3994259 ], [ -122.5189577, 47.4030467 ], [ -122.5217575, 47.4052427 ], [ -122.5209142, 47.4075663 ], [ -122.513261, 47.4144535 ], [ -122.5145235, 47.4182617 ], [ -122.5118812, 47.4223793 ], [ -122.5109807, 47.4319641 ], [ -122.5139023, 47.4400735 ], [ -122.5125979, 47.4423073 ], [ -122.5136201, 47.4484021 ], [ -122.5117863, 47.4543322 ], [ -122.5091435, 47.4547874 ], [ -122.5093246, 47.4578175 ], [ -122.5075795, 47.4596669 ], [ -122.5086505, 47.4614008 ], [ -122.5025521, 47.4639542 ], [ -122.5024605, 47.4668018 ], [ -122.4973767, 47.4699171 ], [ -122.497761, 47.4758593 ], [ -122.482619, 47.480252 ], [ -122.4804285, 47.4830749 ], [ -122.4754518, 47.5061333 ], [ -122.4761497, 47.5098636 ], [ -122.4737755, 47.5110421 ], [ -122.4680518, 47.5099934 ], [ -122.468019, 47.513205 ], [ -122.461379, 47.513174 ], [ -122.4607505, 47.5072281 ], [ -122.4513747, 47.5027185 ], [ -122.4595061, 47.497031 ], [ -122.4600279, 47.4864913 ], [ -122.4483141, 47.478527 ], [ -122.4441029, 47.4717587 ], [ -122.4335279, 47.4660559 ], [ -122.4442391, 47.4535108 ], [ -122.4401723, 47.4493429 ], [ -122.4398135, 47.4353222 ], [ -122.4297775, 47.4227836 ], [ -122.4370207, 47.4192288 ], [ -122.437063, 47.415268 ], [ -122.439077, 47.4152607 ], [ -122.4373437, 47.4119139 ], [ -122.4383482, 47.4080419 ], [ -122.4256878, 47.4016145 ], [ -122.3946429, 47.398825 ], [ -122.3735394, 47.3884589 ], [ -122.3782418, 47.3853531 ], [ -122.3996862, 47.3820417 ], [ -122.4039434, 47.3787941 ], [ -122.4174346, 47.3750559 ], [ -122.4239398, 47.3700541 ], [ -122.4308227, 47.369517 ], [ -122.4376265, 47.3662389 ], [ -122.4483731, 47.3558492 ], [ -122.4537535, 47.3472405 ], [ -122.4543382, 47.3437185 ], [ -122.4612772, 47.3433509 ], [ -122.4703272, 47.3456865 ], [ -122.4748447, 47.3496412 ], [ -122.4762328, 47.3537179 ], [ -122.4725818, 47.3616695 ], [ -122.4660548, 47.3676453 ], [ -122.4632105, 47.3742411 ], [ -122.4543178, 47.3703369 ], [ -122.4439039, 47.3815425 ], [ -122.431766, 47.3876015 ], [ -122.4304909, 47.3896314 ], [ -122.4332687, 47.3918129 ], [ -122.431889, 47.3958535 ], [ -122.4335145, 47.3917428 ], [ -122.4376655, 47.3939069 ], [ -122.4387286, 47.4064846 ], [ -122.4453016, 47.4052701 ], [ -122.4486334, 47.4026677 ], [ -122.4520162, 47.4038324 ], [ -122.4629546, 47.401133 ], [ -122.4679785, 47.4024333 ], [ -122.4637582, 47.4003861 ], [ -122.4664175, 47.3920305 ], [ -122.4618732, 47.3907485 ], [ -122.4594355, 47.3932409 ], [ -122.4526172, 47.3949215 ], [ -122.4460401, 47.3896636 ], [ -122.4516948, 47.3839363 ], [ -122.4624984, 47.387387 ], [ -122.4711996, 47.387798 ], [ -122.4781082, 47.3856779 ], [ -122.4836528, 47.3813453 ], [ -122.4877478, 47.3693305 ], [ -122.4883052, 47.3593079 ], [ -122.4910059, 47.3517227 ], [ -122.4916113, 47.3322745 ], [ -122.4948562, 47.3306664 ], [ -122.509952, 47.330727 ], [ -122.5103583, 47.3336021 ] ] ], [ [ [ -122.281277, 47.3829687 ], [ -122.2808129, 47.3881511 ], [ -122.2831978, 47.3861148 ], [ -122.2865754, 47.3864853 ], [ -122.2865972, 47.390061 ], [ -122.2808491, 47.3913809 ], [ -122.2808148, 47.3883147 ], [ -122.2780563, 47.3883255 ], [ -122.2774633, 47.3829836 ], [ -122.281277, 47.3829687 ] ] ], [ [ [ -122.2843782, 47.4221016 ], [ -122.271316, 47.4302989 ], [ -122.2808351, 47.4194459 ], [ -122.2673741, 47.4194535 ], [ -122.2763549, 47.419377 ], [ -122.2794188, 47.4155402 ], [ -122.2826307, 47.4155605 ], [ -122.2820843, 47.4179587 ], [ -122.2806645, 47.4196932 ], [ -122.2841288, 47.4196987 ], [ -122.2843782, 47.4221016 ] ] ], [ [ [ -122.2499921, 47.4742267 ], [ -122.245942, 47.4704289 ], [ -122.2467706, 47.4701776 ], [ -122.2499921, 47.4742267 ] ] ], [ [ [ -122.2884802, 47.4936211 ], [ -122.2910564, 47.4925987 ], [ -122.2910777, 47.4936156 ], [ -122.2884802, 47.4936211 ] ] ], [ [ [ -122.2480284, 47.5030831 ], [ -122.2454973, 47.5038827 ], [ -122.2471645, 47.5097512 ], [ -122.2365104, 47.5096584 ], [ -122.2200536, 47.5016899 ], [ -122.2186452, 47.5000715 ], [ -122.2226242, 47.4957877 ], [ -122.219972, 47.4954427 ], [ -122.2197925, 47.4933422 ], [ -122.2228282, 47.4933261 ], [ -122.2227821, 47.4909303 ], [ -122.2272396, 47.4909643 ], [ -122.2272546, 47.489282 ], [ -122.2253016, 47.4888208 ], [ -122.2272488, 47.4879072 ], [ -122.2257169, 47.4871352 ], [ -122.2332461, 47.4865655 ], [ -122.231442, 47.4828985 ], [ -122.2324014, 47.4806202 ], [ -122.2455117, 47.4822351 ], [ -122.2456859, 47.480353 ], [ -122.2537697, 47.4794049 ], [ -122.2607666, 47.4858057 ], [ -122.2607442, 47.4874067 ], [ -122.2638707, 47.4882145 ], [ -122.2649948, 47.492305 ], [ -122.2685875, 47.4955317 ], [ -122.259613, 47.4956154 ], [ -122.2595364, 47.5025572 ], [ -122.2508327, 47.5029076 ], [ -122.2496202, 47.4993459 ], [ -122.2408642, 47.4992488 ], [ -122.2408147, 47.5029056 ], [ -122.2488267, 47.5030044 ], [ -122.2487821, 47.506366 ], [ -122.2480284, 47.5030831 ] ], [ [ -122.2314842, 47.4903651 ], [ -122.230391, 47.4895332 ], [ -122.2303941, 47.4903503 ], [ -122.2314842, 47.4903651 ] ] ], [ [ [ -122.2865446, 47.4946443 ], [ -122.2880101, 47.4996517 ], [ -122.2862515, 47.4946925 ], [ -122.2865446, 47.4946443 ] ] ], [ [ [ -122.3705738, 47.5032929 ], [ -122.3711061, 47.5174605 ], [ -122.3604363, 47.5174071 ], [ -122.3603812, 47.5155685 ], [ -122.3583916, 47.5155676 ], [ -122.3584248, 47.5174071 ], [ -122.3371602, 47.5173267 ], [ -122.3371307, 47.5141447 ], [ -122.3311235, 47.5154283 ], [ -122.3272587, 47.5141181 ], [ -122.3307391, 47.5208321 ], [ -122.3258521, 47.5208325 ], [ -122.3258183, 47.5187468 ], [ -122.3174202, 47.5187386 ], [ -122.3175159, 47.5221662 ], [ -122.3096868, 47.5221163 ], [ -122.309474, 47.5237026 ], [ -122.3084303, 47.518477 ], [ -122.3055187, 47.513693 ], [ -122.3077059, 47.5126597 ], [ -122.3009256, 47.5064741 ], [ -122.3126967, 47.5068725 ], [ -122.3126219, 47.503171 ], [ -122.3239838, 47.50312 ], [ -122.3244816, 47.4996497 ], [ -122.347447, 47.4995102 ], [ -122.3474436, 47.5013306 ], [ -122.3535182, 47.5012213 ], [ -122.3534874, 47.5026462 ], [ -122.3712711, 47.5026159 ], [ -122.3728998, 47.5011746 ], [ -122.3705738, 47.5032929 ] ] ], [ [ [ -122.3057729, 47.512741 ], [ -122.305775, 47.5127409 ], [ -122.3057867, 47.5127512 ], [ -122.3057729, 47.512741 ] ] ], [ [ [ -122.3059189, 47.5128674 ], [ -122.3059174, 47.512871 ], [ -122.3059135, 47.5128626 ], [ -122.3059189, 47.5128674 ] ] ], [ [ [ -122.3076173, 47.5186328 ], [ -122.3074822, 47.5185929 ], [ -122.3077689, 47.518603 ], [ -122.3076173, 47.5186328 ] ] ], [ [ [ -122.2913909, 47.523592 ], [ -122.2914148, 47.5195654 ], [ -122.2932499, 47.5236034 ], [ -122.2913909, 47.523592 ] ] ], [ [ [ -122.314286, 47.529452 ], [ -122.3133269, 47.5270077 ], [ -122.3174362, 47.52824 ], [ -122.3182689, 47.5307909 ], [ -122.314286, 47.529452 ] ] ], [ [ [ -122.2432216, 47.5347618 ], [ -122.2433173, 47.5349836 ], [ -122.2429953, 47.5346444 ], [ -122.2432216, 47.5347618 ] ] ], [ [ [ -122.2432646, 47.535055 ], [ -122.2433202, 47.5350459 ], [ -122.2433536, 47.535331 ], [ -122.2432646, 47.535055 ] ] ], [ [ [ -122.2451999, 47.5760286 ], [ -122.2454633, 47.5762034 ], [ -122.24565, 47.5765014 ], [ -122.2451999, 47.5760286 ] ] ], [ [ [ -122.2457931, 47.5767844 ], [ -122.24582, 47.5768376 ], [ -122.2457939, 47.5767911 ], [ -122.2457931, 47.5767844 ] ] ], [ [ [ -122.2494489, 47.5797075 ], [ -122.2493111, 47.5796093 ], [ -122.2495043, 47.5797296 ], [ -122.2494489, 47.5797075 ] ] ], [ [ [ -122.2505682, 47.580458 ], [ -122.2499087, 47.5802597 ], [ -122.2500243, 47.5802644 ], [ -122.2505682, 47.580458 ] ] ], [ [ [ -122.2542611, 47.5871377 ], [ -122.2544549, 47.5876712 ], [ -122.2544325, 47.5877683 ], [ -122.2542611, 47.5871377 ] ] ], [ [ [ -122.2539805, 47.5919417 ], [ -122.2540069, 47.5918365 ], [ -122.2539854, 47.5920714 ], [ -122.2539805, 47.5919417 ] ] ], [ [ [ -122.2466066, 47.5954779 ], [ -122.2465529, 47.5955712 ], [ -122.2465738, 47.595506 ], [ -122.2466066, 47.5954779 ] ] ], [ [ [ -122.2619185, 47.7263391 ], [ -122.2617828, 47.7267715 ], [ -122.2617541, 47.7263923 ], [ -122.2619185, 47.7263391 ] ] ], [ [ [ -122.2650756, 47.7353797 ], [ -122.2632419, 47.7310974 ], [ -122.2631162, 47.7293501 ], [ -122.26193, 47.7276071 ], [ -122.2617701, 47.7272377 ], [ -122.2617478, 47.7270096 ], [ -122.2633284, 47.7296772 ], [ -122.263359, 47.7311536 ], [ -122.26495, 47.7333586 ], [ -122.2650756, 47.7353797 ] ] ], [ [ [ -122.2672752, 47.7381134 ], [ -122.2650857, 47.7357539 ], [ -122.2650748, 47.7354616 ], [ -122.2672752, 47.7381134 ] ] ], [ [ [ -122.2758572, 47.7511835 ], [ -122.2755407, 47.7512001 ], [ -122.2755459, 47.7511966 ], [ -122.2758572, 47.7511835 ] ] ], [ [ [ -122.3921697, 47.7806732 ], [ -122.3943242, 47.7779759 ], [ -122.3970892, 47.7798699 ], [ -122.3972429, 47.7819223 ], [ -122.3908312, 47.7852428 ], [ -122.3931858, 47.7814499 ], [ -122.3921697, 47.7806732 ] ] ], [ [ [ -122.243802, 47.7932216 ], [ -122.2423673, 47.7806088 ], [ -122.2437014, 47.7806201 ], [ -122.2437896, 47.7770549 ], [ -122.2670594, 47.7771637 ], [ -122.2648429, 47.7855464 ], [ -122.2633957, 47.78555 ], [ -122.2644077, 47.7881302 ], [ -122.2612811, 47.7881142 ], [ -122.2645873, 47.7919037 ], [ -122.243802, 47.7932216 ] ] ], [ [ [ -122.2899248, 47.7773609 ], [ -122.2874449, 47.7773394 ], [ -122.2895038, 47.7792497 ], [ -122.2868601, 47.7801309 ], [ -122.2868762, 47.7773486 ], [ -122.2812719, 47.7770792 ], [ -122.2899248, 47.7773609 ] ] ], [ [ [ -122.3617308, 47.7776016 ], [ -122.3167071, 47.7776714 ], [ -122.3137824, 47.7774124 ], [ -122.3617308, 47.7776016 ] ] ], [ [ [ -122.3411594, 47.7929363 ], [ -122.3372233, 47.7921733 ], [ -122.3394914, 47.7889142 ], [ -122.3421631, 47.7888915 ], [ -122.3421233, 47.7870714 ], [ -122.3519275, 47.7875743 ], [ -122.3518888, 47.7850144 ], [ -122.3561601, 47.7901247 ], [ -122.356194, 47.7939071 ], [ -122.338647, 47.7938077 ], [ -122.3411594, 47.7929363 ] ] ], [ [ [ -122.2411673, 47.2544236 ], [ -122.2425981, 47.253382 ], [ -122.2388975, 47.2573178 ], [ -122.2411673, 47.2544236 ] ] ], [ [ [ -122.2406345, 47.2573128 ], [ -122.2447724, 47.2533483 ], [ -122.244681, 47.2573008 ], [ -122.2406345, 47.2573128 ] ] ], [ [ [ -122.223654, 47.2792707 ], [ -122.2284208, 47.2805679 ], [ -122.2279087, 47.2825575 ], [ -122.2236514, 47.2825649 ], [ -122.223654, 47.2792707 ] ] ], [ [ [ -122.2255333, 47.3487009 ], [ -122.225161, 47.346875 ], [ -122.2284518, 47.3464013 ], [ -122.2285109, 47.3499709 ], [ -122.2255333, 47.3487009 ] ] ], [ [ [ -122.2297792, 47.3612461 ], [ -122.2297789, 47.3612287 ], [ -122.2298477, 47.3612291 ], [ -122.2297792, 47.3612461 ] ] ], [ [ [ -122.237356, 47.364055 ], [ -122.235979, 47.3618784 ], [ -122.2319798, 47.3609249 ], [ -122.2268787, 47.3615222 ], [ -122.2231265, 47.3651639 ], [ -122.2270235, 47.3687395 ], [ -122.2233029, 47.3685508 ], [ -122.218821, 47.3663186 ], [ -122.2205276, 47.3627549 ], [ -122.2165975, 47.358907 ], [ -122.2133472, 47.3577991 ], [ -122.2126232, 47.3559494 ], [ -122.2091449, 47.3537258 ], [ -122.2389507, 47.3538373 ], [ -122.2400472, 47.36878 ], [ -122.236023, 47.3697385 ], [ -122.24009, 47.3690664 ], [ -122.2402716, 47.3702805 ], [ -122.2355559, 47.370311 ], [ -122.234638, 47.3689509 ], [ -122.237356, 47.364055 ] ] ], [ [ [ -122.2196457, 47.3629439 ], [ -122.2182529, 47.3663438 ], [ -122.2220376, 47.3696848 ], [ -122.2134989, 47.3675619 ], [ -122.2135453, 47.361515 ], [ -122.2074276, 47.3610761 ], [ -122.2074766, 47.3549503 ], [ -122.2105895, 47.3550994 ], [ -122.2130026, 47.3580186 ], [ -122.2160288, 47.3591224 ], [ -122.2196457, 47.3629439 ] ] ], [ [ [ -122.2222696, 47.3684598 ], [ -122.2207566, 47.3680022 ], [ -122.220505, 47.367675 ], [ -122.2222696, 47.3684598 ] ] ], [ [ [ -122.2274087, 47.5243986 ], [ -122.2278576, 47.5244736 ], [ -122.2281531, 47.5247329 ], [ -122.2274087, 47.5243986 ] ] ], [ [ [ -122.2285187, 47.5250024 ], [ -122.2283454, 47.5248746 ], [ -122.228606, 47.5250444 ], [ -122.2285187, 47.5250024 ] ] ], [ [ [ -122.2298272, 47.525765 ], [ -122.2299451, 47.5258678 ], [ -122.2297581, 47.5257584 ], [ -122.2298272, 47.525765 ] ] ], [ [ [ -122.2328919, 47.5274592 ], [ -122.2336234, 47.5277964 ], [ -122.2339499, 47.5280734 ], [ -122.2328919, 47.5274592 ] ] ], [ [ [ -122.2350035, 47.5286595 ], [ -122.2356876, 47.5287734 ], [ -122.2360378, 47.5290833 ], [ -122.2350035, 47.5286595 ] ] ], [ [ [ -122.2362897, 47.5291471 ], [ -122.2361493, 47.5291116 ], [ -122.2365232, 47.5291388 ], [ -122.2362897, 47.5291471 ] ] ], [ [ [ -122.2405402, 47.5323684 ], [ -122.2407083, 47.5327411 ], [ -122.2401687, 47.5320885 ], [ -122.2405402, 47.5323684 ] ] ], [ [ [ -122.2413749, 47.533437 ], [ -122.2411613, 47.5332483 ], [ -122.2415242, 47.5334906 ], [ -122.2413749, 47.533437 ] ] ], [ [ [ -122.2418446, 47.5337393 ], [ -122.2418, 47.5337015 ], [ -122.2420801, 47.5338812 ], [ -122.2418446, 47.5337393 ] ] ], [ [ [ -122.2422257, 47.5340474 ], [ -122.2424506, 47.534118 ], [ -122.242696, 47.534351 ], [ -122.2422257, 47.5340474 ] ] ], [ [ [ -122.2311203, 47.5574207 ], [ -122.2311407, 47.5574751 ], [ -122.2311237, 47.5574445 ], [ -122.2311203, 47.5574207 ] ] ], [ [ [ -122.2310777, 47.5603989 ], [ -122.231072, 47.5602727 ], [ -122.231133, 47.5603886 ], [ -122.2310777, 47.5603989 ] ] ], [ [ [ -122.2311871, 47.5615807 ], [ -122.2311824, 47.5622435 ], [ -122.2311328, 47.5618854 ], [ -122.2311871, 47.5615807 ] ] ], [ [ [ -122.2321642, 47.5642646 ], [ -122.2322397, 47.564615 ], [ -122.2319817, 47.5639822 ], [ -122.2321642, 47.5642646 ] ] ], [ [ [ -122.2323725, 47.5649378 ], [ -122.2323411, 47.5648124 ], [ -122.2324873, 47.5652068 ], [ -122.2323725, 47.5649378 ] ] ], [ [ [ -122.2331113, 47.5671673 ], [ -122.2331469, 47.5670157 ], [ -122.2331601, 47.5672908 ], [ -122.2331113, 47.5671673 ] ] ], [ [ [ -122.2343189, 47.5690163 ], [ -122.2341514, 47.5689319 ], [ -122.2341423, 47.568925 ], [ -122.2343189, 47.5690163 ] ] ], [ [ [ -122.2346102, 47.569167 ], [ -122.2350655, 47.5693884 ], [ -122.2343682, 47.5690418 ], [ -122.2346102, 47.569167 ] ] ], [ [ [ -122.2353347, 47.5696424 ], [ -122.2352117, 47.5694873 ], [ -122.2354268, 47.5696807 ], [ -122.2353347, 47.5696424 ] ] ], [ [ [ -122.2391045, 47.5720741 ], [ -122.2392021, 47.5721374 ], [ -122.2391301, 47.5721294 ], [ -122.2391045, 47.5720741 ] ] ], [ [ [ -122.2393271, 47.5722231 ], [ -122.2392904, 47.5721959 ], [ -122.23937, 47.5722486 ], [ -122.2393271, 47.5722231 ] ] ], [ [ [ -122.2398896, 47.5727954 ], [ -122.2396828, 47.5726125 ], [ -122.2398104, 47.5727106 ], [ -122.2398896, 47.5727954 ] ] ], [ [ [ -122.2403216, 47.5731512 ], [ -122.2404599, 47.5732028 ], [ -122.2404053, 47.5732201 ], [ -122.2403216, 47.5731512 ] ] ], [ [ [ -122.2405696, 47.5732759 ], [ -122.2404669, 47.5732057 ], [ -122.2404986, 47.5732188 ], [ -122.2405696, 47.5732759 ] ] ], [ [ [ -122.2420312, 47.5745022 ], [ -122.243147, 47.5748828 ], [ -122.2434121, 47.5750775 ], [ -122.2420312, 47.5745022 ] ] ], [ [ [ -122.2240203, 47.5879863 ], [ -122.2247812, 47.5868483 ], [ -122.2246408, 47.5873918 ], [ -122.2240203, 47.5879863 ] ] ], [ [ [ -122.224339, 47.5907826 ], [ -122.2243426, 47.5907713 ], [ -122.2243942, 47.5909363 ], [ -122.224339, 47.5907826 ] ] ], [ [ [ -122.2254691, 47.5936092 ], [ -122.225087, 47.5930458 ], [ -122.2249022, 47.5926261 ], [ -122.2254691, 47.5936092 ] ] ], [ [ [ -122.2101703, 47.5938296 ], [ -122.210699, 47.5943329 ], [ -122.2103803, 47.5942351 ], [ -122.2101703, 47.5938296 ] ] ], [ [ [ -122.2283669, 47.5948502 ], [ -122.2283507, 47.5950182 ], [ -122.2283291, 47.5949803 ], [ -122.2283669, 47.5948502 ] ] ], [ [ [ -122.2108584, 47.598709 ], [ -122.2108404, 47.5986743 ], [ -122.2109106, 47.5987826 ], [ -122.2108584, 47.598709 ] ] ], [ [ [ -122.2122778, 47.6002997 ], [ -122.2115988, 47.6000742 ], [ -122.2121208, 47.6002334 ], [ -122.2122778, 47.6002997 ] ] ], [ [ [ -122.2149874, 47.6026938 ], [ -122.2147259, 47.602253 ], [ -122.2150234, 47.6027488 ], [ -122.2149874, 47.6026938 ] ] ], [ [ [ -122.2157578, 47.6052819 ], [ -122.2157965, 47.6053519 ], [ -122.2157625, 47.6053091 ], [ -122.2157578, 47.6052819 ] ] ], [ [ [ -122.2159785, 47.6058778 ], [ -122.2159688, 47.6065481 ], [ -122.2158161, 47.605391 ], [ -122.2159785, 47.6058778 ] ] ], [ [ [ -122.2156107, 47.6074862 ], [ -122.2155903, 47.6075225 ], [ -122.2155977, 47.6075076 ], [ -122.2156107, 47.6074862 ] ] ], [ [ [ -122.2153248, 47.6082404 ], [ -122.2150792, 47.6086644 ], [ -122.2155393, 47.6076656 ], [ -122.2153248, 47.6082404 ] ] ], [ [ [ -122.2096227, 47.6101472 ], [ -122.2096088, 47.6101598 ], [ -122.2095438, 47.6101235 ], [ -122.2096227, 47.6101472 ] ] ], [ [ [ -122.2120963, 47.6112228 ], [ -122.2116357, 47.6110762 ], [ -122.2129643, 47.6116154 ], [ -122.2120963, 47.6112228 ] ] ], [ [ [ -122.2154868, 47.6128388 ], [ -122.2155733, 47.6128911 ], [ -122.2154116, 47.6128126 ], [ -122.2154868, 47.6128388 ] ] ], [ [ [ -122.2171435, 47.6136268 ], [ -122.2177098, 47.613844 ], [ -122.2179943, 47.6141453 ], [ -122.2171435, 47.6136268 ] ] ], [ [ [ -122.218823, 47.614834 ], [ -122.218299, 47.6144092 ], [ -122.2190118, 47.6149227 ], [ -122.218823, 47.614834 ] ] ], [ [ [ -122.2191811, 47.6150023 ], [ -122.2190472, 47.6149394 ], [ -122.2197472, 47.6152488 ], [ -122.2191811, 47.6150023 ] ] ], [ [ [ -122.2109241, 47.6483084 ], [ -122.213764, 47.6428148 ], [ -122.2229283, 47.635975 ], [ -122.2222043, 47.6452824 ], [ -122.2189853, 47.6510994 ], [ -122.2139344, 47.6527528 ], [ -122.2130615, 47.6495792 ], [ -122.2109241, 47.6483084 ] ] ], [ [ [ -122.152186, 47.2356086 ], [ -122.1510972, 47.2346957 ], [ -122.1530861, 47.2347104 ], [ -122.152186, 47.2356086 ] ] ], [ [ [ -122.1501796, 47.2572541 ], [ -122.1538791, 47.2629071 ], [ -122.1480191, 47.2625799 ], [ -122.1438615, 47.257032 ], [ -122.1466235, 47.259209 ], [ -122.1504604, 47.259959 ], [ -122.1507312, 47.2614899 ], [ -122.1511021, 47.2603593 ], [ -122.1504544, 47.2597647 ], [ -122.1480938, 47.2588406 ], [ -122.1467039, 47.2590955 ], [ -122.1457402, 47.2573696 ], [ -122.137373, 47.253675 ], [ -122.138226, 47.2488564 ], [ -122.1358941, 47.2458773 ], [ -122.1362177, 47.2434027 ], [ -122.1341619, 47.2423557 ], [ -122.1324296, 47.2419655 ], [ -122.1359893, 47.2436787 ], [ -122.1354753, 47.2456965 ], [ -122.1358901, 47.2466526 ], [ -122.1342787, 47.2439927 ], [ -122.1320067, 47.243519 ], [ -122.1321531, 47.2345538 ], [ -122.1461593, 47.234659 ], [ -122.1467683, 47.2371068 ], [ -122.1537009, 47.2409378 ], [ -122.1527887, 47.2416622 ], [ -122.1558449, 47.2404686 ], [ -122.1555408, 47.2382411 ], [ -122.1580261, 47.23962 ], [ -122.1580078, 47.237037 ], [ -122.158288, 47.2527457 ], [ -122.2078084, 47.2535412 ], [ -122.2077351, 47.2573276 ], [ -122.1501796, 47.2572541 ] ] ], [ [ [ -122.1560599, 47.2635637 ], [ -122.1549369, 47.263711 ], [ -122.1539106, 47.2625111 ], [ -122.1546125, 47.2631102 ], [ -122.1560599, 47.2635637 ] ] ], [ [ [ -122.14784, 47.2632068 ], [ -122.1532501, 47.2634999 ], [ -122.1564986, 47.2718375 ], [ -122.1444651, 47.271868 ], [ -122.1440887, 47.2594427 ], [ -122.14784, 47.2632068 ] ] ], [ [ [ -122.1584109, 47.2717723 ], [ -122.1582771, 47.2718328 ], [ -122.1579909, 47.2714827 ], [ -122.1584109, 47.2717723 ] ] ], [ [ [ -122.1620164, 47.2900549 ], [ -122.1619685, 47.2904581 ], [ -122.1616866, 47.2899435 ], [ -122.1620164, 47.2900549 ] ] ], [ [ [ -122.1607931, 47.2884426 ], [ -122.1564054, 47.2863577 ], [ -122.1703998, 47.2863459 ], [ -122.1704443, 47.2899918 ], [ -122.1782208, 47.2900099 ], [ -122.1814803, 47.2918719 ], [ -122.1814612, 47.300034 ], [ -122.1954821, 47.3010409 ], [ -122.1973111, 47.3018977 ], [ -122.1973005, 47.3048354 ], [ -122.1937779, 47.3057296 ], [ -122.1930759, 47.3027767 ], [ -122.1888824, 47.301755 ], [ -122.188025, 47.3021771 ], [ -122.1878188, 47.303385 ], [ -122.1902535, 47.3049253 ], [ -122.1882903, 47.3062136 ], [ -122.1858226, 47.3046391 ], [ -122.1771651, 47.3032904 ], [ -122.1882676, 47.306528 ], [ -122.1905409, 47.3054881 ], [ -122.1904368, 47.3045375 ], [ -122.1882019, 47.3029519 ], [ -122.1885706, 47.3020858 ], [ -122.1928876, 47.3030265 ], [ -122.1935204, 47.305906 ], [ -122.1973477, 47.3056942 ], [ -122.1986732, 47.3043312 ], [ -122.2024409, 47.3118115 ], [ -122.2002204, 47.3118247 ], [ -122.1966076, 47.306273 ], [ -122.1917461, 47.3062743 ], [ -122.1917599, 47.3082622 ], [ -122.1758818, 47.3080364 ], [ -122.1759115, 47.3116245 ], [ -122.1707995, 47.3116525 ], [ -122.1670389, 47.3179389 ], [ -122.161454, 47.3241078 ], [ -122.1591616, 47.3307238 ], [ -122.1503023, 47.3357137 ], [ -122.1453206, 47.3447544 ], [ -122.1347455, 47.3506122 ], [ -122.1226832, 47.3446155 ], [ -122.1124811, 47.3523719 ], [ -122.1019145, 47.3543949 ], [ -122.1018348, 47.3473209 ], [ -122.0991067, 47.3473409 ], [ -122.0999943, 47.3491921 ], [ -122.0913751, 47.3537844 ], [ -122.0913844, 47.3554594 ], [ -122.0987545, 47.354528 ], [ -122.0999189, 47.3577428 ], [ -122.0661372, 47.3578322 ], [ -122.066154, 47.3544019 ], [ -122.0609375, 47.3544115 ], [ -122.0609641, 47.3498432 ], [ -122.0538908, 47.3482225 ], [ -122.0531375, 47.3376206 ], [ -122.0459819, 47.3362105 ], [ -122.0442509, 47.3283585 ], [ -122.0401427, 47.32539 ], [ -122.0376269, 47.3182138 ], [ -122.034044, 47.3150325 ], [ -122.0386214, 47.3150516 ], [ -122.0385467, 47.3109246 ], [ -122.0464217, 47.3086417 ], [ -122.0510487, 47.3022437 ], [ -122.0579697, 47.2977507 ], [ -122.0820097, 47.2976947 ], [ -122.0863897, 47.3010497 ], [ -122.0866925, 47.3044769 ], [ -122.0864195, 47.3011209 ], [ -122.0942855, 47.3000659 ], [ -122.0943684, 47.2931769 ], [ -122.0970444, 47.2932929 ], [ -122.0970104, 47.2916109 ], [ -122.1037074, 47.2913519 ], [ -122.1049864, 47.2865369 ], [ -122.1027834, 47.2849599 ], [ -122.1090593, 47.2815439 ], [ -122.1104563, 47.2782789 ], [ -122.1081443, 47.2767139 ], [ -122.1123629, 47.2757121 ], [ -122.1180786, 47.274915 ], [ -122.12719, 47.2776866 ], [ -122.1316411, 47.2754856 ], [ -122.1397883, 47.2844942 ], [ -122.1411983, 47.2843128 ], [ -122.1423413, 47.2834688 ], [ -122.1592646, 47.2877368 ], [ -122.1639747, 47.2936487 ], [ -122.1686857, 47.2942361 ], [ -122.172727, 47.3001354 ], [ -122.175802, 47.3027259 ], [ -122.1769341, 47.303096 ], [ -122.1771973, 47.3028229 ], [ -122.172646, 47.2995065 ], [ -122.1727022, 47.2977235 ], [ -122.1691798, 47.2942178 ], [ -122.1644983, 47.293502 ], [ -122.1636511, 47.2914664 ], [ -122.1607931, 47.2884426 ] ], [ [ -122.1669937, 47.3175107 ], [ -122.1670156, 47.3174788 ], [ -122.1669906, 47.3175128 ], [ -122.1669937, 47.3175107 ] ], [ [ -122.1684277, 47.3154207 ], [ -122.1685172, 47.3152574 ], [ -122.1684246, 47.3154228 ], [ -122.1684277, 47.3154207 ] ], [ [ -122.1711769, 47.3104061 ], [ -122.1716649, 47.3095332 ], [ -122.1716235, 47.3095877 ], [ -122.1711769, 47.3104061 ] ], [ [ -122.1745285, 47.3055907 ], [ -122.1744673, 47.3056773 ], [ -122.1766714, 47.3033686 ], [ -122.1745285, 47.3055907 ] ] ], [ [ [ -122.1720596, 47.2975731 ], [ -122.1724811, 47.2977747 ], [ -122.1723729, 47.2983765 ], [ -122.1720596, 47.2975731 ] ] ], [ [ [ -122.1998225, 47.3064991 ], [ -122.1998042, 47.306324 ], [ -122.2001601, 47.3067255 ], [ -122.1998225, 47.3064991 ] ] ], [ [ [ -122.1829506, 47.3338296 ], [ -122.183422, 47.3371236 ], [ -122.1814923, 47.3371302 ], [ -122.1813915, 47.3428965 ], [ -122.1763938, 47.3424433 ], [ -122.1764561, 47.3299495 ], [ -122.1787217, 47.3299827 ], [ -122.1829506, 47.3338296 ] ] ], [ [ [ -122.2081306, 47.3508942 ], [ -122.2075755, 47.3469872 ], [ -122.2049803, 47.343887 ], [ -122.2049067, 47.3430622 ], [ -122.2088824, 47.3486111 ], [ -122.2081306, 47.3508942 ] ] ], [ [ [ -122.2096205, 47.3487023 ], [ -122.2095205, 47.3506506 ], [ -122.2088548, 47.3508911 ], [ -122.2096205, 47.3487023 ] ] ], [ [ [ -122.1599404, 47.4135299 ], [ -122.1586117, 47.4149823 ], [ -122.16058, 47.4182775 ], [ -122.1652299, 47.4213506 ], [ -122.1723509, 47.4230596 ], [ -122.1741566, 47.430159 ], [ -122.1756518, 47.4301374 ], [ -122.1741648, 47.4304573 ], [ -122.1745163, 47.4332348 ], [ -122.1721883, 47.4377564 ], [ -122.1669546, 47.4396268 ], [ -122.1702183, 47.441046 ], [ -122.1701482, 47.4458642 ], [ -122.1620309, 47.4465719 ], [ -122.1626722, 47.4494121 ], [ -122.1603346, 47.4494156 ], [ -122.1613301, 47.4516454 ], [ -122.1646003, 47.451838 ], [ -122.1645384, 47.4555191 ], [ -122.169765, 47.4555764 ], [ -122.1626469, 47.4566509 ], [ -122.1643161, 47.4578794 ], [ -122.1642842, 47.465991 ], [ -122.1621693, 47.4656418 ], [ -122.158901, 47.4670505 ], [ -122.1567696, 47.4632418 ], [ -122.1546495, 47.4630324 ], [ -122.1563854, 47.4595975 ], [ -122.153537, 47.4590277 ], [ -122.1464721, 47.4607449 ], [ -122.1474395, 47.4627763 ], [ -122.1543221, 47.4655838 ], [ -122.1519811, 47.4666298 ], [ -122.1481802, 47.4654121 ], [ -122.1482196, 47.4632649 ], [ -122.1428292, 47.4632866 ], [ -122.1429385, 47.4596466 ], [ -122.1323876, 47.4594917 ], [ -122.1323678, 47.4613482 ], [ -122.1209272, 47.4618832 ], [ -122.1210137, 47.4635294 ], [ -122.1292103, 47.4642822 ], [ -122.1262459, 47.4651305 ], [ -122.1213818, 47.4635642 ], [ -122.1135439, 47.4641064 ], [ -122.1173832, 47.4649458 ], [ -122.1195166, 47.4637126 ], [ -122.1184375, 47.4658807 ], [ -122.1154396, 47.4646878 ], [ -122.1135438, 47.464637 ], [ -122.1070188, 47.4662604 ], [ -122.1056132, 47.464153 ], [ -122.1011123, 47.4627733 ], [ -122.0912045, 47.46215 ], [ -122.0874671, 47.4634606 ], [ -122.0859549, 47.4662011 ], [ -122.084094, 47.4664161 ], [ -122.079782, 47.463124 ], [ -122.0799533, 47.46018 ], [ -122.0790687, 47.4582727 ], [ -122.0792393, 47.4631058 ], [ -122.0823067, 47.4661543 ], [ -122.0848177, 47.4668342 ], [ -122.086449, 47.4663146 ], [ -122.0874679, 47.4640966 ], [ -122.0915115, 47.4625574 ], [ -122.1055775, 47.4643146 ], [ -122.1069468, 47.4664214 ], [ -122.1139936, 47.4649734 ], [ -122.1186616, 47.4663684 ], [ -122.1207254, 47.4637467 ], [ -122.1252369, 47.465606 ], [ -122.1299894, 47.4645709 ], [ -122.1365803, 47.4677238 ], [ -122.1306099, 47.4644936 ], [ -122.1426532, 47.4663742 ], [ -122.1441365, 47.4672388 ], [ -122.143577, 47.4700005 ], [ -122.1399136, 47.4678167 ], [ -122.1368657, 47.4676779 ], [ -122.1453371, 47.4708855 ], [ -122.1482445, 47.4702811 ], [ -122.1492643, 47.4693804 ], [ -122.1502844, 47.4695408 ], [ -122.1518457, 47.4712256 ], [ -122.1535563, 47.4716247 ], [ -122.1535387, 47.4738895 ], [ -122.1615199, 47.4740667 ], [ -122.161523, 47.4763312 ], [ -122.1641692, 47.4763602 ], [ -122.1641666, 47.4777169 ], [ -122.156419, 47.4776414 ], [ -122.1564611, 47.4812022 ], [ -122.1536222, 47.4811835 ], [ -122.1536019, 47.4794429 ], [ -122.1489213, 47.4794042 ], [ -122.1494546, 47.481143 ], [ -122.1376079, 47.481131 ], [ -122.137699, 47.4779286 ], [ -122.1324048, 47.4774313 ], [ -122.1323703, 47.4751503 ], [ -122.1270825, 47.4751229 ], [ -122.1269603, 47.4710435 ], [ -122.1248419, 47.4710173 ], [ -122.1248455, 47.4736256 ], [ -122.1215238, 47.4736582 ], [ -122.1216751, 47.4819065 ], [ -122.1269137, 47.4810964 ], [ -122.126972, 47.4826896 ], [ -122.1203192, 47.4840207 ], [ -122.1375436, 47.4833552 ], [ -122.1375399, 47.4846523 ], [ -122.1299052, 47.4850832 ], [ -122.1311163, 47.4873115 ], [ -122.1245248, 47.4862788 ], [ -122.1246, 47.4882664 ], [ -122.1350732, 47.4884428 ], [ -122.1352098, 47.4954656 ], [ -122.14303, 47.4956109 ], [ -122.1431574, 47.5010202 ], [ -122.14865, 47.5019709 ], [ -122.1434457, 47.502806 ], [ -122.1433742, 47.5087638 ], [ -122.14529, 47.5092619 ], [ -122.1453535, 47.5121128 ], [ -122.1430941, 47.5120751 ], [ -122.1430377, 47.5167333 ], [ -122.1587447, 47.5189354 ], [ -122.1594321, 47.5158266 ], [ -122.1698791, 47.5169285 ], [ -122.1711865, 47.5129932 ], [ -122.1698502, 47.5102464 ], [ -122.172625, 47.5084609 ], [ -122.1729736, 47.5136605 ], [ -122.1752342, 47.5136756 ], [ -122.1752213, 47.5154856 ], [ -122.1794756, 47.5155242 ], [ -122.179499, 47.5169454 ], [ -122.1857112, 47.5181809 ], [ -122.1853459, 47.5222529 ], [ -122.1893609, 47.5225837 ], [ -122.1908048, 47.5242806 ], [ -122.1907354, 47.5314544 ], [ -122.1936397, 47.5321297 ], [ -122.1921968, 47.5373607 ], [ -122.1960574, 47.5397478 ], [ -122.1966614, 47.5460197 ], [ -122.1905407, 47.5455481 ], [ -122.1905719, 47.5423644 ], [ -122.1698671, 47.540244 ], [ -122.165024, 47.5402296 ], [ -122.1642188, 47.5456563 ], [ -122.1535114, 47.5456496 ], [ -122.1533955, 47.5420551 ], [ -122.1428204, 47.5420106 ], [ -122.1428762, 47.5395921 ], [ -122.1347939, 47.5378825 ], [ -122.1300224, 47.5349511 ], [ -122.1203927, 47.5381937 ], [ -122.111106, 47.5362875 ], [ -122.1112119, 47.5395879 ], [ -122.1083012, 47.5395394 ], [ -122.1082987, 47.5406052 ], [ -122.1100548, 47.5405983 ], [ -122.1120414, 47.5446481 ], [ -122.1055924, 47.5452993 ], [ -122.1055802, 47.547752 ], [ -122.1044733, 47.5477451 ], [ -122.1044855, 47.5452923 ], [ -122.1004958, 47.5452462 ], [ -122.1004319, 47.5487119 ], [ -122.0948184, 47.5486176 ], [ -122.094814, 47.5520021 ], [ -122.0841983, 47.5518185 ], [ -122.0841281, 47.5483172 ], [ -122.07072, 47.5468859 ], [ -122.0683985, 47.5452706 ], [ -122.0735494, 47.5448485 ], [ -122.0736002, 47.5425561 ], [ -122.0709584, 47.5421009 ], [ -122.0736346, 47.542069 ], [ -122.0740119, 47.5377467 ], [ -122.0762752, 47.5377767 ], [ -122.0763472, 47.5305812 ], [ -122.0790028, 47.5306163 ], [ -122.0790987, 47.5198226 ], [ -122.0711332, 47.5197172 ], [ -122.0711124, 47.5220193 ], [ -122.0697847, 47.5220084 ], [ -122.0697198, 47.5196984 ], [ -122.0641155, 47.5196139 ], [ -122.0642132, 47.5162979 ], [ -122.0363849, 47.5156455 ], [ -122.0363685, 47.5120854 ], [ -122.0309473, 47.5120951 ], [ -122.030892, 47.5086672 ], [ -122.0265535, 47.5086619 ], [ -122.0268208, 47.5073446 ], [ -122.0256164, 47.5064948 ], [ -122.0256846, 47.5060934 ], [ -122.0264456, 47.5051658 ], [ -122.0266994, 47.5045777 ], [ -122.0268218, 47.5036139 ], [ -122.0267683, 47.5025865 ], [ -122.0266492, 47.5022819 ], [ -122.0261055, 47.50196 ], [ -122.0265619, 47.5010361 ], [ -122.0261181, 47.5007893 ], [ -122.0247976, 47.5007604 ], [ -122.0248332, 47.5002064 ], [ -122.0236022, 47.4998292 ], [ -122.0271648, 47.4963152 ], [ -122.0270172, 47.4959511 ], [ -122.0261787, 47.4953605 ], [ -122.0259433, 47.4945882 ], [ -122.0253949, 47.4938652 ], [ -122.0256608, 47.4928199 ], [ -122.0262782, 47.4920462 ], [ -122.0264324, 47.4915657 ], [ -122.026219, 47.4901781 ], [ -122.0269474, 47.4895807 ], [ -122.0274167, 47.4889184 ], [ -122.0273683, 47.4885507 ], [ -122.0261807, 47.4874979 ], [ -122.0268193, 47.486985 ], [ -122.0273073, 47.4860436 ], [ -122.0277679, 47.4857379 ], [ -122.0297325, 47.4855412 ], [ -122.0301459, 47.4853216 ], [ -122.0305473, 47.4845998 ], [ -122.0317523, 47.4842223 ], [ -122.0320301, 47.4834495 ], [ -122.0327683, 47.483077 ], [ -122.0334876, 47.4820259 ], [ -122.0319944, 47.4834359 ], [ -122.0317202, 47.4842054 ], [ -122.0305189, 47.4845802 ], [ -122.029717, 47.4855154 ], [ -122.0277419, 47.4857168 ], [ -122.027272, 47.4860297 ], [ -122.0261415, 47.4874891 ], [ -122.0273765, 47.4889152 ], [ -122.0261794, 47.4901711 ], [ -122.0253548, 47.4938688 ], [ -122.0261421, 47.4953723 ], [ -122.0271241, 47.4963108 ], [ -122.0235617, 47.4998304 ], [ -122.0247776, 47.5007844 ], [ -122.0265223, 47.5010427 ], [ -122.0260642, 47.5019627 ], [ -122.0266592, 47.5045739 ], [ -122.025646, 47.5060849 ], [ -122.0255759, 47.5064946 ], [ -122.0267814, 47.5074921 ], [ -122.0265124, 47.5086618 ], [ -122.0230845, 47.5086616 ], [ -122.0223348, 47.4945077 ], [ -122.0290661, 47.4783401 ], [ -122.0052875, 47.4756492 ], [ -122.0019766, 47.4788312 ], [ -121.9894796, 47.4785722 ], [ -121.9876946, 47.4802352 ], [ -121.9882746, 47.4841332 ], [ -121.9819117, 47.4892682 ], [ -121.9758677, 47.4902062 ], [ -121.9663467, 47.4953872 ], [ -121.9576788, 47.4979692 ], [ -121.9555727, 47.4968192 ], [ -121.9626777, 47.4908442 ], [ -121.9629252, 47.4890177 ], [ -121.9552857, 47.4893662 ], [ -121.9628707, 47.4803192 ], [ -121.9644256, 47.4713112 ], [ -121.9528726, 47.4641412 ], [ -121.9498996, 47.4574771 ], [ -121.9516216, 47.4537741 ], [ -121.9602275, 47.4474581 ], [ -121.9651604, 47.4376541 ], [ -121.9753034, 47.4355681 ], [ -121.9728034, 47.4340751 ], [ -121.9730763, 47.4269011 ], [ -121.9713344, 47.4278671 ], [ -121.9682064, 47.4240911 ], [ -121.9589434, 47.4225641 ], [ -121.9519874, 47.4263821 ], [ -121.9460735, 47.4256061 ], [ -121.9339705, 47.420845 ], [ -121.9209765, 47.4119369 ], [ -121.9266245, 47.4101289 ], [ -121.9291884, 47.4040789 ], [ -121.9255715, 47.4031099 ], [ -121.9218025, 47.3996759 ], [ -121.9224455, 47.3982399 ], [ -121.9292484, 47.3969639 ], [ -121.9389574, 47.3988669 ], [ -121.9528803, 47.395372 ], [ -121.9639252, 47.395244 ], [ -121.9736292, 47.3923291 ], [ -121.9736011, 47.3848161 ], [ -121.9698041, 47.377447 ], [ -121.9713316, 47.3749033 ], [ -121.9804192, 47.3771648 ], [ -121.9839523, 47.3796076 ], [ -121.984531, 47.381116 ], [ -121.985315, 47.3819416 ], [ -121.9860861, 47.382308 ], [ -121.9872583, 47.3821748 ], [ -121.9898938, 47.3810996 ], [ -121.9930625, 47.3807588 ], [ -121.9940044, 47.3822516 ], [ -121.9915771, 47.3847864 ], [ -121.9928701, 47.3857696 ], [ -122.0005504, 47.3840462 ], [ -122.0050634, 47.3821868 ], [ -122.0068925, 47.3833816 ], [ -122.006645, 47.38571 ], [ -122.0069157, 47.3860362 ], [ -122.0075903, 47.3860868 ], [ -122.0091099, 47.385245 ], [ -122.0096486, 47.3840892 ], [ -122.0095828, 47.3829006 ], [ -122.008772, 47.381634 ], [ -122.0108366, 47.380509 ], [ -122.0129366, 47.3818946 ], [ -122.0169702, 47.382307 ], [ -122.0155214, 47.3836086 ], [ -122.0169052, 47.3838274 ], [ -122.0169826, 47.3820552 ], [ -122.0107664, 47.3802742 ], [ -122.0091054, 47.3808898 ], [ -122.0085716, 47.3813622 ], [ -122.0093639, 47.3839784 ], [ -122.0076035, 47.3859434 ], [ -122.0072011, 47.3833388 ], [ -122.0051955, 47.3820434 ], [ -121.9928353, 47.3855708 ], [ -121.9918241, 47.3847794 ], [ -121.9941538, 47.3821812 ], [ -121.9930749, 47.3805878 ], [ -121.9898711, 47.3809738 ], [ -121.9859958, 47.3821094 ], [ -121.9842138, 47.3796098 ], [ -121.9805667, 47.3771392 ], [ -121.9715135, 47.374727 ], [ -121.9754721, 47.3737031 ], [ -121.982273, 47.3758631 ], [ -121.9912452, 47.375953 ], [ -122.0022757, 47.3707437 ], [ -122.0103587, 47.3700707 ], [ -122.0121587, 47.3663077 ], [ -122.016274, 47.3652426 ], [ -122.0163225, 47.3745161 ], [ -122.0212511, 47.3758401 ], [ -122.0212545, 47.3785395 ], [ -122.0173318, 47.3785244 ], [ -122.0211627, 47.3803773 ], [ -122.0231654, 47.3843445 ], [ -122.0318718, 47.3894894 ], [ -122.0318476, 47.3939134 ], [ -122.0395941, 47.3952697 ], [ -122.0427961, 47.3986041 ], [ -122.0426271, 47.4014981 ], [ -122.0394125, 47.4055668 ], [ -122.041562, 47.405585 ], [ -122.0415429, 47.4066344 ], [ -122.0481458, 47.410861 ], [ -122.0493275, 47.4166575 ], [ -122.0487462, 47.4176371 ], [ -122.0430324, 47.419214 ], [ -122.042283, 47.4197388 ], [ -122.0422826, 47.4202516 ], [ -122.043403, 47.4212416 ], [ -122.0464368, 47.4224272 ], [ -122.0460502, 47.4244616 ], [ -122.0475935, 47.4251554 ], [ -122.0466931, 47.4221205 ], [ -122.042591, 47.4197416 ], [ -122.0465092, 47.4186196 ], [ -122.0493115, 47.4219262 ], [ -122.054953, 47.422243 ], [ -122.054872, 47.426742 ], [ -122.053421, 47.42673 ], [ -122.059034, 47.427027 ], [ -122.058953, 47.431525 ], [ -122.0576316, 47.4315271 ], [ -122.0598503, 47.4333479 ], [ -122.066481, 47.433363 ], [ -122.066985, 47.43604 ], [ -122.070318, 47.436067 ], [ -122.0700223, 47.4405642 ], [ -122.0719788, 47.4423273 ], [ -122.076696, 47.442365 ], [ -122.076617, 47.446864 ], [ -122.0736716, 47.44684 ], [ -122.0742038, 47.4505037 ], [ -122.0796428, 47.4579777 ], [ -122.0778874, 47.453124 ], [ -122.0808368, 47.429832 ], [ -122.0799082, 47.427564 ], [ -122.0831882, 47.422847 ], [ -122.0733312, 47.420782 ], [ -122.0567351, 47.412112 ], [ -122.0485901, 47.4041011 ], [ -122.0441986, 47.3970713 ], [ -122.0448608, 47.3943209 ], [ -122.0584835, 47.3869867 ], [ -122.0496531, 47.3869123 ], [ -122.0483064, 47.3804148 ], [ -122.0511931, 47.3783198 ], [ -122.0509755, 47.3768572 ], [ -122.0591137, 47.376228 ], [ -122.05918, 47.3726684 ], [ -122.0698439, 47.3726831 ], [ -122.0685557, 47.3760438 ], [ -122.062314, 47.3768047 ], [ -122.059363, 47.3796148 ], [ -122.056214, 47.3796502 ], [ -122.0563587, 47.3833305 ], [ -122.0563226, 47.3798236 ], [ -122.0596409, 47.3796953 ], [ -122.0622777, 47.3770102 ], [ -122.0673501, 47.3765578 ], [ -122.0698345, 47.375571 ], [ -122.0805806, 47.3761744 ], [ -122.0805727, 47.3773273 ], [ -122.1015196, 47.3679667 ], [ -122.1013961, 47.3749903 ], [ -122.0800693, 47.3848518 ], [ -122.0801023, 47.3872577 ], [ -122.0991087, 47.3876196 ], [ -122.1053618, 47.386824 ], [ -122.107009, 47.3851634 ], [ -122.1070169, 47.3834261 ], [ -122.1019172, 47.3840584 ], [ -122.102063, 47.376037 ], [ -122.1122134, 47.3760499 ], [ -122.1122012, 47.3796081 ], [ -122.1281005, 47.378768 ], [ -122.1281094, 47.375931 ], [ -122.1387038, 47.3768578 ], [ -122.1386821, 47.384073 ], [ -122.1417059, 47.3831792 ], [ -122.1434597, 47.3855827 ], [ -122.1495396, 47.3870168 ], [ -122.1530146, 47.3919247 ], [ -122.1545213, 47.3919499 ], [ -122.155998, 47.3967021 ], [ -122.1587242, 47.3977643 ], [ -122.1599404, 47.4135299 ] ], [ [ -122.1431379, 47.5236648 ], [ -122.1430942, 47.5276519 ], [ -122.1430943, 47.5276519 ], [ -122.1431379, 47.5236648 ] ], [ [ -122.1378082, 47.5212468 ], [ -122.137812, 47.5209787 ], [ -122.1378175, 47.5205817 ], [ -122.1378082, 47.5212468 ] ], [ [ -122.1405178, 47.5163546 ], [ -122.1391137, 47.5163468 ], [ -122.1399145, 47.5163513 ], [ -122.1405178, 47.5163546 ] ], [ [ -122.1378768, 47.5163399 ], [ -122.1385647, 47.5163438 ], [ -122.1391137, 47.5163468 ], [ -122.1378768, 47.5163399 ] ], [ [ -122.162387, 47.5184605 ], [ -122.1620282, 47.518229 ], [ -122.1621233, 47.5183217 ], [ -122.162387, 47.5184605 ] ], [ [ -122.1626537, 47.5185131 ], [ -122.1654771, 47.5187371 ], [ -122.162387, 47.5184605 ], [ -122.1626537, 47.5185131 ] ], [ [ -122.1664811, 47.5186491 ], [ -122.1770505, 47.5169379 ], [ -122.1654771, 47.5187371 ], [ -122.1664811, 47.5186491 ] ], [ [ -122.1619285, 47.5179732 ], [ -122.1619514, 47.5180923 ], [ -122.1620282, 47.518229 ], [ -122.1619285, 47.5179732 ] ], [ [ -122.1618584, 47.5177934 ], [ -122.1618318, 47.5177776 ], [ -122.1618606, 47.517799 ], [ -122.1618584, 47.5177934 ] ], [ [ -122.1949448, 47.5432106 ], [ -122.1950406, 47.5421099 ], [ -122.1949905, 47.5426498 ], [ -122.1949448, 47.5432106 ] ], [ [ -122.1948028, 47.5440345 ], [ -122.1947831, 47.5432169 ], [ -122.1947284, 47.544034 ], [ -122.1948028, 47.5440345 ] ], [ [ -122.0316406, 47.4823521 ], [ -122.0301875, 47.4832774 ], [ -122.0317049, 47.4823182 ], [ -122.0316406, 47.4823521 ] ], [ [ -122.0317242, 47.482309 ], [ -122.0331559, 47.4819816 ], [ -122.0323286, 47.4821101 ], [ -122.0317242, 47.482309 ] ], [ [ -122.0632274, 47.4384146 ], [ -122.0629113, 47.4384121 ], [ -122.063624, 47.4396089 ], [ -122.0632274, 47.4384146 ] ], [ [ -122.060322, 47.437812 ], [ -122.0559467, 47.4371648 ], [ -122.055632, 47.4357582 ], [ -122.0527952, 47.431535 ], [ -122.0559981, 47.4378776 ], [ -122.0582215, 47.4387261 ], [ -122.060322, 47.437812 ] ], [ [ -122.0521585, 47.4310105 ], [ -122.0505678, 47.4315055 ], [ -122.0521814, 47.4297382 ], [ -122.0502541, 47.4314658 ], [ -122.0515397, 47.4318192 ], [ -122.0521585, 47.4310105 ] ], [ [ -122.0521937, 47.4273168 ], [ -122.0523497, 47.4267211 ], [ -122.0521002, 47.426719 ], [ -122.0521937, 47.4273168 ] ], [ [ -121.9995039, 47.3788612 ], [ -121.9994257, 47.3788357 ], [ -121.998256, 47.3779275 ], [ -121.9993569, 47.3788142 ], [ -121.9995039, 47.3788612 ] ], [ [ -121.9977797, 47.3775577 ], [ -121.9977094, 47.3775192 ], [ -121.9977769, 47.3775602 ], [ -121.9977797, 47.3775577 ] ], [ [ -121.9957683, 47.3764554 ], [ -121.9958909, 47.3765302 ], [ -121.9962876, 47.37674 ], [ -121.9957683, 47.3764554 ] ], [ [ -121.9949277, 47.3759947 ], [ -121.9949166, 47.3759946 ], [ -121.994925, 47.3759972 ], [ -121.9949277, 47.3759947 ] ], [ [ -122.0134707, 47.3770337 ], [ -122.0134529, 47.3770314 ], [ -122.0134679, 47.3770361 ], [ -122.0134707, 47.3770337 ] ], [ [ -122.0118437, 47.3768227 ], [ -122.0118226, 47.3768263 ], [ -122.0118409, 47.3768251 ], [ -122.0118437, 47.3768227 ] ], [ [ -122.0102427, 47.3770967 ], [ -122.0101682, 47.3771228 ], [ -122.0102399, 47.3770992 ], [ -122.0102427, 47.3770967 ] ], [ [ -122.0043997, 47.3791477 ], [ -122.0043756, 47.379129 ], [ -122.0045599, 47.3790915 ], [ -122.0043997, 47.3791477 ] ], [ [ -122.0040807, 47.3788997 ], [ -122.0040592, 47.3788961 ], [ -122.0040779, 47.3789022 ], [ -122.0040807, 47.3788997 ] ], [ [ -122.0035489, 47.3788132 ], [ -122.0035897, 47.3788171 ], [ -122.0015291, 47.378823 ], [ -122.0035489, 47.3788132 ] ], [ [ -122.0371739, 47.4031214 ], [ -122.0389444, 47.401624 ], [ -122.0390791, 47.4006896 ], [ -122.0356844, 47.3996624 ], [ -122.0360578, 47.398388 ], [ -122.0349966, 47.3972536 ], [ -122.029882, 47.3970398 ], [ -122.0311394, 47.3937752 ], [ -122.0310581, 47.3931532 ], [ -122.0303739, 47.392527 ], [ -122.0284942, 47.39189 ], [ -122.0237678, 47.3925608 ], [ -122.0243335, 47.3877514 ], [ -122.0220245, 47.387768 ], [ -122.0167869, 47.3892348 ], [ -122.0149663, 47.388832 ], [ -122.017069, 47.3896062 ], [ -122.0242626, 47.387922 ], [ -122.0235073, 47.3925586 ], [ -122.0305152, 47.392843 ], [ -122.0292568, 47.396539 ], [ -122.0298924, 47.3972652 ], [ -122.0311707, 47.3975548 ], [ -122.035502, 47.397843 ], [ -122.0356242, 47.3998866 ], [ -122.03897, 47.4011116 ], [ -122.0368921, 47.4025876 ], [ -122.0373572, 47.4048954 ], [ -122.0379936, 47.4055036 ], [ -122.0386198, 47.4055601 ], [ -122.0371739, 47.4031214 ] ], [ [ -122.0131907, 47.3857172 ], [ -122.0130894, 47.3845502 ], [ -122.0139142, 47.3835002 ], [ -122.0127938, 47.3845212 ], [ -122.0131907, 47.3857172 ] ] ], [ [ [ -122.1618604, 47.4659816 ], [ -122.1614237, 47.4662273 ], [ -122.1628224, 47.4657814 ], [ -122.1618604, 47.4659816 ] ] ], [ [ [ -122.1497031, 47.4691995 ], [ -122.1497053, 47.4691992 ], [ -122.1497079, 47.4692 ], [ -122.1497031, 47.4691995 ] ] ], [ [ [ -122.1507464, 47.4695438 ], [ -122.1505133, 47.4694259 ], [ -122.1510262, 47.4695698 ], [ -122.1507464, 47.4695438 ] ] ], [ [ [ -122.1468936, 47.4703342 ], [ -122.1479478, 47.4698693 ], [ -122.1452899, 47.4705562 ], [ -122.1468936, 47.4703342 ] ] ], [ [ [ -122.1520955, 47.4711644 ], [ -122.1520023, 47.4708228 ], [ -122.153095, 47.4713325 ], [ -122.1520955, 47.4711644 ] ] ], [ [ [ -122.2089354, 47.5026754 ], [ -122.2080893, 47.5028805 ], [ -122.2091086, 47.5022697 ], [ -122.2089354, 47.5026754 ] ] ], [ [ [ -122.2056942, 47.504609 ], [ -122.2051491, 47.504642 ], [ -122.205519, 47.5044203 ], [ -122.2056942, 47.504609 ] ] ], [ [ [ -122.1486521, 47.505476 ], [ -122.1473074, 47.504486 ], [ -122.1473506, 47.5063986 ], [ -122.1460356, 47.5064779 ], [ -122.1470414, 47.5042022 ], [ -122.1486521, 47.505476 ] ] ], [ [ [ -122.2027224, 47.5068288 ], [ -122.2025378, 47.5070024 ], [ -122.2024493, 47.5068159 ], [ -122.2027224, 47.5068288 ] ] ], [ [ [ -122.2085444, 47.5440152 ], [ -122.2084458, 47.5437802 ], [ -122.2087756, 47.5436281 ], [ -122.2085444, 47.5440152 ] ] ], [ [ [ -122.1967798, 47.5532336 ], [ -122.1965392, 47.5531855 ], [ -122.1970049, 47.5531463 ], [ -122.1967798, 47.5532336 ] ] ], [ [ [ -122.2092214, 47.5596601 ], [ -122.209153, 47.5598003 ], [ -122.2092282, 47.5595288 ], [ -122.2092214, 47.5596601 ] ] ], [ [ [ -122.2079797, 47.5674811 ], [ -122.207951, 47.5675756 ], [ -122.2079276, 47.5675638 ], [ -122.2079797, 47.5674811 ] ] ], [ [ [ -122.1949576, 47.570983 ], [ -122.1948977, 47.5710991 ], [ -122.194753, 47.5704759 ], [ -122.1949576, 47.570983 ] ] ], [ [ [ -122.194803, 47.5712112 ], [ -122.1948056, 47.5712108 ], [ -122.1947794, 47.5712426 ], [ -122.194803, 47.5712112 ] ] ], [ [ [ -122.2036944, 47.5723952 ], [ -122.2035421, 47.5726132 ], [ -122.2035852, 47.5725481 ], [ -122.2036944, 47.5723952 ] ] ], [ [ [ -122.2075278, 47.590526 ], [ -122.2073676, 47.5903942 ], [ -122.2078243, 47.5905891 ], [ -122.2075278, 47.590526 ] ] ], [ [ [ -122.2079003, 47.5906368 ], [ -122.2078938, 47.5906309 ], [ -122.207899, 47.590634 ], [ -122.2079003, 47.5906368 ] ] ], [ [ [ -122.2082569, 47.5913402 ], [ -122.2087297, 47.5916384 ], [ -122.2088164, 47.5917481 ], [ -122.2082569, 47.5913402 ] ] ], [ [ [ -122.2089501, 47.5920808 ], [ -122.2089687, 47.5920977 ], [ -122.2089525, 47.5920913 ], [ -122.2089501, 47.5920808 ] ] ], [ [ [ -122.2092073, 47.5924872 ], [ -122.2091056, 47.5922692 ], [ -122.209716, 47.5925529 ], [ -122.2092073, 47.5924872 ] ] ], [ [ [ -122.2081527, 47.6090353 ], [ -122.2080246, 47.6090551 ], [ -122.2074972, 47.6083776 ], [ -122.2081527, 47.6090353 ] ] ], [ [ [ -122.2091621, 47.609951 ], [ -122.2092372, 47.6099946 ], [ -122.2090177, 47.6098962 ], [ -122.2091621, 47.609951 ] ] ], [ [ [ -122.2047654, 47.6500918 ], [ -122.2048223, 47.6500212 ], [ -122.2047386, 47.650137 ], [ -122.2047654, 47.6500918 ] ] ], [ [ [ -122.1695105, 47.6567326 ], [ -122.1695413, 47.6605724 ], [ -122.1643304, 47.6605162 ], [ -122.1647724, 47.646217 ], [ -122.1802409, 47.646392 ], [ -122.1802975, 47.6535609 ], [ -122.1856448, 47.6535753 ], [ -122.1856419, 47.661083 ], [ -122.1804849, 47.6609327 ], [ -122.180553, 47.6568594 ], [ -122.1695105, 47.6567326 ] ] ], [ [ [ -122.2093366, 47.6565228 ], [ -122.2090092, 47.6566043 ], [ -122.2093117, 47.6562379 ], [ -122.2093366, 47.6565228 ] ] ], [ [ [ -122.2086011, 47.6567059 ], [ -122.2084581, 47.6567415 ], [ -122.2084582, 47.6567318 ], [ -122.2086011, 47.6567059 ] ] ], [ [ [ -122.1601659, 47.685958 ], [ -122.164293, 47.6854243 ], [ -122.1646074, 47.6876482 ], [ -122.1622439, 47.6876355 ], [ -122.1601659, 47.685958 ] ] ], [ [ [ -122.0426872, 47.1618521 ], [ -122.0805585, 47.1621631 ], [ -122.0802479, 47.1801577 ], [ -122.0574949, 47.1794938 ], [ -122.0486153, 47.1712093 ], [ -122.0428484, 47.1718536 ], [ -122.0426801, 47.1656238 ], [ -122.0502517, 47.1705722 ], [ -122.0513605, 47.1707078 ], [ -122.0538129, 47.1699608 ], [ -122.0569343, 47.1721078 ], [ -122.0587472, 47.1720639 ], [ -122.0538855, 47.1698916 ], [ -122.0500579, 47.1703344 ], [ -122.0489855, 47.1683222 ], [ -122.0426806, 47.1653561 ], [ -122.0426872, 47.1618521 ] ] ], [ [ [ -122.083656, 47.210667 ], [ -122.086653, 47.210691 ], [ -122.086575, 47.215189 ], [ -122.079973, 47.215136 ], [ -122.08001, 47.212986 ], [ -122.077013, 47.212962 ], [ -122.077091, 47.208463 ], [ -122.083693, 47.208516 ], [ -122.083656, 47.210667 ] ] ], [ [ [ -122.094427, 47.216393 ], [ -122.09435, 47.220892 ], [ -122.086984, 47.220073 ], [ -122.087061, 47.215574 ], [ -122.094427, 47.216393 ] ] ], [ [ [ -122.105849, 47.230833 ], [ -122.099245, 47.230781 ], [ -122.099023, 47.225432 ], [ -122.105627, 47.225483 ], [ -122.105849, 47.230833 ] ] ], [ [ [ -122.110633, 47.238138 ], [ -122.103746, 47.237999 ], [ -122.103821, 47.2335 ], [ -122.110708, 47.233639 ], [ -122.110633, 47.238138 ] ] ], [ [ [ -122.108697, 47.244816 ], [ -122.108406, 47.240134 ], [ -122.115011, 47.240185 ], [ -122.115351, 47.242039 ], [ -122.11958, 47.242071 ], [ -122.119505, 47.24657 ], [ -122.112899, 47.246519 ], [ -122.112927, 47.244848 ], [ -122.108697, 47.244816 ] ] ], [ [ [ -122.1378833, 47.248904 ], [ -122.137399, 47.2491107 ], [ -122.1374332, 47.248204 ], [ -122.1378833, 47.248904 ] ] ], [ [ [ -122.104657, 47.248336 ], [ -122.111263, 47.248388 ], [ -122.111188, 47.252887 ], [ -122.104581, 47.252835 ], [ -122.104657, 47.248336 ] ] ], [ [ [ -122.1400738, 47.2557872 ], [ -122.1368487, 47.2545097 ], [ -122.1368987, 47.2541627 ], [ -122.1400738, 47.2557872 ] ] ], [ [ [ -122.123089, 47.251373 ], [ -122.13035, 47.253355 ], [ -122.130283, 47.257453 ], [ -122.135261, 47.259094 ], [ -122.135195, 47.263594 ], [ -122.12513, 47.262989 ], [ -122.125204, 47.258491 ], [ -122.126766, 47.257827 ], [ -122.117423, 47.25598 ], [ -122.117477, 47.252731 ], [ -122.114777, 47.252148 ], [ -122.114852, 47.247649 ], [ -122.123144, 47.248031 ], [ -122.123089, 47.251373 ] ] ], [ [ [ -122.137002, 47.265212 ], [ -122.136518, 47.260707 ], [ -122.143682, 47.260875 ], [ -122.143611, 47.265378 ], [ -122.137002, 47.265212 ] ] ], [ [ [ -122.1412852, 47.2841544 ], [ -122.1409596, 47.2841498 ], [ -122.1412038, 47.2839322 ], [ -122.1412852, 47.2841544 ] ] ], [ [ [ -122.1068943, 47.5472162 ], [ -122.1080971, 47.5455891 ], [ -122.1081017, 47.5472239 ], [ -122.1068943, 47.5472162 ] ] ], [ [ [ -122.1156888, 47.5485272 ], [ -122.1131506, 47.5486009 ], [ -122.1131464, 47.5481816 ], [ -122.1157815, 47.5472712 ], [ -122.1156888, 47.5485272 ] ] ], [ [ [ -122.1019654, 47.5490662 ], [ -122.1018807, 47.5499046 ], [ -122.1004388, 47.5489404 ], [ -122.1019654, 47.5490662 ] ] ], [ [ [ -122.0706957, 47.5577857 ], [ -122.0714463, 47.5566891 ], [ -122.0716491, 47.5565596 ], [ -122.0710864, 47.5576466 ], [ -122.0706957, 47.5577857 ] ] ], [ [ [ -122.0678569, 47.5575505 ], [ -122.0680352, 47.5575471 ], [ -122.0675987, 47.5575777 ], [ -122.0678569, 47.5575505 ] ] ], [ [ [ -122.0705644, 47.557756 ], [ -122.070602, 47.5577708 ], [ -122.0705866, 47.5577684 ], [ -122.0705644, 47.557756 ] ] ], [ [ [ -122.0650851, 47.5594988 ], [ -122.0661398, 47.5584369 ], [ -122.0649482, 47.5604049 ], [ -122.0650851, 47.5594988 ] ] ], [ [ [ -122.0654564, 47.5617942 ], [ -122.064485, 47.5614067 ], [ -122.0645442, 47.5612093 ], [ -122.0654564, 47.5617942 ] ] ], [ [ [ -122.0646598, 47.5622554 ], [ -122.0643071, 47.5621742 ], [ -122.0649695, 47.5621591 ], [ -122.0646598, 47.5622554 ] ] ], [ [ [ -122.063843, 47.5625845 ], [ -122.0638751, 47.5625469 ], [ -122.0637858, 47.5627113 ], [ -122.063843, 47.5625845 ] ] ], [ [ [ -122.0603248, 47.5633824 ], [ -122.0576322, 47.5620002 ], [ -122.0566494, 47.5622886 ], [ -122.0577021, 47.5619109 ], [ -122.0603248, 47.5633824 ] ] ], [ [ [ -122.0634466, 47.5628636 ], [ -122.0635641, 47.5628451 ], [ -122.0634828, 47.5628664 ], [ -122.0634466, 47.5628636 ] ] ], [ [ [ -122.0612111, 47.5633514 ], [ -122.0616508, 47.5633258 ], [ -122.0607036, 47.5633892 ], [ -122.0612111, 47.5633514 ] ] ], [ [ [ -122.0923638, 47.654058 ], [ -122.0924966, 47.6544931 ], [ -122.0916842, 47.6534964 ], [ -122.0923638, 47.654058 ] ] ], [ [ [ -122.0925536, 47.6549853 ], [ -122.1036049, 47.6526349 ], [ -122.1094453, 47.6534992 ], [ -122.1143373, 47.6570284 ], [ -122.1236322, 47.6604924 ], [ -122.1241516, 47.6621876 ], [ -122.1266093, 47.663925 ], [ -122.1259266, 47.6658274 ], [ -122.1260643, 47.6666117 ], [ -122.1107063, 47.6671682 ], [ -122.1106849, 47.6643041 ], [ -122.1047027, 47.6642999 ], [ -122.1047358, 47.6623335 ], [ -122.0999681, 47.6622989 ], [ -122.0999675, 47.6592812 ], [ -122.0964015, 47.6596608 ], [ -122.0925536, 47.6549853 ] ] ], [ [ [ -122.1234417, 47.660131 ], [ -122.1153012, 47.6571876 ], [ -122.1186372, 47.6557916 ], [ -122.1257035, 47.66179 ], [ -122.1264563, 47.6632613 ], [ -122.1234417, 47.660131 ] ] ], [ [ [ -122.1261518, 47.6660902 ], [ -122.1264861, 47.6665828 ], [ -122.1262868, 47.6665965 ], [ -122.1261518, 47.6660902 ] ] ], [ [ [ -121.9877981, 47.1631164 ], [ -121.9885836, 47.1628076 ], [ -121.9882877, 47.1630379 ], [ -121.9877981, 47.1631164 ] ] ], [ [ [ -121.9893153, 47.1629227 ], [ -121.9908913, 47.1626902 ], [ -121.9917171, 47.1636173 ], [ -121.9911817, 47.1630827 ], [ -121.9893153, 47.1629227 ] ] ], [ [ [ -121.9871363, 47.1634896 ], [ -121.9864363, 47.163495 ], [ -121.9873691, 47.163364 ], [ -121.9871363, 47.1634896 ] ] ], [ [ [ -121.9900013, 47.1623835 ], [ -121.9791835, 47.1634378 ], [ -121.9750271, 47.1612674 ], [ -121.9936669, 47.1614321 ], [ -121.9941954, 47.1678517 ], [ -121.9920185, 47.1629246 ], [ -121.9900013, 47.1623835 ] ] ], [ [ [ -122.0010129, 47.1701785 ], [ -122.0016197, 47.1697178 ], [ -122.0027103, 47.170205 ], [ -122.0010129, 47.1701785 ] ] ], [ [ [ -122.0042373, 47.1701084 ], [ -122.0045013, 47.1700702 ], [ -122.0042004, 47.1701629 ], [ -122.0042373, 47.1701084 ] ] ], [ [ [ -122.0564704, 47.1792731 ], [ -122.0538547, 47.1779677 ], [ -122.0540959, 47.17744 ], [ -122.0564704, 47.1792731 ] ] ], [ [ [ -122.0065932, 47.174006 ], [ -122.0125452, 47.176207 ], [ -122.0191691, 47.1748077 ], [ -122.0185329, 47.1760362 ], [ -122.0231584, 47.174042 ], [ -122.031092, 47.1753336 ], [ -122.0374664, 47.1733603 ], [ -122.0375127, 47.1847287 ], [ -122.0481287, 47.1848437 ], [ -122.0481917, 47.1920057 ], [ -122.0427667, 47.1921627 ], [ -122.0382997, 47.1936887 ], [ -122.0375037, 47.1955097 ], [ -122.0323387, 47.1955247 ], [ -122.0162913, 47.1914342 ], [ -122.0162808, 47.1828235 ], [ -122.0136925, 47.1795157 ], [ -122.0109897, 47.181266 ], [ -122.0109902, 47.1847038 ], [ -122.0072064, 47.1847165 ], [ -121.9984948, 47.191996 ], [ -121.9842547, 47.1919862 ], [ -121.9842287, 47.1776077 ], [ -121.9945297, 47.1775007 ], [ -121.9945639, 47.1726485 ], [ -122.0022061, 47.1703286 ], [ -122.0036359, 47.1706077 ], [ -122.0029722, 47.1717319 ], [ -122.0064002, 47.1711717 ], [ -122.0065932, 47.174006 ] ] ], [ [ [ -122.0145787, 47.1928087 ], [ -122.016356, 47.1920019 ], [ -122.0163755, 47.1928087 ], [ -122.0145787, 47.1928087 ] ] ], [ [ [ -122.0165007, 47.2073099 ], [ -122.0164659, 47.1992285 ], [ -122.0210503, 47.1992258 ], [ -122.021601, 47.1974819 ], [ -122.0242456, 47.1974787 ], [ -122.0242539, 47.1956578 ], [ -122.0282227, 47.1956571 ], [ -122.0282162, 47.1974828 ], [ -122.0315443, 47.197477 ], [ -122.0322083, 47.2064104 ], [ -122.042136, 47.208018 ], [ -122.042055, 47.212516 ], [ -122.023033, 47.212308 ], [ -122.0228991, 47.2102764 ], [ -122.0164108, 47.2103125 ], [ -122.016401, 47.2092438 ], [ -122.019396, 47.2092463 ], [ -122.0165007, 47.2073099 ] ] ], [ [ [ -122.0162707, 47.2110793 ], [ -122.0109177, 47.2138187 ], [ -122.0082636, 47.2131151 ], [ -122.0082651, 47.2119961 ], [ -122.0162707, 47.2110793 ] ] ], [ [ [ -121.9844164, 47.2247211 ], [ -121.9894972, 47.2245164 ], [ -121.9895613, 47.2189071 ], [ -121.995097, 47.2188199 ], [ -121.9951311, 47.2210603 ], [ -121.9918609, 47.2211235 ], [ -121.9923512, 47.2231629 ], [ -121.9898228, 47.2231895 ], [ -121.989822, 47.2246495 ], [ -121.9844164, 47.2247211 ] ] ], [ [ [ -121.984282, 47.2209667 ], [ -121.9817714, 47.2218418 ], [ -121.9817825, 47.2247172 ], [ -121.9778294, 47.2247019 ], [ -121.978513, 47.2210925 ], [ -121.984282, 47.2209667 ] ] ], [ [ [ -121.9794871, 47.3213862 ], [ -121.9818965, 47.3233347 ], [ -121.9818526, 47.3274306 ], [ -121.979737, 47.3274201 ], [ -121.9796978, 47.329096 ], [ -121.9743554, 47.3289534 ], [ -121.9743616, 47.3273933 ], [ -121.9721053, 47.3273886 ], [ -121.9704361, 47.3248923 ], [ -121.9720863, 47.324186 ], [ -121.9719321, 47.3218067 ], [ -121.9798779, 47.3211399 ], [ -121.9878797, 47.3183394 ], [ -121.9794871, 47.3213862 ] ] ], [ [ [ -122.0271685, 47.3416913 ], [ -122.0230642, 47.3406889 ], [ -122.0222727, 47.3436324 ], [ -122.0186828, 47.3435549 ], [ -122.0180137, 47.3404307 ], [ -122.0123447, 47.3343937 ], [ -122.01001, 47.3295244 ], [ -122.0131783, 47.3349126 ], [ -122.019474, 47.3294158 ], [ -122.0279655, 47.3294811 ], [ -122.0271685, 47.3416913 ] ] ], [ [ [ -122.0097814, 47.3807066 ], [ -122.010031, 47.3806456 ], [ -122.0099474, 47.3807622 ], [ -122.0097814, 47.3807066 ] ] ], [ [ [ -122.0096741, 47.3808406 ], [ -122.0090107, 47.3811862 ], [ -122.009177, 47.3809622 ], [ -122.0096741, 47.3808406 ] ] ], [ [ [ -122.0116859, 47.381029 ], [ -122.012065, 47.3810508 ], [ -122.0121215, 47.3813026 ], [ -122.0116859, 47.381029 ] ] ], [ [ [ -122.0429174, 47.4067904 ], [ -122.0425299, 47.4067099 ], [ -122.0428531, 47.4067581 ], [ -122.0429174, 47.4067904 ] ] ], [ [ [ -122.0563843, 47.5625087 ], [ -122.0554994, 47.5637574 ], [ -122.0557677, 47.5631905 ], [ -122.0563843, 47.5625087 ] ] ], [ [ [ -122.0553792, 47.5641946 ], [ -122.055329, 47.5642655 ], [ -122.055367, 47.5642075 ], [ -122.0553792, 47.5641946 ] ] ], [ [ [ -122.0552466, 47.5644532 ], [ -122.0552656, 47.5648837 ], [ -122.0552368, 47.5647897 ], [ -122.0552466, 47.5644532 ] ] ], [ [ [ -122.0571718, 47.5675794 ], [ -122.055558, 47.5662095 ], [ -122.0556085, 47.5656542 ], [ -122.0571718, 47.5675794 ] ] ], [ [ [ -122.1442833, 47.7920802 ], [ -122.11185, 47.7922772 ], [ -122.1105419, 47.7889881 ], [ -122.111137, 47.7834326 ], [ -122.1079537, 47.7811041 ], [ -122.1074597, 47.775916 ], [ -122.1067417, 47.7776108 ], [ -122.1042285, 47.7773478 ], [ -122.1004982, 47.7797501 ], [ -122.1054257, 47.7809026 ], [ -122.1049786, 47.7853892 ], [ -122.1089085, 47.7922544 ], [ -122.0589954, 47.791856 ], [ -122.0552358, 47.7885157 ], [ -122.0547208, 47.7756858 ], [ -122.0003729, 47.7753992 ], [ -122.0008851, 47.7654329 ], [ -122.0048771, 47.7557274 ], [ -122.004167, 47.749101 ], [ -122.0069826, 47.7461217 ], [ -122.005061, 47.746105 ], [ -122.005146, 47.741607 ], [ -122.0114712, 47.7415441 ], [ -122.0149907, 47.7371528 ], [ -122.0104399, 47.729542 ], [ -122.0075358, 47.7130607 ], [ -122.0002457, 47.698813 ], [ -121.9880877, 47.686586 ], [ -121.9853466, 47.680491 ], [ -121.9702596, 47.6632731 ], [ -121.9658226, 47.6611431 ], [ -121.9630465, 47.6525581 ], [ -121.9518415, 47.6532921 ], [ -121.9559195, 47.6476341 ], [ -121.9529455, 47.6412041 ], [ -121.9551334, 47.6360631 ], [ -121.9469914, 47.6364381 ], [ -121.9469474, 47.6334781 ], [ -121.9488264, 47.6310011 ], [ -121.9581944, 47.6280811 ], [ -121.9598834, 47.6257991 ], [ -121.9682654, 47.6265501 ], [ -121.9644154, 47.6223301 ], [ -121.9660404, 47.6226889 ], [ -121.9662688, 47.6111024 ], [ -121.9580544, 47.6110281 ], [ -121.9616888, 47.6002497 ], [ -121.9597358, 47.5941107 ], [ -121.9547458, 47.5892017 ], [ -121.9402611, 47.5811694 ], [ -121.9426115, 47.5817258 ], [ -121.9402727, 47.5805959 ], [ -121.9404281, 47.5728985 ], [ -121.9318992, 47.5732232 ], [ -121.9319532, 47.5783222 ], [ -121.9394812, 47.5808242 ], [ -121.9320342, 47.5813772 ], [ -121.9299022, 47.5871532 ], [ -121.9206072, 47.5871192 ], [ -121.9201202, 47.5836022 ], [ -121.9125565, 47.5846518 ], [ -121.9074799, 47.5824875 ], [ -121.9034071, 47.5773105 ], [ -121.8957719, 47.574655 ], [ -121.8940188, 47.5711663 ], [ -121.8734677, 47.5676007 ], [ -121.8685448, 47.5645564 ], [ -121.861894, 47.564758 ], [ -121.8610867, 47.5612603 ], [ -121.861054, 47.562776 ], [ -121.854408, 47.562709 ], [ -121.8538312, 47.5593987 ], [ -121.853798, 47.560907 ], [ -121.847153, 47.56084 ], [ -121.8472336, 47.5571758 ], [ -121.8450043, 47.5556111 ], [ -121.844978, 47.556806 ], [ -121.838333, 47.556739 ], [ -121.838396, 47.5538789 ], [ -121.8353967, 47.5541537 ], [ -121.8473049, 47.5504211 ], [ -121.8561452, 47.5554794 ], [ -121.864851, 47.553633 ], [ -121.8772887, 47.5548418 ], [ -121.880025, 47.557444 ], [ -121.8798811, 47.5599512 ], [ -121.8728771, 47.5647232 ], [ -121.8721933, 47.5662913 ], [ -121.8742098, 47.5675333 ], [ -121.8829135, 47.5687075 ], [ -121.8866524, 47.5689688 ], [ -121.8841676, 47.5680371 ], [ -121.8838313, 47.5657302 ], [ -121.8863011, 47.565496 ], [ -121.8898346, 47.5644347 ], [ -121.8969384, 47.5611443 ], [ -121.8998025, 47.558669 ], [ -121.9002514, 47.5546526 ], [ -121.8995925, 47.5585924 ], [ -121.8967387, 47.5610337 ], [ -121.8834966, 47.5657544 ], [ -121.8830907, 47.5680206 ], [ -121.8743568, 47.5670502 ], [ -121.8734211, 47.5651214 ], [ -121.8810737, 47.5598997 ], [ -121.8804908, 47.555449 ], [ -121.8757591, 47.5538728 ], [ -121.8646409, 47.5530201 ], [ -121.8564871, 47.5546617 ], [ -121.8475464, 47.5492886 ], [ -121.8546143, 47.5477173 ], [ -121.8546553, 47.5463498 ], [ -121.8459564, 47.5485036 ], [ -121.8461963, 47.550268 ], [ -121.8440729, 47.5488984 ], [ -121.8442457, 47.5389373 ], [ -121.8501785, 47.5389024 ], [ -121.8501913, 47.5430768 ], [ -121.857131, 47.5431123 ], [ -121.863391, 47.5454688 ], [ -121.8628267, 47.5441314 ], [ -121.8656582, 47.5431555 ], [ -121.8656537, 47.5471296 ], [ -121.8871081, 47.5473907 ], [ -121.8869845, 47.543391 ], [ -121.8934238, 47.5434467 ], [ -121.8906178, 47.5361507 ], [ -121.8817655, 47.5360554 ], [ -121.8817803, 47.5288655 ], [ -121.8873506, 47.5288171 ], [ -121.8870757, 47.5117016 ], [ -121.883275, 47.5121179 ], [ -121.8827546, 47.5109664 ], [ -121.8807682, 47.514361 ], [ -121.8658149, 47.5143906 ], [ -121.8656833, 47.523599 ], [ -121.8603477, 47.5241222 ], [ -121.8603325, 47.5253348 ], [ -121.8656406, 47.5263309 ], [ -121.865579, 47.5290733 ], [ -121.8444761, 47.5286548 ], [ -121.8444028, 47.5323468 ], [ -121.836666, 47.532307 ], [ -121.8328242, 47.5310721 ], [ -121.83268, 47.5287254 ], [ -121.8282414, 47.5279938 ], [ -121.8280965, 47.5137806 ], [ -121.813461, 47.5123364 ], [ -121.8089709, 47.5063712 ], [ -121.8090789, 47.5016014 ], [ -121.8199345, 47.5017136 ], [ -121.8333397, 47.5132607 ], [ -121.8397487, 47.5153007 ], [ -121.8566967, 47.5114997 ], [ -121.9025087, 47.5074137 ], [ -121.915048, 47.5141523 ], [ -121.9149141, 47.520648 ], [ -121.9270491, 47.5207622 ], [ -121.9260656, 47.5233031 ], [ -121.9274182, 47.5207656 ], [ -121.9323617, 47.5213647 ], [ -121.9359307, 47.5230697 ], [ -121.9436777, 47.5312427 ], [ -121.9687608, 47.5361007 ], [ -121.9715288, 47.5361187 ], [ -121.9763122, 47.5330999 ], [ -121.975956, 47.528597 ], [ -121.982597, 47.528657 ], [ -121.9825556, 47.5307975 ], [ -121.9954278, 47.5320377 ], [ -122.0080088, 47.5364517 ], [ -122.0165535, 47.5342079 ], [ -122.0148239, 47.538919 ], [ -122.0117867, 47.5387854 ], [ -122.0121637, 47.5409842 ], [ -122.0094758, 47.5401896 ], [ -122.0091109, 47.5432979 ], [ -122.0054216, 47.5412305 ], [ -122.0036761, 47.543896 ], [ -122.0053678, 47.5406423 ], [ -122.0009997, 47.5388938 ], [ -121.9932886, 47.5391159 ], [ -121.9914024, 47.5408823 ], [ -121.9932201, 47.5430339 ], [ -121.9857353, 47.5466264 ], [ -121.985782, 47.5495306 ], [ -121.9912053, 47.5494989 ], [ -121.9912834, 47.5516164 ], [ -121.988452, 47.5515821 ], [ -121.9875446, 47.554598 ], [ -121.9937221, 47.5546616 ], [ -122.0003318, 47.5574842 ], [ -122.0039607, 47.5554774 ], [ -122.0040242, 47.551273 ], [ -122.0079325, 47.5497242 ], [ -122.0146212, 47.5511046 ], [ -122.0156968, 47.5480768 ], [ -122.0200799, 47.5481195 ], [ -122.0205664, 47.5536054 ], [ -122.0148105, 47.5557345 ], [ -122.014806, 47.5582746 ], [ -121.9903081, 47.5700531 ], [ -121.9888975, 47.5740711 ], [ -121.9818909, 47.5816231 ], [ -121.9816447, 47.5875789 ], [ -121.976329, 47.5875055 ], [ -121.9764371, 47.5839267 ], [ -121.9734915, 47.5841675 ], [ -121.9735697, 47.5802015 ], [ -121.9684849, 47.580393 ], [ -121.9693695, 47.582107 ], [ -121.9652311, 47.5845591 ], [ -121.9645705, 47.5875721 ], [ -121.9686299, 47.5901057 ], [ -121.9708036, 47.5945517 ], [ -121.9706069, 47.6011696 ], [ -121.9915512, 47.6013392 ], [ -121.9918328, 47.5977441 ], [ -122.0022079, 47.5979275 ], [ -122.0039545, 47.6007416 ], [ -122.0029622, 47.6035736 ], [ -122.0054363, 47.6065908 ], [ -122.0046201, 47.6088779 ], [ -121.9969957, 47.6100051 ], [ -121.9949647, 47.607954 ], [ -121.9917072, 47.6079043 ], [ -121.9918267, 47.6129314 ], [ -122.0138079, 47.6130598 ], [ -122.0135991, 47.6277105 ], [ -122.0029492, 47.6269929 ], [ -122.002957, 47.630494 ], [ -122.0074183, 47.630805 ], [ -122.0061033, 47.6322298 ], [ -122.0084794, 47.6327935 ], [ -122.0085697, 47.63762 ], [ -122.02065, 47.6394924 ], [ -122.0476587, 47.6384207 ], [ -122.0517045, 47.6420609 ], [ -122.0549219, 47.6420533 ], [ -122.0563214, 47.6449842 ], [ -122.0557213, 47.6493408 ], [ -122.0645914, 47.6493721 ], [ -122.0648415, 47.650776 ], [ -122.0665454, 47.6505331 ], [ -122.0662212, 47.6493778 ], [ -122.0786558, 47.6494204 ], [ -122.0790809, 47.6535094 ], [ -122.0873811, 47.6584118 ], [ -122.0858452, 47.6620634 ], [ -122.0790399, 47.6645277 ], [ -122.0822898, 47.6712567 ], [ -122.0821708, 47.6728904 ], [ -122.0793634, 47.6730908 ], [ -122.0793817, 47.6748706 ], [ -122.0873063, 47.6759708 ], [ -122.0817316, 47.6752646 ], [ -122.0817712, 47.6784728 ], [ -122.0841316, 47.6784962 ], [ -122.0842357, 47.6825603 ], [ -122.079611, 47.6826111 ], [ -122.0812738, 47.6846821 ], [ -122.086884, 47.6842452 ], [ -122.0868718, 47.6857783 ], [ -122.090028, 47.6857899 ], [ -122.090025, 47.6870822 ], [ -122.088299, 47.6870914 ], [ -122.0883132, 47.6894843 ], [ -122.0915901, 47.6900413 ], [ -122.0929962, 47.6965178 ], [ -122.0926847, 47.6996388 ], [ -122.0905272, 47.6995213 ], [ -122.0906104, 47.7018184 ], [ -122.092691, 47.7034959 ], [ -122.0996177, 47.703873 ], [ -122.0994952, 47.7108472 ], [ -122.1322054, 47.7114173 ], [ -122.1321503, 47.707587 ], [ -122.1344113, 47.7071086 ], [ -122.1335262, 47.703907 ], [ -122.1428634, 47.703975 ], [ -122.142737, 47.7111916 ], [ -122.1432035, 47.7076861 ], [ -122.1534961, 47.7078414 ], [ -122.1538074, 47.7112469 ], [ -122.1481013, 47.7286235 ], [ -122.1493317, 47.7326782 ], [ -122.1459313, 47.7326453 ], [ -122.1435072, 47.7294019 ], [ -122.1429428, 47.711358 ], [ -122.1429996, 47.7285307 ], [ -122.1385913, 47.7296592 ], [ -122.1409589, 47.734576 ], [ -122.1456385, 47.7330536 ], [ -122.149507, 47.7364165 ], [ -122.1537087, 47.7425706 ], [ -122.1602457, 47.7473503 ], [ -122.1602934, 47.7505704 ], [ -122.1525116, 47.7513821 ], [ -122.1522573, 47.7496955 ], [ -122.149991, 47.7496722 ], [ -122.1495472, 47.7515271 ], [ -122.1441815, 47.7512196 ], [ -122.1427248, 47.7531918 ], [ -122.1333414, 47.7523936 ], [ -122.1318356, 47.7549164 ], [ -122.1206937, 47.7533044 ], [ -122.1208194, 47.757874 ], [ -122.1173484, 47.7592918 ], [ -122.1170766, 47.7613354 ], [ -122.1108166, 47.7613138 ], [ -122.1117345, 47.7653348 ], [ -122.1135123, 47.7653421 ], [ -122.1133181, 47.7759549 ], [ -122.1696746, 47.7762235 ], [ -122.1721211, 47.7776387 ], [ -122.172511, 47.7801269 ], [ -122.1752515, 47.7801425 ], [ -122.1755376, 47.7872622 ], [ -122.1859807, 47.787415 ], [ -122.1864824, 47.7928298 ], [ -122.1442064, 47.792523 ], [ -122.1448867, 47.7913622 ], [ -122.1443253, 47.790455 ], [ -122.1442833, 47.7920802 ] ], [ [ -121.9431628, 47.5728977 ], [ -121.9431583, 47.5728676 ], [ -121.9431609, 47.5728977 ], [ -121.9431628, 47.5728977 ] ], [ [ -121.9429481, 47.5714762 ], [ -121.9429512, 47.5714829 ], [ -121.9429498, 47.5714737 ], [ -121.9429481, 47.5714762 ] ], [ [ -121.913252, 47.5623373 ], [ -121.9311741, 47.5652742 ], [ -121.9348391, 47.5679502 ], [ -121.9397471, 47.5695322 ], [ -121.9412651, 47.5706942 ], [ -121.9426379, 47.5712165 ], [ -121.940487, 47.5699753 ], [ -121.940751, 47.5568818 ], [ -121.9141713, 47.5566332 ], [ -121.913252, 47.5623373 ] ], [ [ -121.9035607, 47.5617217 ], [ -121.9035585, 47.5615821 ], [ -121.9044511, 47.5617982 ], [ -121.9035607, 47.5617217 ] ], [ [ -121.9034981, 47.5579092 ], [ -121.9034998, 47.5579125 ], [ -121.9034997, 47.5579067 ], [ -121.9034981, 47.5579092 ] ], [ [ -121.9005937, 47.5552118 ], [ -121.9015061, 47.5562323 ], [ -121.9027093, 47.557233 ], [ -121.9005937, 47.5552118 ] ], [ [ -121.8999087, 47.5540927 ], [ -121.8999076, 47.5540955 ], [ -121.8999115, 47.5540972 ], [ -121.8999087, 47.5540927 ] ], [ [ -121.8941804, 47.5600089 ], [ -121.8982751, 47.5562763 ], [ -121.8986401, 47.5558963 ], [ -121.8997107, 47.5545737 ], [ -121.8941804, 47.5600089 ] ], [ [ -121.8998731, 47.5542353 ], [ -121.8999063, 47.5540985 ], [ -121.8997107, 47.5545737 ], [ -121.8998731, 47.5542353 ] ], [ [ -121.890457, 47.5629305 ], [ -121.8904652, 47.5629213 ], [ -121.8904648, 47.562921 ], [ -121.890457, 47.5629305 ] ], [ [ -122.0018124, 47.6353439 ], [ -122.0033764, 47.6366771 ], [ -122.0037994, 47.6369121 ], [ -122.0042474, 47.6371341 ], [ -122.0144894, 47.641614 ], [ -122.0246608, 47.6442452 ], [ -122.0144908, 47.6416117 ], [ -122.0018124, 47.6353439 ] ], [ [ -121.9989918, 47.6319647 ], [ -121.9987798, 47.6318042 ], [ -121.9989904, 47.6319671 ], [ -121.9989918, 47.6319647 ] ], [ [ -121.9943264, 47.6284361 ], [ -121.9945485, 47.6286008 ], [ -121.9943278, 47.6284337 ], [ -121.9943264, 47.6284361 ] ], [ [ -121.9932844, 47.6279291 ], [ -121.9933104, 47.6279387 ], [ -121.9932858, 47.6279267 ], [ -121.9932844, 47.6279291 ] ], [ [ -121.9908607, 47.6277609 ], [ -121.9876778, 47.6280017 ], [ -121.9804924, 47.626953 ], [ -121.9876764, 47.6280041 ], [ -121.9908607, 47.6277609 ] ], [ [ -121.9751006, 47.6254919 ], [ -121.9767344, 47.6261221 ], [ -121.979295, 47.6267479 ], [ -121.9751006, 47.6254919 ] ], [ [ -121.9704064, 47.6232831 ], [ -121.9704251, 47.6232888 ], [ -121.9704078, 47.6232807 ], [ -121.9704064, 47.6232831 ] ], [ [ -121.9693864, 47.6230211 ], [ -121.9694551, 47.623036 ], [ -121.9693878, 47.6230187 ], [ -121.9693864, 47.6230211 ] ], [ [ -121.8251216, 47.5074843 ], [ -121.8231146, 47.5068432 ], [ -121.8231251, 47.5098198 ], [ -121.8251216, 47.5074843 ] ], [ [ -122.0801275, 47.6921197 ], [ -122.0790621, 47.6997201 ], [ -122.0842898, 47.6997264 ], [ -122.0845332, 47.692155 ], [ -122.0801275, 47.6921197 ] ], [ [ -122.0464432, 47.6945387 ], [ -122.0467273, 47.7019079 ], [ -122.0360133, 47.7016744 ], [ -122.0346314, 47.716653 ], [ -122.0564055, 47.7170269 ], [ -122.0574081, 47.6947511 ], [ -122.0464432, 47.6945387 ] ] ], [ [ [ -121.9868111, 47.7253963 ], [ -121.9682124, 47.7244662 ], [ -121.9681681, 47.7227517 ], [ -121.9620013, 47.7248524 ], [ -121.958619, 47.7200467 ], [ -121.9553048, 47.7213693 ], [ -121.9597777, 47.7223534 ], [ -121.9541217, 47.7260698 ], [ -121.9583857, 47.7295516 ], [ -121.9590188, 47.7331615 ], [ -121.9556709, 47.7328572 ], [ -121.955725, 47.7345742 ], [ -121.9477924, 47.7338881 ], [ -121.9478496, 47.7359313 ], [ -121.9465166, 47.7359172 ], [ -121.946172, 47.7307072 ], [ -121.9488243, 47.7307016 ], [ -121.9488547, 47.7233112 ], [ -121.9463958, 47.7135327 ], [ -121.9254668, 47.7085547 ], [ -121.9190988, 47.7083847 ], [ -121.9113762, 47.7040617 ], [ -121.90471, 47.704102 ], [ -121.9052723, 47.6996085 ], [ -121.9039008, 47.6982567 ], [ -121.897675, 47.697366 ], [ -121.89777, 47.692868 ], [ -121.900509, 47.6928939 ], [ -121.9053912, 47.6860008 ], [ -121.903704, 47.6799209 ], [ -121.9079561, 47.677874 ], [ -121.9162091, 47.6781057 ], [ -121.9254398, 47.6805807 ], [ -121.9284828, 47.6785309 ], [ -121.9383125, 47.6774647 ], [ -121.9382037, 47.6828292 ], [ -121.9460446, 47.6847931 ], [ -121.9457486, 47.6873866 ], [ -121.9485824, 47.6885334 ], [ -121.9561347, 47.6880003 ], [ -121.9596089, 47.6897082 ], [ -121.9642006, 47.6876946 ], [ -121.9651088, 47.6886028 ], [ -121.9634516, 47.6912782 ], [ -121.9694054, 47.6926993 ], [ -121.9752216, 47.6905124 ], [ -121.970888, 47.6863336 ], [ -121.9728265, 47.6853762 ], [ -121.9772316, 47.688025 ], [ -121.9858499, 47.6895914 ], [ -121.9851404, 47.6940981 ], [ -121.9889707, 47.6963677 ], [ -121.9859943, 47.6980509 ], [ -121.9862585, 47.6996396 ], [ -121.989528, 47.7016425 ], [ -121.9943156, 47.6998956 ], [ -121.9938861, 47.704515 ], [ -121.9981882, 47.7062045 ], [ -121.9946825, 47.7081959 ], [ -121.9954928, 47.7089957 ], [ -121.9844348, 47.7090247 ], [ -121.9868111, 47.7253963 ] ] ], [ [ [ -121.9671523, 47.1920513 ], [ -121.966152, 47.1956472 ], [ -121.9686808, 47.195649 ], [ -121.9687093, 47.1984333 ], [ -121.9653713, 47.1990316 ], [ -121.9635558, 47.197957 ], [ -121.9632453, 47.1867326 ], [ -121.9636445, 47.1920657 ], [ -121.9671523, 47.1920513 ] ] ], [ [ [ -121.9502719, 47.2028371 ], [ -121.9511938, 47.1982128 ], [ -121.9528076, 47.1986522 ], [ -121.9526711, 47.2028382 ], [ -121.9502719, 47.2028371 ] ] ], [ [ [ -121.977598, 47.2139267 ], [ -121.9630737, 47.2138247 ], [ -121.9634433, 47.2066237 ], [ -121.9788146, 47.206532 ], [ -121.9787931, 47.2117197 ], [ -121.9798517, 47.211706 ], [ -121.977598, 47.2139267 ] ] ], [ [ [ -121.9547531, 47.3565559 ], [ -121.974058, 47.357819 ], [ -121.974154, 47.355297 ], [ -121.9951678, 47.3487111 ], [ -121.9950652, 47.3643778 ], [ -121.9547841, 47.3643769 ], [ -121.9547531, 47.3565559 ] ] ], [ [ [ -121.7588582, 47.4441508 ], [ -121.7657442, 47.4381717 ], [ -121.7701202, 47.4381157 ], [ -121.7700692, 47.4415598 ], [ -121.7770841, 47.4440538 ], [ -121.7770221, 47.4463718 ], [ -121.7800081, 47.4481299 ], [ -121.7776221, 47.4488459 ], [ -121.7786591, 47.4510319 ], [ -121.7775861, 47.4530559 ], [ -121.7727631, 47.4544469 ], [ -121.7718591, 47.4523949 ], [ -121.7681491, 47.4523529 ], [ -121.7652042, 47.4493089 ], [ -121.7585312, 47.4473328 ], [ -121.7588582, 47.4441508 ] ] ], [ [ [ -121.7223787, 47.4633921 ], [ -121.7243153, 47.4638275 ], [ -121.7234239, 47.4639257 ], [ -121.7223787, 47.4633921 ] ] ], [ [ [ -121.7161201, 47.467577 ], [ -121.7175487, 47.4556676 ], [ -121.7182045, 47.4565251 ], [ -121.7220029, 47.4574725 ], [ -121.7221623, 47.4599796 ], [ -121.7239937, 47.4609987 ], [ -121.7218181, 47.4621262 ], [ -121.7218753, 47.4632154 ], [ -121.7226821, 47.4638454 ], [ -121.7249255, 47.4642574 ], [ -121.7245713, 47.4660079 ], [ -121.7250823, 47.4664727 ], [ -121.7300095, 47.4684166 ], [ -121.7480003, 47.4712418 ], [ -121.7487733, 47.4710971 ], [ -121.7496962, 47.4703962 ], [ -121.7504227, 47.4691265 ], [ -121.7554084, 47.468756 ], [ -121.7570183, 47.4662383 ], [ -121.759887, 47.4662879 ], [ -121.7649073, 47.4687941 ], [ -121.7670818, 47.469332 ], [ -121.7691571, 47.4694006 ], [ -121.7794433, 47.4739835 ], [ -121.7775031, 47.4736607 ], [ -121.780685, 47.474339 ], [ -121.7691723, 47.4691527 ], [ -121.759002, 47.4659636 ], [ -121.7573081, 47.4660399 ], [ -121.7562477, 47.4664214 ], [ -121.7553245, 47.4685805 ], [ -121.7531019, 47.4681061 ], [ -121.7502077, 47.469097 ], [ -121.7476128, 47.4708775 ], [ -121.7300215, 47.4682818 ], [ -121.7249129, 47.4661376 ], [ -121.7251079, 47.4641872 ], [ -121.7245039, 47.4637217 ], [ -121.7221949, 47.4630932 ], [ -121.7242653, 47.4609386 ], [ -121.7222429, 47.4597515 ], [ -121.7229885, 47.4580136 ], [ -121.7211971, 47.4568374 ], [ -121.7182277, 47.4563902 ], [ -121.7177735, 47.4557102 ], [ -121.7496372, 47.4566969 ], [ -121.7516872, 47.4548779 ], [ -121.7569852, 47.4559479 ], [ -121.7571322, 47.4575619 ], [ -121.7801911, 47.464518 ], [ -121.7817161, 47.4703081 ], [ -121.7863521, 47.4725861 ], [ -121.7894221, 47.4803742 ], [ -121.7854786, 47.4776101 ], [ -121.7927597, 47.4848812 ], [ -121.7904883, 47.4854452 ], [ -121.79052, 47.4900322 ], [ -121.7856527, 47.4891682 ], [ -121.7875601, 47.4865819 ], [ -121.787787, 47.4837083 ], [ -121.7834202, 47.4813667 ], [ -121.7863761, 47.4810712 ], [ -121.7870323, 47.4801881 ], [ -121.7795994, 47.4742414 ], [ -121.7843852, 47.4794511 ], [ -121.7746329, 47.4812296 ], [ -121.7717797, 47.4801648 ], [ -121.7717869, 47.4787273 ], [ -121.7691249, 47.4787189 ], [ -121.7691356, 47.4738207 ], [ -121.7633013, 47.4738334 ], [ -121.7634019, 47.4816895 ], [ -121.7586615, 47.479206 ], [ -121.7586143, 47.4775692 ], [ -121.7504137, 47.4748824 ], [ -121.7411298, 47.4737644 ], [ -121.7193034, 47.4668614 ], [ -121.7161201, 47.467577 ] ], [ [ -121.7597636, 47.4736483 ], [ -121.7774471, 47.4736557 ], [ -121.7764201, 47.4736001 ], [ -121.7597636, 47.4736483 ] ], [ [ -121.7172208, 47.4658744 ], [ -121.7193352, 47.4665635 ], [ -121.7188825, 47.4664119 ], [ -121.7172208, 47.4658744 ] ], [ [ -121.7827161, 47.4752702 ], [ -121.7821848, 47.4749732 ], [ -121.7834271, 47.4757439 ], [ -121.7827161, 47.4752702 ] ], [ [ -121.7815601, 47.4746752 ], [ -121.7807571, 47.4743638 ], [ -121.7820962, 47.4749277 ], [ -121.7815601, 47.4746752 ] ], [ [ -121.7839851, 47.4761752 ], [ -121.7835189, 47.4758112 ], [ -121.7843928, 47.4765341 ], [ -121.7839851, 47.4761752 ] ] ], [ [ [ -121.7491834, 47.4704717 ], [ -121.7485453, 47.4710677 ], [ -121.74784, 47.4709519 ], [ -121.7491834, 47.4704717 ] ] ], [ [ [ -121.7171195, 47.480673 ], [ -121.7152888, 47.4777551 ], [ -121.7136727, 47.4774221 ], [ -121.7102133, 47.4774463 ], [ -121.7057172, 47.4787906 ], [ -121.7038171, 47.4772486 ], [ -121.7025197, 47.4770629 ], [ -121.6939967, 47.4795317 ], [ -121.6950929, 47.4788657 ], [ -121.6923747, 47.4781627 ], [ -121.6924207, 47.4758407 ], [ -121.6991897, 47.4769427 ], [ -121.7132288, 47.4723235 ], [ -121.7188609, 47.4723996 ], [ -121.718796, 47.4800242 ], [ -121.7171195, 47.480673 ] ] ], [ [ [ -121.7425931, 47.4762702 ], [ -121.7452947, 47.475598 ], [ -121.7471598, 47.4761594 ], [ -121.7564031, 47.4830458 ], [ -121.7511582, 47.4825915 ], [ -121.7507569, 47.4796771 ], [ -121.74744, 47.476513 ], [ -121.7425931, 47.4762702 ] ] ], [ [ [ -121.7854022, 47.4808849 ], [ -121.786324, 47.4803906 ], [ -121.7864231, 47.4806538 ], [ -121.7854022, 47.4808849 ] ] ], [ [ [ -121.7194566, 47.4801928 ], [ -121.7186451, 47.480753 ], [ -121.7180977, 47.480828 ], [ -121.7194566, 47.4801928 ] ] ], [ [ [ -121.7823873, 47.4821484 ], [ -121.7843327, 47.4833852 ], [ -121.7868573, 47.4836 ], [ -121.7871221, 47.4838389 ], [ -121.7865549, 47.4836496 ], [ -121.7834143, 47.4832967 ], [ -121.782949, 47.4831371 ], [ -121.7825243, 47.4827522 ], [ -121.7823873, 47.4821484 ] ] ], [ [ [ -121.7564052, 47.4829541 ], [ -121.75657, 47.4830476 ], [ -121.7564031, 47.4830458 ], [ -121.7564052, 47.4829541 ] ] ], [ [ [ -121.7027587, 47.4773894 ], [ -121.7059667, 47.4789645 ], [ -121.7149239, 47.4780301 ], [ -121.7162765, 47.4808618 ], [ -121.7182017, 47.4809999 ], [ -121.7264209, 47.4782121 ], [ -121.7308459, 47.4824091 ], [ -121.7357163, 47.4829702 ], [ -121.7320743, 47.4858242 ], [ -121.7320143, 47.4911103 ], [ -121.7159934, 47.4918662 ], [ -121.7110505, 47.4908872 ], [ -121.7110585, 47.4872791 ], [ -121.6949637, 47.4871791 ], [ -121.6950195, 47.4795458 ], [ -121.7027587, 47.4773894 ] ] ], [ [ [ -121.7867926, 47.4849335 ], [ -121.7873846, 47.4864369 ], [ -121.7865148, 47.4871846 ], [ -121.7855298, 47.4876041 ], [ -121.7871593, 47.4866124 ], [ -121.7867926, 47.4849335 ] ] ], [ [ [ -121.785456, 47.4899718 ], [ -121.7853378, 47.4892134 ], [ -121.7861285, 47.4899798 ], [ -121.785456, 47.4899718 ] ] ], [ [ [ -121.8092354, 47.4946814 ], [ -121.8089709, 47.5063712 ], [ -121.8046671, 47.503346 ], [ -121.8065728, 47.5033635 ], [ -121.8064896, 47.4937787 ], [ -121.8092354, 47.4946814 ] ] ], [ [ [ -121.7585748, 47.4871774 ], [ -121.7564031, 47.4830458 ], [ -121.7723776, 47.4919445 ], [ -121.7690141, 47.4919902 ], [ -121.769143, 47.5031417 ], [ -121.7804171, 47.5030917 ], [ -121.7805257, 47.5069453 ], [ -121.7856069, 47.5070227 ], [ -121.7842342, 47.5088746 ], [ -121.789472, 47.5110957 ], [ -121.7874411, 47.5126799 ], [ -121.7883933, 47.51554 ], [ -121.7859747, 47.5188373 ], [ -121.7766982, 47.5192568 ], [ -121.7653682, 47.5148314 ], [ -121.7658342, 47.5127221 ], [ -121.7623031, 47.5056048 ], [ -121.7644534, 47.5041367 ], [ -121.7624725, 47.4983038 ], [ -121.7655792, 47.4954854 ], [ -121.7654648, 47.4938108 ], [ -121.7645263, 47.491129 ], [ -121.7585748, 47.4871774 ] ] ], [ [ [ -121.789893, 47.5124393 ], [ -121.7891012, 47.512153 ], [ -121.7901213, 47.5119079 ], [ -121.789893, 47.5124393 ] ] ], [ [ [ -121.7887331, 47.51361 ], [ -121.7886629, 47.5140358 ], [ -121.7884071, 47.5141545 ], [ -121.7887331, 47.51361 ] ] ], [ [ [ -121.8093536, 47.5351227 ], [ -121.8107429, 47.5433126 ], [ -121.8248353, 47.5432234 ], [ -121.8249032, 47.5474764 ], [ -121.8232692, 47.5467287 ], [ -121.8233131, 47.5432631 ], [ -121.8179538, 47.5433152 ], [ -121.8179302, 47.5453261 ], [ -121.81269, 47.5443157 ], [ -121.8112396, 47.5472993 ], [ -121.8089326, 47.5392836 ], [ -121.8093536, 47.5351227 ] ] ], [ [ [ -121.8436947, 47.5475637 ], [ -121.843967, 47.5479482 ], [ -121.8432925, 47.5468101 ], [ -121.8436947, 47.5475637 ] ] ], [ [ [ -121.8368133, 47.546917 ], [ -121.8387682, 47.5486019 ], [ -121.8281308, 47.5486093 ], [ -121.8284715, 47.546856 ], [ -121.8428909, 47.5469276 ], [ -121.8368133, 47.546917 ] ] ], [ [ [ -121.9159888, 47.641715 ], [ -121.920449, 47.6416976 ], [ -121.9204763, 47.6440812 ], [ -121.9156828, 47.6438519 ], [ -121.9159888, 47.641715 ] ] ], [ [ [ -121.9172695, 47.6588831 ], [ -121.9068759, 47.6588854 ], [ -121.9068975, 47.6533411 ], [ -121.9171094, 47.6514812 ], [ -121.9172695, 47.6588831 ] ] ], [ [ [ -121.9695443, 47.7474524 ], [ -121.969735, 47.7376944 ], [ -121.9711505, 47.7376386 ], [ -121.9711494, 47.7410172 ], [ -121.9749164, 47.7410642 ], [ -121.974806, 47.7475731 ], [ -121.9694742, 47.747537 ], [ -121.9648136, 47.7469889 ], [ -121.9695443, 47.7474524 ] ] ], [ [ [ -121.4782255, 47.7628447 ], [ -121.4795984, 47.7633311 ], [ -121.4795968, 47.7640117 ], [ -121.4782255, 47.7628447 ] ] ], [ [ [ -121.4869703, 47.7580014 ], [ -121.4941683, 47.7600854 ], [ -121.4863743, 47.7614624 ], [ -121.4846213, 47.7635183 ], [ -121.4856053, 47.7641583 ], [ -121.4841963, 47.7675503 ], [ -121.4858763, 47.7685273 ], [ -121.4847459, 47.7696049 ], [ -121.4786987, 47.7610524 ], [ -121.4791674, 47.7598104 ], [ -121.4869703, 47.7580014 ] ] ], [ [ [ -121.4695524, 47.7658683 ], [ -121.4739614, 47.7638903 ], [ -121.4560134, 47.7510504 ], [ -121.4629074, 47.7511354 ], [ -121.4778283, 47.7598713 ], [ -121.4779696, 47.7629147 ], [ -121.4830923, 47.7690203 ], [ -121.4876164, 47.7709165 ], [ -121.4921052, 47.7715007 ], [ -121.4996083, 47.7778383 ], [ -121.4840313, 47.7777533 ], [ -121.4695524, 47.7658683 ] ] ], [ [ [ -117.4045694, 47.7692244 ], [ -117.3882195, 47.7728225 ], [ -117.3783855, 47.7725435 ], [ -117.3981934, 47.7535524 ], [ -117.4029664, 47.7559954 ], [ -117.4535201, 47.7582903 ], [ -117.453801, 47.7698323 ], [ -117.4523989, 47.7718912 ], [ -117.4465084, 47.7726981 ], [ -117.4401863, 47.7709269 ], [ -117.4307153, 47.7747718 ], [ -117.4304795, 47.7733951 ], [ -117.4269401, 47.7733017 ], [ -117.4236196, 47.7764607 ], [ -117.4226419, 47.7806455 ], [ -117.4182476, 47.7806559 ], [ -117.4139774, 47.7838484 ], [ -117.4055747, 47.7844066 ], [ -117.4032474, 47.7812905 ], [ -117.4021634, 47.7774755 ], [ -117.4045694, 47.7692244 ] ] ], [ [ [ -121.4912821, 47.7701539 ], [ -121.4917046, 47.7707325 ], [ -121.4905797, 47.7701002 ], [ -121.4912821, 47.7701539 ] ] ], [ [ [ -121.4875592, 47.7699154 ], [ -121.4900624, 47.7699963 ], [ -121.4919099, 47.7711687 ], [ -121.4909719, 47.7711804 ], [ -121.4875592, 47.7699154 ] ] ], [ [ [ -117.4410325, 47.7713987 ], [ -117.4409072, 47.7722533 ], [ -117.4408355, 47.7712021 ], [ -117.4410325, 47.7713987 ] ] ], [ [ [ -121.4954923, 47.7728113 ], [ -121.4954923, 47.7728108 ], [ -121.4955833, 47.7729364 ], [ -121.4954923, 47.7728113 ] ] ], [ [ [ -121.4956194, 47.7730378 ], [ -121.4956509, 47.7731263 ], [ -121.4956506, 47.7731264 ], [ -121.4956194, 47.7730378 ] ] ], [ [ [ -122.2894758, 47.3045537 ], [ -122.292477, 47.2998227 ], [ -122.2946072, 47.300595 ], [ -122.2913564, 47.306646 ], [ -122.2874413, 47.3088481 ], [ -122.2868817, 47.30435 ], [ -122.2894758, 47.3045537 ] ] ], [ [ [ -122.3016418, 47.3256584 ], [ -122.3078709, 47.3270279 ], [ -122.3085821, 47.3281078 ], [ -122.2979866, 47.3289815 ], [ -122.3016418, 47.3256584 ] ] ], [ [ [ -122.3437474, 47.3211854 ], [ -122.3417366, 47.3222325 ], [ -122.3401355, 47.3205731 ], [ -122.3421476, 47.3199475 ], [ -122.3437474, 47.3211854 ] ] ], [ [ [ -122.2970667, 47.7815536 ], [ -122.2965144, 47.7811543 ], [ -122.2970591, 47.7811598 ], [ -122.2970667, 47.7815536 ] ] ], [ [ [ -122.2972348, 47.7783118 ], [ -122.2965253, 47.7781678 ], [ -122.2972326, 47.7781756 ], [ -122.2972348, 47.7783118 ] ] ] ] } }
]
}
