{
"type": "FeatureCollection",
"name": "pendorielle_ui_with_pop_centers",
"crs": { "type": "name", "properties": { "name": "urn:ogc:def:crs:OGC:1.3:CRS84" } },
"features": [
{ "type": "Feature", "properties": { "pop_centers": "" }, "geometry": { "type": "MultiPolygon", "coordinates": [ [ [ [ -117.297847, 48.178667 ], [ -117.298345, 48.17419 ], [ -117.305037, 48.174523 ], [ -117.30454, 48.178999 ], [ -117.297847, 48.178667 ] ] ], [ [ [ -117.081735364, 48.164966447 ], [ -117.080152851, 48.166539397 ], [ -117.081735361582716, 48.164966446875077 ], [ -117.081735364, 48.164966447 ] ] ], [ [ [ -117.057748672, 48.173499697 ], [ -117.055659628, 48.173848535 ], [ -117.058029345, 48.173452825 ], [ -117.057748672, 48.173499697 ] ] ], [ [ [ -117.063480553, 48.182026409 ], [ -117.063419589, 48.182966904 ], [ -117.063535549, 48.181177944 ], [ -117.063480553, 48.182026409 ] ] ], [ [ [ -117.057878465, 48.185729175 ], [ -117.05787733, 48.185935612 ], [ -117.05787705, 48.185986584 ], [ -117.057883961, 48.184728093 ], [ -117.057878465, 48.185729175 ] ] ], [ [ [ -117.056021557, 48.188387815 ], [ -117.049717283, 48.188380614 ], [ -117.057845891, 48.188389835 ], [ -117.056021557, 48.188387815 ] ] ], [ [ [ -117.04172793, 48.173766135 ], [ -117.041952414, 48.17376935 ], [ -117.041727928, 48.173766202 ], [ -117.041741423, 48.173224718 ], [ -117.04172793, 48.173766135 ] ] ], [ [ [ -117.292902281, 48.337715609 ], [ -117.292823664, 48.33727539 ], [ -117.29292871, 48.337863592 ], [ -117.292902281, 48.337715609 ] ] ], [ [ [ -117.30259292, 48.338197585 ], [ -117.302438323, 48.338206467 ], [ -117.303684811, 48.338134847 ], [ -117.30259292, 48.338197585 ] ] ], [ [ [ -117.276012, 48.34646 ], [ -117.269298, 48.346124 ], [ -117.269801, 48.341649 ], [ -117.276515, 48.341984 ], [ -117.276012, 48.34646 ] ] ], [ [ [ -117.426068874, 48.744399353 ], [ -117.425956616, 48.744421945 ], [ -117.426075459, 48.744398027 ], [ -117.426068874, 48.744399353 ] ] ], [ [ [ -117.382765338, 48.859282315 ], [ -117.394377069, 48.859224855 ], [ -117.386000542, 48.859266424 ], [ -117.382765338, 48.859282315 ] ] ], [ [ [ -117.386654733, 48.853434543 ], [ -117.386773476, 48.853427363 ], [ -117.386481497, 48.853445019 ], [ -117.386654733, 48.853434543 ] ] ], [ [ [ -117.386674004, 48.853262719 ], [ -117.386194724, 48.853376299 ], [ -117.386772001, 48.853239495 ], [ -117.386674004, 48.853262719 ] ] ], [ [ [ -117.390953408, 48.846649723 ], [ -117.390579738, 48.845735273 ], [ -117.391013002, 48.846795558 ], [ -117.390953408, 48.846649723 ] ] ], [ [ [ -117.374830099, 48.863865115 ], [ -117.374709156, 48.863990229 ], [ -117.375113966, 48.863571454 ], [ -117.374830099, 48.863865115 ] ] ] ] } }
]
}
