{
"type": "FeatureCollection",
"name": "sanjuan_ui_with_pop_centers",
"crs": { "type": "name", "properties": { "name": "urn:ogc:def:crs:OGC:1.3:CRS84" } },
"features": [
{ "type": "Feature", "properties": { "pop_centers": "Eastsound UGA,Lopez UGA,Roche Harbor CDP" }, "geometry": { "type": "MultiPolygon", "coordinates": [ [ [ [ -123.013137117, 48.517977036 ], [ -123.013242424, 48.517982413 ], [ -123.013236934, 48.51798256 ], [ -123.013137117, 48.517977036 ] ] ], [ [ [ -123.013374554, 48.517989535 ], [ -123.013359554, 48.517988775 ], [ -123.013359575, 48.517988771 ], [ -123.013374554, 48.517989535 ] ] ], [ [ [ -123.013117772, 48.519028187 ], [ -123.013113337, 48.519039129 ], [ -123.013112623, 48.519040883 ], [ -123.013117772, 48.519028187 ] ] ], [ [ [ -123.012374098, 48.518886129 ], [ -123.012579875, 48.518658361 ], [ -123.012494028, 48.518881469 ], [ -123.011475776, 48.519266786 ], [ -123.009547142, 48.519950512 ], [ -123.008924184, 48.520111757 ], [ -123.008211453, 48.520224118 ], [ -123.010864526, 48.519467996 ], [ -123.012374098, 48.518886129 ] ] ], [ [ [ -123.013121601, 48.519640844 ], [ -123.013121802, 48.519640225 ], [ -123.013121797, 48.519640241 ], [ -123.013121601, 48.519640844 ] ] ], [ [ [ -123.00370039, 48.520444157 ], [ -123.003520878, 48.520283669 ], [ -123.003735014, 48.520412205 ], [ -123.00384569, 48.520733954 ], [ -123.006328129, 48.520798415 ], [ -123.007352662, 48.520393373 ], [ -123.008168516, 48.520231925 ], [ -123.007340659, 48.520454617 ], [ -123.006239969, 48.520867366 ], [ -123.005316297, 48.520957168 ], [ -123.003785946, 48.520752836 ], [ -123.00370039, 48.520444157 ] ] ], [ [ [ -123.009714165, 48.521372488 ], [ -123.009428688, 48.521251889 ], [ -123.009904614, 48.521424205 ], [ -123.009714165, 48.521372488 ] ] ], [ [ [ -123.014340575, 48.5215505 ], [ -123.014310017, 48.521557303 ], [ -123.014310001, 48.521557302 ], [ -123.014340575, 48.5215505 ] ] ], [ [ [ -123.01345441, 48.521772283 ], [ -123.013686007, 48.521768655 ], [ -123.013411014, 48.52179395 ], [ -123.01345441, 48.521772283 ] ] ], [ [ [ -123.01222353, 48.521865046 ], [ -123.011265901, 48.521783024 ], [ -123.011530588, 48.521794845 ], [ -123.011917455, 48.521827774 ], [ -123.01222353, 48.521865046 ] ] ], [ [ [ -123.058395273, 48.533446511 ], [ -123.066583024, 48.533442066 ], [ -123.066656179, 48.539515643 ], [ -123.06692118, 48.540058643 ], [ -123.065575179, 48.540520643 ], [ -123.065198179, 48.540735643 ], [ -123.06517518, 48.540898643 ], [ -123.063287179, 48.540958644 ], [ -123.059117178, 48.540462644 ], [ -123.052774177, 48.540305645 ], [ -123.045325176, 48.539159645 ], [ -123.045407176, 48.539879645 ], [ -123.044763176, 48.540027646 ], [ -123.044771177, 48.542040646 ], [ -123.040617176, 48.541973646 ], [ -123.039840176, 48.542105646 ], [ -123.037089176, 48.543201647 ], [ -123.036800176, 48.544501647 ], [ -123.034874176, 48.546047647 ], [ -123.033668176, 48.546760647 ], [ -123.031223176, 48.547192647 ], [ -123.028188175, 48.547177648 ], [ -123.026862175, 48.546769648 ], [ -123.025458174, 48.546094648 ], [ -123.023641174, 48.545808648 ], [ -123.022997174, 48.545967648 ], [ -123.019884173, 48.545280649 ], [ -123.018727315, 48.544693538 ], [ -123.018841134, 48.544477363 ], [ -123.018155191, 48.54346536 ], [ -123.017198721, 48.543125879 ], [ -123.016794199, 48.542171651 ], [ -123.016183918, 48.541745323 ], [ -123.016200116, 48.540847646 ], [ -123.016556144, 48.540493669 ], [ -123.01747099, 48.540360735 ], [ -123.017745719, 48.540185907 ], [ -123.017949761, 48.539973323 ], [ -123.019604178085018, 48.539731019395305 ], [ -123.020514924, 48.544922209 ], [ -123.020981237, 48.544930211 ], [ -123.02107329, 48.54493179 ], [ -123.021132119, 48.544921183 ], [ -123.021244246, 48.544889611 ], [ -123.022530833, 48.544363485 ], [ -123.022676489, 48.54429644 ], [ -123.022825128, 48.54420297 ], [ -123.022942375, 48.544091539 ], [ -123.023023423, 48.543966714 ], [ -123.023064956, 48.543833607 ], [ -123.023071008, 48.543462738 ], [ -123.023070192, 48.542264147 ], [ -123.023239053, 48.54219848 ], [ -123.023391846, 48.54213934 ], [ -123.023781233, 48.54223564 ], [ -123.023791132, 48.542261147 ], [ -123.023851104, 48.542383557 ], [ -123.023929986, 48.542501149 ], [ -123.024026996, 48.542612603 ], [ -123.02408239, 48.5426632 ], [ -123.02411739, 48.542695157 ], [ -123.024199917, 48.542770165 ], [ -123.024814557, 48.543328826 ], [ -123.025416153, 48.544012985 ], [ -123.025906776, 48.544735146 ], [ -123.025911033, 48.544743697 ], [ -123.026142517, 48.545135893 ], [ -123.026434457, 48.545509882 ], [ -123.026783685, 48.545861551 ], [ -123.027683215, 48.546566663 ], [ -123.028420593, 48.546562119 ], [ -123.028452486, 48.543520932 ], [ -123.034059711, 48.543507802 ], [ -123.033990873, 48.536225435 ], [ -123.033992769, 48.535834557 ], [ -123.033362874, 48.535830514 ], [ -123.032938914, 48.535901238 ], [ -123.033008084, 48.536223346 ], [ -123.032841237, 48.536222991 ], [ -123.032782346, 48.535948755 ], [ -123.032738181, 48.535743078 ], [ -123.03271289, 48.535625306 ], [ -123.032658287, 48.535537325 ], [ -123.032023188, 48.535535968 ], [ -123.032021196, 48.535947129 ], [ -123.031253444, 48.535945484 ], [ -123.031222928, 48.534533946 ], [ -123.031953153, 48.534645328 ], [ -123.031963635, 48.531827528 ], [ -123.031202098, 48.531493469 ], [ -123.03122696, 48.531056627 ], [ -123.031240081, 48.529969483 ], [ -123.030212887, 48.529960115 ], [ -123.030203294, 48.530306448 ], [ -123.029988112, 48.530712058 ], [ -123.029126152, 48.530483358 ], [ -123.028549026, 48.530506625 ], [ -123.028579812, 48.529442115 ], [ -123.028782785, 48.529207428 ], [ -123.028936199, 48.529049591 ], [ -123.029334214, 48.528714608 ], [ -123.030294626, 48.527920785 ], [ -123.031080394, 48.527397099 ], [ -123.031404792, 48.527192247 ], [ -123.031706562, 48.527032524 ], [ -123.032031604, 48.526892103 ], [ -123.032200781, 48.526830051 ], [ -123.033905386, 48.526230385 ], [ -123.034051841, 48.526163903 ], [ -123.034039458, 48.525970427 ], [ -123.033982396, 48.525250544 ], [ -123.028518874, 48.525259135 ], [ -123.028471982, 48.521750911 ], [ -123.023003468, 48.521718629 ], [ -123.023096602, 48.524140281 ], [ -123.021800876, 48.524134953 ], [ -123.021800614, 48.52472978 ], [ -123.02036844, 48.524723874 ], [ -123.020368425, 48.524759889 ], [ -123.019148901, 48.524754736 ], [ -123.019148654, 48.525321883 ], [ -123.018721975, 48.525320116 ], [ -123.018721746, 48.525779217 ], [ -123.018240013, 48.525777213 ], [ -123.018239875, 48.526023911 ], [ -123.017543361, 48.526015067 ], [ -123.017528083, 48.527188714 ], [ -123.010126535, 48.527228793 ], [ -123.006819301, 48.527309265 ], [ -123.006867027, 48.525334776 ], [ -123.001305386, 48.525357622 ], [ -123.001341206, 48.525776756 ], [ -123.001422146, 48.52581704 ], [ -123.00158283, 48.526052609 ], [ -123.001782416, 48.526953185 ], [ -123.001832922, 48.527097037 ], [ -123.001916366, 48.527153386 ], [ -123.002079992, 48.527190255 ], [ -123.003436102, 48.52734914 ], [ -123.004075951, 48.52746094 ], [ -123.004460722, 48.52760345 ], [ -123.004763879, 48.527780557 ], [ -123.005029006, 48.527992713 ], [ -123.005216803, 48.528223555 ], [ -123.00530509, 48.528517502 ], [ -123.005366633, 48.528987995 ], [ -123.004714077, 48.528982539 ], [ -123.00380436187595, 48.528986743689487 ], [ -123.003802789, 48.528228667 ], [ -123.003112237, 48.527843368 ], [ -123.002648358, 48.527786673 ], [ -123.001854966, 48.528036602 ], [ -123.001203549, 48.527777054 ], [ -123.000763475, 48.527386796 ], [ -123.000148732, 48.5271085 ], [ -123.000382846, 48.526495686 ], [ -123.000174906, 48.526047151 ], [ -122.998389418, 48.525836336 ], [ -122.997181403, 48.526160879 ], [ -122.996591233, 48.526555459 ], [ -122.996688769, 48.526996383 ], [ -122.996155059, 48.527551907 ], [ -122.995949843, 48.528154584 ], [ -122.995658692, 48.528276115 ], [ -122.996367424, 48.528985899 ], [ -122.996685004, 48.529575438 ], [ -122.995947335, 48.529293162 ], [ -122.995475086, 48.529415708 ], [ -122.995387643, 48.529455698 ], [ -122.9952988, 48.529561378 ], [ -122.995051385, 48.529584785 ], [ -122.994591366, 48.529362962 ], [ -122.994146064, 48.529279048 ], [ -122.993789797, 48.529242884 ], [ -122.993634812, 48.52933104 ], [ -122.993507972, 48.5296302 ], [ -122.993680087, 48.529945577 ], [ -122.994584662, 48.530974016 ], [ -122.994550887, 48.531375095 ], [ -122.994166399, 48.532006956 ], [ -122.994103447, 48.532633555 ], [ -122.994156581, 48.533099109 ], [ -122.99432655, 48.533385749 ], [ -122.9944142, 48.533461185 ], [ -122.979253234, 48.533459451 ], [ -122.97871709, 48.532491202 ], [ -122.978825894, 48.532142887 ], [ -122.979514353, 48.531941781 ], [ -122.979806036, 48.531499525 ], [ -122.979499785, 48.53085884 ], [ -122.980050654, 48.530281485 ], [ -122.980135282, 48.530031854 ], [ -122.980182086, 48.529722727 ], [ -122.980058035, 48.52897897 ], [ -122.98015125, 48.528463771 ], [ -122.979819503, 48.527960872 ], [ -122.978326399, 48.527181372 ], [ -122.976447879, 48.526784814 ], [ -122.975163729, 48.526894674 ], [ -122.974882766, 48.527191552 ], [ -122.974822632, 48.527537954 ], [ -122.974436047, 48.527718401 ], [ -122.974456072, 48.528088207 ], [ -122.974174503, 48.528259905 ], [ -122.97388124, 48.5280577 ], [ -122.97383111, 48.527711342 ], [ -122.973452333, 48.527287857 ], [ -122.97366288, 48.526710906 ], [ -122.973586618, 48.526404758 ], [ -122.973388228, 48.526316845 ], [ -122.972636497, 48.526160917 ], [ -122.971579807, 48.525253255 ], [ -122.97163967, 48.524412907 ], [ -122.9715728, 48.524000772 ], [ -122.972172812, 48.523490148 ], [ -122.972204588, 48.523396931 ], [ -122.971979173, 48.523313474 ], [ -122.971900454, 48.523222453 ], [ -122.972185257, 48.522792987 ], [ -122.972064466, 48.522550567 ], [ -122.971453249, 48.522275998 ], [ -122.971581192, 48.522186993 ], [ -122.971649233, 48.522028495 ], [ -122.971948125, 48.522024764 ], [ -122.972021462, 48.521981517 ], [ -122.971896496, 48.52159051 ], [ -122.972264583, 48.521173673 ], [ -122.972987827, 48.520656423 ], [ -122.973479644, 48.520559004 ], [ -122.973917645, 48.520684525 ], [ -122.97396801, 48.52058239 ], [ -122.973662173, 48.520312431 ], [ -122.973937976, 48.51988921 ], [ -122.974628261, 48.519974232 ], [ -122.974968901, 48.519857484 ], [ -122.97610172, 48.519947626 ], [ -122.976736923, 48.519892128 ], [ -122.979354338, 48.518846261 ], [ -122.979824822, 48.518076786 ], [ -122.980604594, 48.518228722 ], [ -122.981001201, 48.517727727 ], [ -122.981020967, 48.517591765 ], [ -122.980884802, 48.517360809 ], [ -122.981030451, 48.517250802 ], [ -122.981192906, 48.516920216 ], [ -122.981000496, 48.51635171 ], [ -122.9814264, 48.516396091 ], [ -122.981346744, 48.516190681 ], [ -122.981670682, 48.516021108 ], [ -122.981741696, 48.515582384 ], [ -122.981608987, 48.515467126 ], [ -122.985305691, 48.515467657 ], [ -122.985925213, 48.51603358 ], [ -122.986133081, 48.516080493 ], [ -122.986730635, 48.516056196 ], [ -122.988243787, 48.516728355 ], [ -122.989095054, 48.516286004 ], [ -122.989777241, 48.516276389 ], [ -122.990309424, 48.515806544 ], [ -122.991030357, 48.515468245 ], [ -122.993388307, 48.515468405 ], [ -122.995550566, 48.516053327 ], [ -122.996761306, 48.516057865 ], [ -122.997483018, 48.516344329 ], [ -122.997651672, 48.516253555 ], [ -122.997967598, 48.516449924 ], [ -122.998198017, 48.516415465 ], [ -122.998219155, 48.516531814 ], [ -122.998415382, 48.516720402 ], [ -122.998172121, 48.517555029 ], [ -122.998868829, 48.517862693 ], [ -122.998835522, 48.518233983 ], [ -122.99928741, 48.518882215 ], [ -122.999321051, 48.519279553 ], [ -122.999590191, 48.519645933 ], [ -122.999755337, 48.51975697 ], [ -122.999851619, 48.519788076 ], [ -123.001313097, 48.519696898 ], [ -123.001809698, 48.519617641 ], [ -123.001965431, 48.519670844 ], [ -123.002137465, 48.519565495 ], [ -123.00227774, 48.519749788 ], [ -123.002868892, 48.51981278 ], [ -123.003144223, 48.520143608 ], [ -123.003417381, 48.520176939 ], [ -123.00376052, 48.520774927 ], [ -123.005115796, 48.520975686 ], [ -123.006250793, 48.520894003 ], [ -123.007358551, 48.520479329 ], [ -123.009566201, 48.519974849 ], [ -123.012521347, 48.518902459 ], [ -123.012620675, 48.518802986 ], [ -123.012610702, 48.518216755 ], [ -123.013072109, 48.518014985 ], [ -123.013639944, 48.518005811 ], [ -123.013762768, 48.518150469 ], [ -123.013574395, 48.518470357 ], [ -123.013102562, 48.518863092 ], [ -123.013090238, 48.519063792 ], [ -123.013177611, 48.519391331 ], [ -123.013283374, 48.519469774 ], [ -123.013112066, 48.519556688 ], [ -123.013112616, 48.519721373 ], [ -123.014097289, 48.521462548 ], [ -123.01283101, 48.519669307 ], [ -123.012355779, 48.519622143 ], [ -123.008998693, 48.520914661 ], [ -123.009060059, 48.521030276 ], [ -123.009424439, 48.52128661 ], [ -123.00969486, 48.521396751 ], [ -123.011487882, 48.521847636 ], [ -123.012455735, 48.521892497 ], [ -123.014521791, 48.521809294 ], [ -123.015100979, 48.521701086 ], [ -123.015176921, 48.521532955 ], [ -123.016675747, 48.520854594 ], [ -123.016450703, 48.520174431 ], [ -123.016117273, 48.520050115 ], [ -123.016116166, 48.519237648 ], [ -123.016614166, 48.519110648 ], [ -123.017088166, 48.519251648 ], [ -123.017606166, 48.519786648 ], [ -123.017716167, 48.522281648 ], [ -123.018108167, 48.521899648 ], [ -123.018744167, 48.521716648 ], [ -123.023096168, 48.521718647 ], [ -123.023136165, 48.511544647 ], [ -123.023491165, 48.511121647 ], [ -123.024379165, 48.510841646 ], [ -123.0312896, 48.510831646 ], [ -123.031292453, 48.515464342 ], [ -123.045003607, 48.515459798 ], [ -123.045037172, 48.525377645 ], [ -123.058385999, 48.525379362 ], [ -123.058395273, 48.533446511 ] ] ], [ [ [ -123.020300321191826, 48.539078337796838 ], [ -123.020286015, 48.539136021 ], [ -123.020229248199499, 48.539186185929367 ], [ -123.020300321191826, 48.539078337796838 ] ] ], [ [ [ -123.017913309, 48.537129348 ], [ -123.017832237728868, 48.537096732922421 ], [ -123.01794122540953, 48.537130552059367 ], [ -123.017913309, 48.537129348 ] ] ], [ [ [ -123.014112999, 48.535517581 ], [ -123.014123314, 48.535171709 ], [ -123.014317983078726, 48.535046954816814 ], [ -123.014426, 48.535109113 ], [ -123.014460255, 48.535169266 ], [ -123.014469109, 48.535196666 ], [ -123.014516367371229, 48.53523741659663 ], [ -123.014112999, 48.535517581 ] ] ], [ [ [ -123.011100750738237, 48.534465595425765 ], [ -123.011214073, 48.534482316 ], [ -123.011505469, 48.534584264 ], [ -123.011846790331902, 48.534738299828724 ], [ -123.011100750738237, 48.534465595425765 ] ] ], [ [ [ -123.010651748, 48.534469274 ], [ -123.010065435702174, 48.534143964683459 ], [ -123.010307974, 48.534231697 ], [ -123.010525644, 48.534367234 ], [ -123.010721113555689, 48.534449810234534 ], [ -123.010651748, 48.534469274 ] ] ], [ [ [ -123.007622231453126, 48.533768410644058 ], [ -123.007818536, 48.533763592 ], [ -123.00821575, 48.533782247 ], [ -123.0085393, 48.533839975 ], [ -123.008837413, 48.533864948 ], [ -123.009094715, 48.533917723 ], [ -123.009542261, 48.533974416 ], [ -123.009966555, 48.534108197 ], [ -123.01003232362477, 48.53413198719668 ], [ -123.007622231453126, 48.533768410644058 ] ] ], [ [ [ -123.005394108331174, 48.532301810346027 ], [ -123.005417856, 48.53231913 ], [ -123.005416732663534, 48.532325074993132 ], [ -123.005394108331174, 48.532301810346027 ] ] ], [ [ [ -123.018008921, 48.539929659 ], [ -123.018884788, 48.539701823 ], [ -123.01958989111165, 48.539649584621387 ], [ -123.019592786034124, 48.539666085482075 ], [ -123.018008921, 48.539929659 ] ] ], [ [ [ -123.017637514, 48.540227106 ], [ -123.017452633, 48.540274475 ], [ -123.017191875, 48.540334614 ], [ -123.017637514, 48.540227106 ] ] ], [ [ [ -123.017775212, 48.543336533 ], [ -123.017741844, 48.54332936 ], [ -123.017509263, 48.543278443 ], [ -123.017199584, 48.543126375 ], [ -123.017199571, 48.543126359 ], [ -123.017787439, 48.543338504 ], [ -123.017775212, 48.543336533 ] ] ], [ [ [ -123.031279532, 48.55144974 ], [ -123.031279532180392, 48.551449739110787 ], [ -123.031279532177351, 48.551449739999953 ], [ -123.031279532, 48.55144974 ] ] ], [ [ [ -123.16325438, 48.59422957 ], [ -123.16335807, 48.59427762 ], [ -123.16328562, 48.59434605 ], [ -123.16319994, 48.594398 ], [ -123.16311308, 48.59441673 ], [ -123.16291272, 48.59443801 ], [ -123.1629345, 48.59437893 ], [ -123.16298421, 48.59436103 ], [ -123.16303213, 48.59431815 ], [ -123.16310628, 48.59428326 ], [ -123.16314268, 48.59425743 ], [ -123.16325438, 48.59422957 ] ] ], [ [ [ -123.17138615, 48.59527065 ], [ -123.17143671, 48.59526951 ], [ -123.17149401, 48.59525863 ], [ -123.17153686, 48.59524808 ], [ -123.17159467, 48.59523718 ], [ -123.17165295, 48.59524547 ], [ -123.17172568, 48.59525343 ], [ -123.17176252, 48.59526699 ], [ -123.17179534, 48.595343 ], [ -123.17176791, 48.5953724 ], [ -123.17174122, 48.59541617 ], [ -123.17174295, 48.59545006 ], [ -123.17171675, 48.59550341 ], [ -123.17170426, 48.59554207 ], [ -123.1716477, 48.59556733 ], [ -123.17160485, 48.59557788 ], [ -123.17156102, 48.59556927 ], [ -123.17150125, 48.59554184 ], [ -123.17143, 48.59556262 ], [ -123.17138666, 48.5955636 ], [ -123.17131491, 48.5955748 ], [ -123.17127157, 48.59557578 ], [ -123.17122921, 48.59559592 ], [ -123.17117936, 48.59562102 ], [ -123.1711365, 48.59563158 ], [ -123.17108545, 48.59562313 ], [ -123.17099901, 48.59562987 ], [ -123.1710666, 48.59553721 ], [ -123.17107884, 48.59549376 ], [ -123.17111947, 48.59543974 ], [ -123.17113245, 48.59541067 ], [ -123.17115938, 48.59537169 ], [ -123.17120174, 48.59535155 ], [ -123.17127302, 48.59532116 ], [ -123.1713433, 48.59528121 ], [ -123.17138615, 48.59527065 ] ] ], [ [ [ -123.1444326, 48.62355329 ], [ -123.14431055, 48.62359266 ], [ -123.14415176, 48.62364108 ], [ -123.14403621, 48.62366592 ], [ -123.14397127, 48.62367969 ], [ -123.14376498, 48.62371889 ], [ -123.14371459, 48.62375461 ], [ -123.14363837, 48.62379057 ], [ -123.14351002, 48.62382803 ], [ -123.14327565, 48.62383324 ], [ -123.14306586, 48.62380329 ], [ -123.14285557, 48.6237737 ], [ -123.14264577, 48.62374376 ], [ -123.14248812, 48.62371266 ], [ -123.14227956, 48.62371729 ], [ -123.14206977, 48.62368735 ], [ -123.14188928, 48.62372596 ], [ -123.14168298, 48.62376515 ], [ -123.14152831, 48.62380319 ], [ -123.14134608, 48.62380724 ], [ -123.14111554, 48.62381681 ], [ -123.14093487, 48.62371872 ], [ -123.14084827, 48.6236415 ], [ -123.14081525, 48.62361174 ], [ -123.1406808, 48.62352838 ], [ -123.14057389, 48.62347868 ], [ -123.14049561, 48.62342285 ], [ -123.14036062, 48.62337994 ], [ -123.14020157, 48.62333139 ], [ -123.14013911, 48.62333278 ], [ -123.13996772, 48.62333658 ], [ -123.13980957, 48.62330583 ], [ -123.13962734, 48.62330988 ], [ -123.13933908, 48.62328167 ], [ -123.13912755, 48.62321715 ], [ -123.13901892, 48.62313322 ], [ -123.13896294, 48.62304812 ], [ -123.13907604, 48.62294419 ], [ -123.13927183, 48.62287098 ], [ -123.13956727, 48.62271401 ], [ -123.13983123, 48.62260913 ], [ -123.14005563, 48.62260106 ], [ -123.14028753, 48.62262881 ], [ -123.14052797, 48.6226824 ], [ -123.14061195, 48.62270795 ], [ -123.14077571, 48.62275776 ], [ -123.1410081, 48.62280536 ], [ -123.1412482, 48.62281134 ], [ -123.14141445, 48.62277749 ], [ -123.1414803, 48.62277158 ], [ -123.14160498, 48.62275373 ], [ -123.14179371, 48.62270431 ], [ -123.1421152, 48.62260295 ], [ -123.1424207, 48.62250194 ], [ -123.1427261, 48.62245026 ], [ -123.14308159, 48.62236699 ], [ -123.14339674, 48.62229351 ], [ -123.14377575, 48.62229742 ], [ -123.14414886, 48.62231722 ], [ -123.14446459, 48.62233693 ], [ -123.144637, 48.62234303 ], [ -123.14481948, 48.62230334 ], [ -123.14506768, 48.62222415 ], [ -123.14547261, 48.62217848 ], [ -123.14584541, 48.62218218 ], [ -123.14630764, 48.62218629 ], [ -123.14677227, 48.62216635 ], [ -123.14724231, 48.62205927 ], [ -123.14727665, 48.62205371 ], [ -123.14734176, 48.62204335 ], [ -123.14755563, 48.62203139 ], [ -123.14780353, 48.62200772 ], [ -123.14805961, 48.62196193 ], [ -123.14848256, 48.6218946 ], [ -123.14879601, 48.62192017 ], [ -123.1490778, 48.62197385 ], [ -123.14946672, 48.62199979 ], [ -123.14976406, 48.62194212 ], [ -123.14998642, 48.62184294 ], [ -123.15005957, 48.62171591 ], [ -123.14998449, 48.62160109 ], [ -123.14990098, 48.62151352 ], [ -123.14977594, 48.62143236 ], [ -123.1494703, 48.62135694 ], [ -123.14918879, 48.62125768 ], [ -123.1489885, 48.62116038 ], [ -123.14880594, 48.62103528 ], [ -123.14861332, 48.62086483 ], [ -123.14840468, 48.62068411 ], [ -123.14826397, 48.62056904 ], [ -123.14804767, 48.62048203 ], [ -123.14782332, 48.62045002 ], [ -123.14767473, 48.62049582 ], [ -123.14750221, 48.62057915 ], [ -123.14727218, 48.62062881 ], [ -123.1470716, 48.62059696 ], [ -123.14689916, 48.62062067 ], [ -123.1466272, 48.62070998 ], [ -123.14640285, 48.62074958 ], [ -123.14619659, 48.6207994 ], [ -123.14590883, 48.62087261 ], [ -123.14583506, 48.62088556 ], [ -123.14556157, 48.62093447 ], [ -123.14515696, 48.62097602 ], [ -123.14453568, 48.62097408 ], [ -123.14416284, 48.62090836 ], [ -123.14393836, 48.62090445 ], [ -123.14361686, 48.62094414 ], [ -123.14329354, 48.62095818 ], [ -123.14320051, 48.62093764 ], [ -123.14299616, 48.6208925 ], [ -123.14277941, 48.62073491 ], [ -123.14269625, 48.6206744 ], [ -123.14260316, 48.62050961 ], [ -123.14251002, 48.62032323 ], [ -123.14236926, 48.62011496 ], [ -123.14220805, 48.61989069 ], [ -123.14208314, 48.61973003 ], [ -123.14181741, 48.6195235 ], [ -123.14161699, 48.61940255 ], [ -123.1414516, 48.61936134 ], [ -123.14106981, 48.61937359 ], [ -123.14070414, 48.61934711 ], [ -123.14061742, 48.61934903 ], [ -123.14033971, 48.6193552 ], [ -123.14015749, 48.61935924 ], [ -123.13990082, 48.61943415 ], [ -123.13964189, 48.61947451 ], [ -123.13938521, 48.61954942 ], [ -123.13912678, 48.61958941 ], [ -123.13896916, 48.61955865 ], [ -123.13883681, 48.61952698 ], [ -123.13868092, 48.61953044 ], [ -123.13847464, 48.61956962 ], [ -123.13816407, 48.61961078 ], [ -123.13795901, 48.61968454 ], [ -123.13767827, 48.61979458 ], [ -123.13741983, 48.61983458 ], [ -123.13705888, 48.61991179 ], [ -123.13669444, 48.61991987 ], [ -123.13622573, 48.61993027 ], [ -123.13586129, 48.61993835 ], [ -123.13557357, 48.61991012 ], [ -123.13548508, 48.61989734 ], [ -123.1353638, 48.61988016 ], [ -123.13517985, 48.61984997 ], [ -123.1349898, 48.61969863 ], [ -123.13483078, 48.61965042 ], [ -123.13459381, 48.61960359 ], [ -123.13427804, 48.61954172 ], [ -123.13380288, 48.61941382 ], [ -123.13305335, 48.61936874 ], [ -123.13297083, 48.6193925 ], [ -123.13242882, 48.61954806 ], [ -123.13214407, 48.61958897 ], [ -123.13166258, 48.61985865 ], [ -123.13121349, 48.62024857 ], [ -123.13091161, 48.62046253 ], [ -123.13083917, 48.62055322 ], [ -123.13071523, 48.62070878 ], [ -123.13056975, 48.62091928 ], [ -123.13026438, 48.62106412 ], [ -123.13005983, 48.62113785 ], [ -123.12987934, 48.62117645 ], [ -123.12969364, 48.62111134 ], [ -123.12951055, 48.62109826 ], [ -123.12917366, 48.62114032 ], [ -123.12891694, 48.62121486 ], [ -123.12862922, 48.62118661 ], [ -123.12828624, 48.62110785 ], [ -123.12802261, 48.62104481 ], [ -123.12802098, 48.62104313 ], [ -123.12796786, 48.62099394 ], [ -123.12788471, 48.6208923 ], [ -123.12772308, 48.62079206 ], [ -123.12756199, 48.62069215 ], [ -123.12724621, 48.62062991 ], [ -123.12680411, 48.62062495 ], [ -123.12623372, 48.62098771 ], [ -123.12609423, 48.62105041 ], [ -123.12597791, 48.62105983 ], [ -123.12576792, 48.62101513 ], [ -123.12575749, 48.62099274 ], [ -123.1257216, 48.6209161 ], [ -123.1256632, 48.62084407 ], [ -123.12530303, 48.62062863 ], [ -123.12511696, 48.62056627 ], [ -123.12494183, 48.62055711 ], [ -123.1248381, 48.62061148 ], [ -123.1244531, 48.62068371 ], [ -123.12401167, 48.62070236 ], [ -123.12392984, 48.62065757 ], [ -123.12363891, 48.62058587 ], [ -123.12359343, 48.62055501 ], [ -123.12354582, 48.62052282 ], [ -123.12347607, 48.62045104 ], [ -123.12345281, 48.62037891 ], [ -123.12340687, 48.62036965 ], [ -123.1233952, 48.62034318 ], [ -123.12327789, 48.62027108 ], [ -123.1229411, 48.62010925 ], [ -123.1220216, 48.6197869 ], [ -123.12175386, 48.61972428 ], [ -123.1204162, 48.61955435 ], [ -123.12020642, 48.61955486 ], [ -123.11983529, 48.61963568 ], [ -123.11935489, 48.61981483 ], [ -123.11925291, 48.61985271 ], [ -123.11921794, 48.61989734 ], [ -123.11912526, 48.61992473 ], [ -123.11903171, 48.61999669 ], [ -123.11899669, 48.62012286 ], [ -123.11898525, 48.62020397 ], [ -123.11893834, 48.62025777 ], [ -123.1188811, 48.6203118 ], [ -123.11888071, 48.62036594 ], [ -123.11897424, 48.62043789 ], [ -123.1190084, 48.62050086 ], [ -123.11899682, 48.6205998 ], [ -123.11892805, 48.62067121 ], [ -123.11891525, 48.62086953 ], [ -123.11883457, 48.62095079 ], [ -123.11876511, 48.62104963 ], [ -123.11864836, 48.6211125 ], [ -123.11860134, 48.6211848 ], [ -123.11859015, 48.62122959 ], [ -123.11852023, 48.62131953 ], [ -123.11842741, 48.62136474 ], [ -123.11838098, 48.62142812 ], [ -123.11838176, 48.62167068 ], [ -123.11832246, 48.62172475 ], [ -123.11823022, 48.62176105 ], [ -123.11818344, 48.62179702 ], [ -123.11805578, 48.62186905 ], [ -123.11798536, 48.62188704 ], [ -123.117938, 48.62193194 ], [ -123.11782198, 48.62196807 ], [ -123.11769441, 48.62195923 ], [ -123.11742726, 48.62188768 ], [ -123.11732248, 48.62179747 ], [ -123.11727479, 48.62160871 ], [ -123.11720607, 48.6215369 ], [ -123.11715349, 48.62151887 ], [ -123.11712439, 48.62147429 ], [ -123.11697233, 48.62134812 ], [ -123.11664733, 48.62113256 ], [ -123.11649581, 48.62107902 ], [ -123.11633277, 48.62104286 ], [ -123.1161472, 48.62105243 ], [ -123.11606013, 48.62107833 ], [ -123.11599649, 48.62109755 ], [ -123.1157745, 48.62120522 ], [ -123.11572806, 48.62126859 ], [ -123.11562329, 48.62132298 ], [ -123.11547224, 48.62134069 ], [ -123.11536858, 48.62131419 ], [ -123.11522761, 48.621368 ], [ -123.11514598, 48.62136842 ], [ -123.11499516, 48.62128745 ], [ -123.11480906, 48.62122439 ], [ -123.11468085, 48.62116143 ], [ -123.1145175, 48.62109855 ], [ -123.11444826, 48.6210987 ], [ -123.11430913, 48.62104488 ], [ -123.11420431, 48.62103622 ], [ -123.1140992, 48.6210632 ], [ -123.11401714, 48.62111709 ], [ -123.11387866, 48.62111739 ], [ -123.11382092, 48.62109947 ], [ -123.1137532, 48.62104751 ], [ -123.11370376, 48.62100954 ], [ -123.11350566, 48.6208926 ], [ -123.11335519, 48.62083903 ], [ -123.11304083, 48.62079455 ], [ -123.11270388, 48.62079441 ], [ -123.11258697, 48.62081274 ], [ -123.1124862, 48.62088519 ], [ -123.1124363, 48.62092089 ], [ -123.11242422, 48.62094788 ], [ -123.11223748, 48.62097529 ], [ -123.11217983, 48.62108345 ], [ -123.11202898, 48.62114638 ], [ -123.11198284, 48.62123648 ], [ -123.11194638, 48.62127223 ], [ -123.11192427, 48.62132616 ], [ -123.1118191, 48.62143468 ], [ -123.1117026, 48.62146123 ], [ -123.11162186, 48.62147945 ], [ -123.11143467, 48.62149795 ], [ -123.11136514, 48.62153374 ], [ -123.11122534, 48.6215697 ], [ -123.11115629, 48.62161507 ], [ -123.11091107, 48.62165129 ], [ -123.11078326, 48.62174113 ], [ -123.11058635, 48.62181329 ], [ -123.11042315, 48.62193953 ], [ -123.11027257, 48.62196682 ], [ -123.11024844, 48.62187689 ], [ -123.11019006, 48.62180485 ], [ -123.11002805, 48.62176867 ], [ -123.10939904, 48.62171532 ], [ -123.1090032, 48.62171578 ], [ -123.10896213, 48.62173175 ], [ -123.10888761, 48.6217608 ], [ -123.10879483, 48.62186905 ], [ -123.1087476, 48.62189612 ], [ -123.10873596, 48.62193201 ], [ -123.10849107, 48.62199563 ], [ -123.10843279, 48.62204967 ], [ -123.1082829, 48.62225648 ], [ -123.10822433, 48.62234616 ], [ -123.10814274, 48.62240962 ], [ -123.10788705, 48.62246388 ], [ -123.10766572, 48.62248176 ], [ -123.10751436, 48.62247274 ], [ -123.10742236, 48.62241034 ], [ -123.10737431, 48.62233807 ], [ -123.10714182, 48.62219447 ], [ -123.1071065, 48.62214934 ], [ -123.10707235, 48.62208636 ], [ -123.10707255, 48.62192463 ], [ -123.10716504, 48.62178967 ], [ -123.10719822, 48.62172967 ], [ -123.10720013, 48.62172654 ], [ -123.1072705, 48.62164551 ], [ -123.10729321, 48.62158265 ], [ -123.10727648, 48.62154773 ], [ -123.10728482, 48.62146635 ], [ -123.10713853, 48.62133079 ], [ -123.10665756, 48.62100248 ], [ -123.10606045, 48.62067671 ], [ -123.1054654, 48.62038173 ], [ -123.10506181, 48.6202059 ], [ -123.10484891, 48.62013347 ], [ -123.10465925, 48.62006087 ], [ -123.10443154, 48.61991956 ], [ -123.1041704, 48.61980194 ], [ -123.10393325, 48.6196992 ], [ -123.10373249, 48.61964227 ], [ -123.10365068, 48.61962864 ], [ -123.10359286, 48.61962991 ], [ -123.10356044, 48.61968441 ], [ -123.10346551, 48.61970842 ], [ -123.10338579, 48.61969509 ], [ -123.10330189, 48.61968116 ], [ -123.10309052, 48.61963954 ], [ -123.10299723, 48.61963404 ], [ -123.10278945, 48.61965401 ], [ -123.10268709, 48.61969462 ], [ -123.10259417, 48.61969665 ], [ -123.10240757, 48.61968532 ], [ -123.10224548, 48.61968887 ], [ -123.10208287, 48.61969242 ], [ -123.10187113, 48.61964326 ], [ -123.10181332, 48.61964453 ], [ -123.10173035, 48.61960763 ], [ -123.10168082, 48.61954704 ], [ -123.10167777, 48.61948578 ], [ -123.10175728, 48.6194532 ], [ -123.10180105, 48.61939811 ], [ -123.10180661, 48.61933323 ], [ -123.10181586, 48.61922853 ], [ -123.10178727, 48.61912123 ], [ -123.10173392, 48.61898398 ], [ -123.1016844, 48.61892339 ], [ -123.1016558, 48.61881609 ], [ -123.10162646, 48.61869372 ], [ -123.10157463, 48.61858693 ], [ -123.10149858, 48.61845018 ], [ -123.10133061, 48.61834592 ], [ -123.10128185, 48.61830074 ], [ -123.10127611, 48.6181854 ], [ -123.10133585, 48.617984 ], [ -123.10139406, 48.61775179 ], [ -123.10150176, 48.61757984 ], [ -123.1016539, 48.61737642 ], [ -123.10176086, 48.6171894 ], [ -123.10188872, 48.61695533 ], [ -123.10192088, 48.61667744 ], [ -123.10185197, 48.61621709 ], [ -123.10174758, 48.61598845 ], [ -123.10162301, 48.61582158 ], [ -123.10142168, 48.61558683 ], [ -123.10117486, 48.61529962 ], [ -123.10100307, 48.61511837 ], [ -123.10076367, 48.61496977 ], [ -123.1005753, 48.61491221 ], [ -123.10043363, 48.61486906 ], [ -123.10017355, 48.61478258 ], [ -123.09996043, 48.61469473 ], [ -123.09984276, 48.61466647 ], [ -123.09967711, 48.61460842 ], [ -123.09958242, 48.61456423 ], [ -123.09953252, 48.61449611 ], [ -123.09969269, 48.61445424 ], [ -123.09978637, 48.61446761 ], [ -123.09986243, 48.6143659 ], [ -123.09985707, 48.61425809 ], [ -123.09971439, 48.61418412 ], [ -123.0994247, 48.61413597 ], [ -123.09938667, 48.61412961 ], [ -123.09930435, 48.61411599 ], [ -123.09914153, 48.61410447 ], [ -123.09909201, 48.61404388 ], [ -123.09918134, 48.61398026 ], [ -123.0991779, 48.61391112 ], [ -123.09911856, 48.61388158 ], [ -123.0989302, 48.61382403 ], [ -123.09889319, 48.61378646 ], [ -123.09884138, 48.61367967 ], [ -123.09886001, 48.61358675 ], [ -123.09887943, 48.61350958 ], [ -123.09899173, 48.61343003 ], [ -123.09905911, 48.61338231 ], [ -123.09905375, 48.6132745 ], [ -123.09900119, 48.61315264 ], [ -123.09890369, 48.61306227 ], [ -123.09893253, 48.61294617 ], [ -123.09890471, 48.61285427 ], [ -123.09880851, 48.61277962 ], [ -123.09864133, 48.61269077 ], [ -123.0984993, 48.61264008 ], [ -123.09821805, 48.61258455 ], [ -123.09808863, 48.61261102 ], [ -123.09796537, 48.61263633 ], [ -123.09791048, 48.61270674 ], [ -123.09789261, 48.61281506 ], [ -123.09780199, 48.61286295 ], [ -123.09764145, 48.61289729 ], [ -123.09758198, 48.61287564 ], [ -123.0975691, 48.61284508 ], [ -123.09756413, 48.61274514 ], [ -123.09760752, 48.61268252 ], [ -123.0977525, 48.61256389 ], [ -123.0978084, 48.61252429 ], [ -123.097979, 48.61238043 ], [ -123.09798693, 48.61237375 ], [ -123.09814571, 48.61229353 ], [ -123.09841609, 48.61210946 ], [ -123.0985672, 48.61187523 ], [ -123.09869584, 48.61165656 ], [ -123.09870606, 48.61139457 ], [ -123.09867596, 48.61125681 ], [ -123.09858076, 48.61121263 ], [ -123.09853639, 48.61119305 ], [ -123.09841435, 48.61113918 ], [ -123.09845164, 48.61095369 ], [ -123.09844704, 48.61086128 ], [ -123.09837047, 48.61072419 ], [ -123.09832073, 48.61064853 ], [ -123.09829214, 48.61054123 ], [ -123.09831001, 48.61043291 ], [ -123.09832814, 48.61034035 ], [ -123.09830084, 48.61024844 ], [ -123.09822657, 48.61015755 ], [ -123.09817555, 48.6100665 ], [ -123.09822007, 48.61002681 ], [ -123.09833492, 48.61000888 ], [ -123.09850975, 48.61001294 ], [ -123.09864553, 48.6099483 ], [ -123.09878181, 48.60988365 ], [ -123.0988686, 48.60975875 ], [ -123.09892986, 48.60958781 ], [ -123.09896815, 48.60943313 ], [ -123.09888903, 48.60923442 ], [ -123.09881325, 48.60911308 ], [ -123.09880559, 48.60895906 ], [ -123.09882348, 48.60885109 ], [ -123.09891178, 48.60875665 ], [ -123.0990011, 48.60869302 ], [ -123.09909095, 48.60862973 ], [ -123.09917925, 48.60853529 ], [ -123.09931477, 48.60845523 ], [ -123.099473, 48.60837468 ], [ -123.09952544, 48.60832797 ], [ -123.09965115, 48.60821695 ], [ -123.09971393, 48.60807681 ], [ -123.09977621, 48.60793703 ], [ -123.09975606, 48.60776033 ], [ -123.09980612, 48.60762424 ], [ -123.09987335, 48.60758405 ], [ -123.0998975, 48.60748793 ], [ -123.09993155, 48.60735185 ], [ -123.09994941, 48.60724353 ], [ -123.09987593, 48.60716839 ], [ -123.09987056, 48.60706058 ], [ -123.09993411, 48.60693585 ], [ -123.10004335, 48.60679504 ], [ -123.10008443, 48.60668621 ], [ -123.10012094, 48.60648532 ], [ -123.10018067, 48.60628392 ], [ -123.10014901, 48.60611501 ], [ -123.1000995, 48.60605442 ], [ -123.10004848, 48.60596336 ], [ -123.10004159, 48.60582475 ], [ -123.10007962, 48.60565466 ], [ -123.10014699, 48.60560693 ], [ -123.10023707, 48.60555871 ], [ -123.10041979, 48.60549304 ], [ -123.10046319, 48.60543076 ], [ -123.10050734, 48.60538354 ], [ -123.10062064, 48.60533481 ], [ -123.10073522, 48.60530146 ], [ -123.10084674, 48.60520651 ], [ -123.10093505, 48.60511242 ], [ -123.10102105, 48.60497177 ], [ -123.10108332, 48.60483198 ], [ -123.10119637, 48.60476784 ], [ -123.10137985, 48.60471757 ], [ -123.10145778, 48.60470559 ], [ -123.10161003, 48.6046817 ], [ -123.10184072, 48.60464581 ], [ -123.10188487, 48.60459859 ], [ -123.10201987, 48.60451889 ], [ -123.10210739, 48.60440904 ], [ -123.1021694, 48.6042535 ], [ -123.10216558, 48.60417684 ], [ -123.1021842, 48.60408392 ], [ -123.10215868, 48.60403822 ], [ -123.10204027, 48.60399456 ], [ -123.10191127, 48.60396655 ], [ -123.1018531, 48.60396028 ], [ -123.1018342, 48.60394391 ], [ -123.10179211, 48.60390782 ], [ -123.10176659, 48.60386213 ], [ -123.10191574, 48.60382803 ], [ -123.10197366, 48.60381888 ], [ -123.10201629, 48.6037412 ], [ -123.10197814, 48.60368036 ], [ -123.10197623, 48.60364203 ], [ -123.10201807, 48.6035486 ], [ -123.10208581, 48.6035084 ], [ -123.10224609, 48.60345898 ], [ -123.10233692, 48.60342615 ], [ -123.10235325, 48.60328703 ], [ -123.10225476, 48.60316619 ], [ -123.10213251, 48.60304551 ], [ -123.10205595, 48.60290843 ], [ -123.10212027, 48.60279943 ], [ -123.10223408, 48.60275069 ], [ -123.10247253, 48.60265296 ], [ -123.10264811, 48.6025686 ], [ -123.10275238, 48.60249436 ], [ -123.10287214, 48.60240951 ], [ -123.10295738, 48.6022538 ], [ -123.10297332, 48.60210715 ], [ -123.10293555, 48.60181537 ], [ -123.10276457, 48.60164951 ], [ -123.10257243, 48.6015153 ], [ -123.1024285, 48.60142594 ], [ -123.10233485, 48.60141257 ], [ -123.10230296, 48.6014674 ], [ -123.10221236, 48.6015153 ], [ -123.10210661, 48.60148712 ], [ -123.10189149, 48.60136848 ], [ -123.10179477, 48.60129351 ], [ -123.10169628, 48.60117266 ], [ -123.10166846, 48.60108076 ], [ -123.10173301, 48.60098683 ], [ -123.10182132, 48.60089274 ], [ -123.10177104, 48.60081675 ], [ -123.10180964, 48.60078266 ], [ -123.10186009, 48.60073771 ], [ -123.10202264, 48.60073415 ], [ -123.10213593, 48.60068541 ], [ -123.10224438, 48.6005292 ], [ -123.10226224, 48.60042088 ], [ -123.10228596, 48.60036828 ], [ -123.10232502, 48.60028108 ], [ -123.10236609, 48.60017225 ], [ -123.10245898, 48.60017022 ], [ -123.10271619, 48.60021084 ], [ -123.10299637, 48.60023555 ], [ -123.10332401, 48.60029004 ], [ -123.10362765, 48.60032931 ], [ -123.10364712, 48.60033642 ], [ -123.10391115, 48.60043102 ], [ -123.10421532, 48.60047062 ], [ -123.10447254, 48.60051124 ], [ -123.10468534, 48.60058332 ], [ -123.1049867, 48.60057672 ], [ -123.10530976, 48.60053915 ], [ -123.10558303, 48.60042523 ], [ -123.10573816, 48.60028306 ], [ -123.10584583, 48.60011144 ], [ -123.10590783, 48.59995624 ], [ -123.10586556, 48.59986537 ], [ -123.10606981, 48.59987031 ], [ -123.10628481, 48.59992531 ], [ -123.10650781, 48.60002331 ], [ -123.10692181, 48.60029831 ], [ -123.10736081, 48.60047831 ], [ -123.10763281, 48.60053331 ], [ -123.10834481, 48.60057731 ], [ -123.10850181, 48.60063131 ], [ -123.10877482, 48.60076331 ], [ -123.10902282, 48.60095531 ], [ -123.10913082, 48.60101531 ], [ -123.10925432, 48.60105631 ], [ -123.10981582, 48.60096831 ], [ -123.11053082, 48.60077031 ], [ -123.11106582, 48.60040332 ], [ -123.11179882, 48.59974332 ], [ -123.11276282, 48.59896832 ], [ -123.11318282, 48.59844432 ], [ -123.11384282, 48.59799332 ], [ -123.11484982, 48.59754032 ], [ -123.11530382, 48.59771832 ], [ -123.11569682, 48.59782932 ], [ -123.11578383, 48.59785332 ], [ -123.11604783, 48.59789332 ], [ -123.11629383, 48.59793232 ], [ -123.11665883, 48.59795332 ], [ -123.11678783, 48.59796132 ], [ -123.11777983, 48.59796632 ], [ -123.11882983, 48.59796732 ], [ -123.11930484, 48.59796733 ], [ -123.11979084, 48.59796833 ], [ -123.12073284, 48.59796333 ], [ -123.12096084, 48.59796233 ], [ -123.12120884, 48.59796833 ], [ -123.12215384, 48.59798933 ], [ -123.12334685, 48.59802433 ], [ -123.12405585, 48.59804533 ], [ -123.12493885, 48.59804433 ], [ -123.12735286, 48.59797034 ], [ -123.12837186, 48.59791734 ], [ -123.12925686, 48.59784134 ], [ -123.12975586, 48.59778934 ], [ -123.13012886, 48.59775134 ], [ -123.13096087, 48.59773534 ], [ -123.13167587, 48.59796734 ], [ -123.13181587, 48.59808234 ], [ -123.13205687, 48.59795234 ], [ -123.13224287, 48.59771934 ], [ -123.13230487, 48.59750734 ], [ -123.13241487, 48.59713534 ], [ -123.13254087, 48.59667534 ], [ -123.13286387, 48.59542334 ], [ -123.13295987, 48.59522534 ], [ -123.13306986, 48.59500034 ], [ -123.13343086, 48.59467534 ], [ -123.13347286, 48.59463734 ], [ -123.13352686, 48.59461434 ], [ -123.13368286, 48.59454234 ], [ -123.13373586, 48.59451934 ], [ -123.13404287, 48.59438034 ], [ -123.13461887, 48.59429235 ], [ -123.13501687, 48.59423235 ], [ -123.13574587, 48.59421835 ], [ -123.13651187, 48.59417835 ], [ -123.13776587, 48.59418435 ], [ -123.13865088, 48.59418935 ], [ -123.14494217, 48.59422235 ], [ -123.14483436, 48.59431092 ], [ -123.14459633, 48.59445567 ], [ -123.14436596, 48.59458859 ], [ -123.14419153, 48.59468362 ], [ -123.14407636, 48.59475539 ], [ -123.14421934, 48.59488618 ], [ -123.14438387, 48.59497332 ], [ -123.14437804, 48.59514408 ], [ -123.14432248, 48.59534268 ], [ -123.14434835, 48.59544558 ], [ -123.14456272, 48.59538427 ], [ -123.14477671, 48.59528495 ], [ -123.14499889, 48.59516385 ], [ -123.14514602, 48.59509068 ], [ -123.14527063, 48.59513416 ], [ -123.14519959, 48.59533276 ], [ -123.14513411, 48.59544763 ], [ -123.14523344, 48.59542006 ], [ -123.14543741, 48.59532678 ], [ -123.14572744, 48.59521959 ], [ -123.14604074, 48.59509235 ], [ -123.14624515, 48.5949874 ], [ -123.14626322, 48.59498734 ], [ -123.1462786, 48.59508705 ], [ -123.14631451, 48.59531685 ], [ -123.14629257, 48.5955469 ], [ -123.1462351, 48.59578905 ], [ -123.14607241, 48.59598352 ], [ -123.14551079, 48.59621566 ], [ -123.14528059, 48.59630096 ], [ -123.14507442, 48.59642204 ], [ -123.14499318, 48.59651122 ], [ -123.14480457, 48.59670387 ], [ -123.14449922, 48.59687616 ], [ -123.14418553, 48.59690403 ], [ -123.14389577, 48.59682277 ], [ -123.14348899, 48.59671566 ], [ -123.14321546, 48.59668988 ], [ -123.14289411, 48.59672957 ], [ -123.14266389, 48.5968248 ], [ -123.14261583, 48.59686528 ], [ -123.14250686, 48.59695781 ], [ -123.14221328, 48.59741422 ], [ -123.14204061, 48.59763631 ], [ -123.14176305, 48.59793989 ], [ -123.14159015, 48.59818803 ], [ -123.14143553, 48.59842001 ], [ -123.14128872, 48.59862234 ], [ -123.14096909, 48.59900326 ], [ -123.14066555, 48.59926321 ], [ -123.14028677, 48.5995471 ], [ -123.13994138, 48.59981689 ], [ -123.13968773, 48.60001131 ], [ -123.13946524, 48.60017798 ], [ -123.13918583, 48.60033288 ], [ -123.13887204, 48.60047176 ], [ -123.13865004, 48.60057674 ], [ -123.13846716, 48.60070963 ], [ -123.13828893, 48.6009757 ], [ -123.13808227, 48.60118004 ], [ -123.13783627, 48.60137258 ], [ -123.13762217, 48.6015113 ], [ -123.13736831, 48.60164028 ], [ -123.13714563, 48.6017833 ], [ -123.13709639, 48.60188239 ], [ -123.13700074, 48.60209592 ], [ -123.13697517, 48.60215233 ], [ -123.1368363, 48.60247166 ], [ -123.13677289, 48.60270983 ], [ -123.13676471, 48.60296767 ], [ -123.13675307, 48.60332084 ], [ -123.13723302, 48.6035055 ], [ -123.13750093, 48.60376749 ], [ -123.13771724, 48.60411252 ], [ -123.13794339, 48.60445802 ], [ -123.13826081, 48.60476928 ], [ -123.13866995, 48.60505521 ], [ -123.13891964, 48.60528334 ], [ -123.13931096, 48.60565635 ], [ -123.13972723, 48.60594005 ], [ -123.14012639, 48.60620187 ], [ -123.14052505, 48.60639243 ], [ -123.14084048, 48.60655126 ], [ -123.1411561, 48.60671385 ], [ -123.14133737, 48.60680439 ], [ -123.14139832, 48.6068349 ], [ -123.14152111, 48.60688254 ], [ -123.14144811, 48.60698181 ], [ -123.14124921, 48.60703317 ], [ -123.14092012, 48.60708468 ], [ -123.14061421, 48.60713465 ], [ -123.14032489, 48.60725757 ], [ -123.14012855, 48.60739042 ], [ -123.14007888, 48.60744017 ], [ -123.13999762, 48.60752935 ], [ -123.13993184, 48.60770007 ], [ -123.14001726, 48.60791814 ], [ -123.14005122, 48.6080075 ], [ -123.14016617, 48.60810465 ], [ -123.14036657, 48.60822595 ], [ -123.14069017, 48.60830099 ], [ -123.14111279, 48.60832107 ], [ -123.14152534, 48.60835679 ], [ -123.1419083, 48.60855318 ], [ -123.14233102, 48.6087593 ], [ -123.14269792, 48.60893411 ], [ -123.14307115, 48.60908103 ], [ -123.14345988, 48.60915633 ], [ -123.14379127, 48.60916027 ], [ -123.14413865, 48.60910252 ], [ -123.14436082, 48.60896978 ], [ -123.1444838, 48.6088269 ], [ -123.14458093, 48.60862259 ], [ -123.14456315, 48.60848559 ], [ -123.14475351, 48.60840837 ], [ -123.14481904, 48.60832503 ], [ -123.14478318, 48.60818808 ], [ -123.1447732, 48.60802145 ], [ -123.14478947, 48.60785285 ], [ -123.14467219, 48.60770984 ], [ -123.14452332, 48.60761653 ], [ -123.14444008, 48.60752347 ], [ -123.14440633, 48.60748962 ], [ -123.14435475, 48.60735851 ], [ -123.14423778, 48.60722166 ], [ -123.14408109, 48.60710659 ], [ -123.14455728, 48.60673555 ], [ -123.14486874, 48.60650933 ], [ -123.14512447, 48.60630492 ], [ -123.14519594, 48.60606314 ], [ -123.14518548, 48.60600958 ], [ -123.14516219, 48.60588641 ], [ -123.14531711, 48.60566025 ], [ -123.14563076, 48.60555905 ], [ -123.14602705, 48.60545771 ], [ -123.14630676, 48.60531889 ], [ -123.14641879, 48.60514371 ], [ -123.14643647, 48.6049624 ], [ -123.14640696, 48.60490995 ], [ -123.14637887, 48.60487563 ], [ -123.14626899, 48.60480749 ], [ -123.14616, 48.60475681 ], [ -123.14605014, 48.60468902 ], [ -123.14598391, 48.60463601 ], [ -123.14595324, 48.60461168 ], [ -123.14594788, 48.60450593 ], [ -123.14594076, 48.60436526 ], [ -123.14593541, 48.60425951 ], [ -123.14593184, 48.604189 ], [ -123.14608907, 48.6041413 ], [ -123.14614312, 48.60415792 ], [ -123.14619984, 48.60422724 ], [ -123.14625656, 48.60429656 ], [ -123.14628688, 48.60437503 ], [ -123.14629, 48.60443664 ], [ -123.14626592, 48.60448137 ], [ -123.14626992, 48.60456043 ], [ -123.14630026, 48.60463925 ], [ -123.14642265, 48.60468929 ], [ -123.14644407, 48.60469395 ], [ -123.14657048, 48.60472129 ], [ -123.14674462, 48.6047527 ], [ -123.14686435, 48.60475004 ], [ -123.14708808, 48.60470976 ], [ -123.14731099, 48.60464313 ], [ -123.14762136, 48.60447758 ], [ -123.14803893, 48.60432711 ], [ -123.14845434, 48.60412392 ], [ -123.1486584, 48.60396074 ], [ -123.14901887, 48.60372348 ], [ -123.14919661, 48.60356088 ], [ -123.1494753, 48.60329016 ], [ -123.14978748, 48.60289534 ], [ -123.14996611, 48.60275053 ], [ -123.15014437, 48.60258792 ], [ -123.15018986, 48.60244574 ], [ -123.1501573, 48.60232312 ], [ -123.15017914, 48.60223423 ], [ -123.15033413, 48.60214272 ], [ -123.15049091, 48.60208645 ], [ -123.15059096, 48.60196088 ], [ -123.15063696, 48.60181869 ], [ -123.15060655, 48.60174878 ], [ -123.15046233, 48.60152277 ], [ -123.15029842, 48.60143837 ], [ -123.15020998, 48.60140573 ], [ -123.15016314, 48.60138862 ], [ -123.15002783, 48.60133853 ], [ -123.14989024, 48.60125354 ], [ -123.14980453, 48.6011321 ], [ -123.14979917, 48.60102634 ], [ -123.14981834, 48.60088475 ], [ -123.14978668, 48.60077992 ], [ -123.14972726, 48.60065756 ], [ -123.14963977, 48.60050087 ], [ -123.14955176, 48.60034419 ], [ -123.14949058, 48.60018691 ], [ -123.14951117, 48.6000631 ], [ -123.14963306, 48.59984864 ], [ -123.14973311, 48.59972306 ], [ -123.14987557, 48.5996493 ], [ -123.15002922, 48.59953143 ], [ -123.15017991, 48.59941638 ], [ -123.15019531, 48.59940438 ], [ -123.1502208, 48.59937709 ], [ -123.15045257, 48.5992311 ], [ -123.15080397, 48.599091 ], [ -123.15130808, 48.59898759 ], [ -123.15224441, 48.59877962 ], [ -123.15268845, 48.59864294 ], [ -123.15276018, 48.59862112 ], [ -123.15311834, 48.59853295 ], [ -123.15329606, 48.59846217 ], [ -123.15351607, 48.59843054 ], [ -123.15364713, 48.59842761 ], [ -123.15372762, 48.59842581 ], [ -123.15386781, 48.59840932 ], [ -123.15408714, 48.59836434 ], [ -123.15424609, 48.5983207 ], [ -123.15454591, 48.59827391 ], [ -123.15468745, 48.59828412 ], [ -123.15482899, 48.59829432 ], [ -123.15497189, 48.59833121 ], [ -123.15509602, 48.59839526 ], [ -123.15512156, 48.59850159 ], [ -123.15512303, 48.59853034 ], [ -123.15512902, 48.59864841 ], [ -123.15513445, 48.5987552 ], [ -123.15518011, 48.59886108 ], [ -123.15537004, 48.59903055 ], [ -123.15557705, 48.59913968 ], [ -123.1558428, 48.59929684 ], [ -123.15617409, 48.59941176 ], [ -123.15654737, 48.59950929 ], [ -123.15682919, 48.59960647 ], [ -123.15702935, 48.59974316 ], [ -123.15711839, 48.5998282 ], [ -123.15722211, 48.59992765 ], [ -123.15748001, 48.60016378 ], [ -123.15792053, 48.60035438 ], [ -123.15836707, 48.60043964 ], [ -123.15873996, 48.60043781 ], [ -123.1595158, 48.60032452 ], [ -123.16001985, 48.60017962 ], [ -123.16035714, 48.60004666 ], [ -123.16067064, 48.59984229 ], [ -123.16095598, 48.59959228 ], [ -123.16120218, 48.59934453 ], [ -123.16143234, 48.59910638 ], [ -123.16152167, 48.59896356 ], [ -123.16172609, 48.59862594 ], [ -123.16195412, 48.59835631 ], [ -123.16229177, 48.59806847 ], [ -123.16255356, 48.59772134 ], [ -123.16274178, 48.59746152 ], [ -123.16289657, 48.59716372 ], [ -123.16294438, 48.59690567 ], [ -123.16293225, 48.59658626 ], [ -123.1629462, 48.59631253 ], [ -123.16299363, 48.59602673 ], [ -123.16299947, 48.59580662 ], [ -123.16298258, 48.59578953 ], [ -123.1629004, 48.59570742 ], [ -123.16273375, 48.59562001 ], [ -123.1625771, 48.59556665 ], [ -123.16257509, 48.59551701 ], [ -123.16260869, 48.59540593 ], [ -123.16265633, 48.59529658 ], [ -123.16277162, 48.59512611 ], [ -123.16296768, 48.59494937 ], [ -123.16318194, 48.5948661 ], [ -123.16322609, 48.59486066 ], [ -123.16346421, 48.59483031 ], [ -123.16390064, 48.59469752 ], [ -123.16420402, 48.59444745 ], [ -123.16427729, 48.59423303 ], [ -123.16414275, 48.59408631 ], [ -123.16420786, 48.59396527 ], [ -123.16443825, 48.59386417 ], [ -123.16474384, 48.59375898 ], [ -123.16486065, 48.59378069 ], [ -123.16484484, 48.59392666 ], [ -123.16499468, 48.5939884 ], [ -123.16502884, 48.59402019 ], [ -123.1652585, 48.59403663 ], [ -123.16535602, 48.59403444 ], [ -123.16554825, 48.59396503 ], [ -123.16577409, 48.59391679 ], [ -123.16606215, 48.59380206 ], [ -123.16641139, 48.59362119 ], [ -123.16675674, 48.59335372 ], [ -123.16700457, 48.59308844 ], [ -123.16712245, 48.59284766 ], [ -123.16711364, 48.59267482 ], [ -123.16710743, 48.59255298 ], [ -123.16710702, 48.59254511 ], [ -123.16707798, 48.59235046 ], [ -123.16712519, 48.59226339 ], [ -123.16728271, 48.59215158 ], [ -123.16739177, 48.59205182 ], [ -123.16737246, 48.59198716 ], [ -123.16736474, 48.59183588 ], [ -123.16742535, 48.59174818 ], [ -123.16754926, 48.59161554 ], [ -123.16773706, 48.59145953 ], [ -123.16789295, 48.59132617 ], [ -123.16798326, 48.5911727 ], [ -123.16810773, 48.59105101 ], [ -123.16827309, 48.59098185 ], [ -123.1682994, 48.59097098 ], [ -123.16857151, 48.59087818 ], [ -123.16878189, 48.59084091 ], [ -123.16900772, 48.59079266 ], [ -123.16923575, 48.59078754 ], [ -123.16944779, 48.59078278 ], [ -123.1695932, 48.59075793 ], [ -123.16968903, 48.5907126 ], [ -123.1697364, 48.59068961 ], [ -123.16978155, 48.59061287 ], [ -123.16992421, 48.59053394 ], [ -123.16997322, 48.59053284 ], [ -123.17015114, 48.59050726 ], [ -123.17047499, 48.59045681 ], [ -123.17068703, 48.59045204 ], [ -123.17098116, 48.59046702 ], [ -123.17111389, 48.59050721 ], [ -123.17116348, 48.59052768 ], [ -123.17121471, 48.59057005 ], [ -123.17136177, 48.59057736 ], [ -123.17152979, 48.59067124 ], [ -123.17170054, 48.59081885 ], [ -123.17173967, 48.59094783 ], [ -123.1717799, 48.59109837 ], [ -123.17172262, 48.59125111 ], [ -123.17169895, 48.59142467 ], [ -123.17164167, 48.59157741 ], [ -123.1715839, 48.5917305 ], [ -123.17146993, 48.59189581 ], [ -123.17146272, 48.59190625 ], [ -123.17133772, 48.59201734 ], [ -123.17121381, 48.59214999 ], [ -123.17093622, 48.59245912 ], [ -123.17065811, 48.59276826 ], [ -123.17043892, 48.59294656 ], [ -123.17025111, 48.59310223 ], [ -123.17010898, 48.59319177 ], [ -123.16991897, 48.59330431 ], [ -123.16970087, 48.59350417 ], [ -123.16960946, 48.59363609 ], [ -123.16939796, 48.59396532 ], [ -123.1693484, 48.59426932 ], [ -123.16926472, 48.59455251 ], [ -123.16932258, 48.59503845 ], [ -123.16930666, 48.59537425 ], [ -123.16938505, 48.59562467 ], [ -123.16940417, 48.59568557 ], [ -123.16960793, 48.59586225 ], [ -123.16980216, 48.59596343 ], [ -123.16999655, 48.59607796 ], [ -123.17020192, 48.59620526 ], [ -123.17050957, 48.59638303 ], [ -123.17068502, 48.596511 ], [ -123.17079708, 48.59656091 ], [ -123.17084897, 48.596606 ], [ -123.17090153, 48.59666409 ], [ -123.17089947, 48.59681593 ], [ -123.1708766, 48.59695487 ], [ -123.17082367, 48.59708147 ], [ -123.17080759, 48.59713082 ], [ -123.17078035, 48.59721435 ], [ -123.17069479, 48.59728892 ], [ -123.1706099, 48.59737648 ], [ -123.17051469, 48.59746428 ], [ -123.17043792, 48.59751878 ], [ -123.17033174, 48.59757393 ], [ -123.17019479, 48.59762326 ], [ -123.170058, 48.59766574 ], [ -123.1699307, 48.59770183 ], [ -123.16977312, 48.59773175 ], [ -123.169625, 48.59775461 ], [ -123.16949804, 48.59779721 ], [ -123.1694096, 48.59782558 ], [ -123.16933182, 48.59786022 ], [ -123.1692143, 48.59789575 ], [ -123.16910645, 48.59791805 ], [ -123.16894854, 48.59794146 ], [ -123.16886839, 48.5979299 ], [ -123.16876747, 48.59790578 ], [ -123.16867686, 48.59788143 ], [ -123.16863545, 48.59784947 ], [ -123.16858356, 48.59780438 ], [ -123.16857589, 48.59776549 ], [ -123.1685704, 48.59773889 ], [ -123.16855605, 48.59766006 ], [ -123.16854221, 48.59758122 ], [ -123.16852702, 48.59747603 ], [ -123.16852164, 48.59737062 ], [ -123.16853117, 48.5971727 ], [ -123.16856686, 48.59709275 ], [ -123.16866242, 48.59701146 ], [ -123.16873985, 48.59696997 ], [ -123.1688856, 48.59690091 ], [ -123.1690699, 48.59681762 ], [ -123.16923558, 48.59675428 ], [ -123.16941093, 48.59667803 ], [ -123.16942688, 48.59667047 ], [ -123.16952577, 48.59662346 ], [ -123.16952743, 48.59662267 ], [ -123.16960352, 48.59655483 ], [ -123.16960681, 48.59655049 ], [ -123.16965917, 48.59648128 ], [ -123.16968321, 48.59642223 ], [ -123.16969451, 48.59639448 ], [ -123.16969053, 48.59637615 ], [ -123.16968514, 48.59635141 ], [ -123.16968168, 48.59633549 ], [ -123.16966886, 48.59627651 ], [ -123.16961595, 48.59621157 ], [ -123.16954396, 48.59616727 ], [ -123.16944169, 48.5961168 ], [ -123.16933247, 48.5961124 ], [ -123.16925268, 48.59610768 ], [ -123.16915411, 48.59612977 ], [ -123.16908665, 48.59616418 ], [ -123.16903962, 48.59622451 ], [ -123.16898333, 48.59628539 ], [ -123.16887864, 48.59637991 ], [ -123.16877263, 48.59644842 ], [ -123.16867692, 48.59651636 ], [ -123.16853319, 48.59662512 ], [ -123.16840755, 48.59669373 ], [ -123.16826213, 48.59676963 ], [ -123.16813651, 48.59683858 ], [ -123.16799954, 48.59688757 ], [ -123.16792229, 48.59692254 ], [ -123.16760915, 48.59702174 ], [ -123.16748133, 48.59707806 ], [ -123.1673419, 48.59713943 ], [ -123.16706729, 48.59729533 ], [ -123.16676483, 48.59745219 ], [ -123.16648832, 48.59757078 ], [ -123.1662969, 48.59769671 ], [ -123.16607664, 48.59781438 ], [ -123.16593864, 48.59787366 ], [ -123.16582372, 48.59783855 ], [ -123.16553766, 48.59776993 ], [ -123.16537224, 48.59784868 ], [ -123.16517748, 48.59790924 ], [ -123.1650092, 48.59793185 ], [ -123.1648154, 48.59801124 ], [ -123.16464902, 48.59807116 ], [ -123.16439706, 48.59811416 ], [ -123.16423208, 48.59821174 ], [ -123.16406664, 48.59829014 ], [ -123.16389931, 48.59833158 ], [ -123.16370408, 48.5983829 ], [ -123.16362326, 48.5984594 ], [ -123.16353053, 48.59852521 ], [ -123.16351408, 48.59853689 ], [ -123.16343613, 48.59866987 ], [ -123.16341398, 48.59878275 ], [ -123.16336295, 48.59889627 ], [ -123.1633153, 48.59906626 ], [ -123.16338727, 48.59937371 ], [ -123.16342518, 48.59956028 ], [ -123.1635732, 48.59969745 ], [ -123.1637184, 48.59976923 ], [ -123.16394771, 48.59983913 ], [ -123.16407706, 48.59987358 ], [ -123.16411482, 48.59992516 ], [ -123.1641376, 48.59995651 ], [ -123.16422794, 48.60006687 ], [ -123.16426014, 48.60014119 ], [ -123.16422118, 48.60020785 ], [ -123.16416871, 48.60029331 ], [ -123.16413307, 48.60042534 ], [ -123.16413976, 48.60055642 ], [ -123.16414404, 48.60064062 ], [ -123.16417672, 48.60072417 ], [ -123.1642661, 48.60081571 ], [ -123.16434061, 48.60088908 ], [ -123.16454207, 48.6009596 ], [ -123.16474707, 48.60101873 ], [ -123.16484302, 48.60104639 ], [ -123.1651123, 48.6010592 ], [ -123.16541136, 48.60110869 ], [ -123.16552722, 48.60116228 ], [ -123.16564353, 48.60123471 ], [ -123.16573388, 48.60134507 ], [ -123.16570841, 48.60139258 ], [ -123.16562665, 48.60145061 ], [ -123.16557275, 48.60150801 ], [ -123.16557704, 48.6015922 ], [ -123.1656102, 48.60168534 ], [ -123.16567025, 48.60175869 ], [ -123.16576062, 48.60186939 ], [ -123.16579186, 48.60192488 ], [ -123.16588221, 48.60203525 ], [ -123.1659466, 48.60218353 ], [ -123.165923, 48.60227794 ], [ -123.1658441, 48.6023921 ], [ -123.16570747, 48.6024887 ], [ -123.16562858, 48.6026032 ], [ -123.16553212, 48.60269719 ], [ -123.16552081, 48.60270841 ], [ -123.16546839, 48.60278462 ], [ -123.16541978, 48.60293579 ], [ -123.16539902, 48.60308599 ], [ -123.16546099, 48.60319698 ], [ -123.16555088, 48.6032981 ], [ -123.16566628, 48.60334245 ], [ -123.16595045, 48.60337343 ], [ -123.16601787, 48.60335821 ], [ -123.16608543, 48.60346737 ], [ -123.16621059, 48.60363211 ], [ -123.16636924, 48.60377485 ], [ -123.16656767, 48.60392768 ], [ -123.16681965, 48.60435032 ], [ -123.16686343, 48.60458062 ], [ -123.16677601, 48.60486217 ], [ -123.16655377, 48.60514401 ], [ -123.16635768, 48.60532075 ], [ -123.16607752, 48.6055309 ], [ -123.16571672, 48.60580077 ], [ -123.16537121, 48.60605658 ], [ -123.16498412, 48.60634828 ], [ -123.16461525, 48.60652101 ], [ -123.16369732, 48.60679787 ], [ -123.1636154, 48.60682267 ], [ -123.1633614, 48.60691779 ], [ -123.16310558, 48.60708866 ], [ -123.16295841, 48.60729309 ], [ -123.16278575, 48.60745354 ], [ -123.16256351, 48.60761442 ], [ -123.16248213, 48.60775124 ], [ -123.16230946, 48.60784042 ], [ -123.16201211, 48.60789608 ], [ -123.16183938, 48.60803494 ], [ -123.16156743, 48.60810236 ], [ -123.161294, 48.60812048 ], [ -123.16094048, 48.60820959 ], [ -123.16076025, 48.60840413 ], [ -123.16056963, 48.60854682 ], [ -123.1602242, 48.6087036 ], [ -123.15998404, 48.60871548 ], [ -123.15973623, 48.60863811 ], [ -123.15937096, 48.60853698 ], [ -123.15900589, 48.60844989 ], [ -123.15886326, 48.60841882 ], [ -123.15863285, 48.60836846 ], [ -123.15824432, 48.60834837 ], [ -123.15783923, 48.60837833 ], [ -123.15743456, 48.60846755 ], [ -123.15725899, 48.60849991 ], [ -123.15712129, 48.60852526 ], [ -123.15680746, 48.60853125 ], [ -123.15658337, 48.60849343 ], [ -123.15633339, 48.60842397 ], [ -123.15620841, 48.60830308 ], [ -123.15614717, 48.60818589 ], [ -123.15609449, 48.60808462 ], [ -123.15601436, 48.60783972 ], [ -123.1559942, 48.60780898 ], [ -123.15588785, 48.60764793 ], [ -123.15582918, 48.60746935 ], [ -123.1558626, 48.60739494 ], [ -123.15590665, 48.60729596 ], [ -123.15596884, 48.60706569 ], [ -123.15600676, 48.60683596 ], [ -123.1560194, 48.6066068 ], [ -123.15607878, 48.60631115 ], [ -123.1561644, 48.60606426 ], [ -123.15618585, 48.60599833 ], [ -123.15618004, 48.60588402 ], [ -123.15614175, 48.60585233 ], [ -123.15608064, 48.6058698 ], [ -123.15598456, 48.60592094 ], [ -123.1558915, 48.60602136 ], [ -123.15575001, 48.60615506 ], [ -123.15563383, 48.60628854 ], [ -123.15553858, 48.60635611 ], [ -123.15539596, 48.60645729 ], [ -123.1552553, 48.60660742 ], [ -123.15516389, 48.60674035 ], [ -123.15517135, 48.60688718 ], [ -123.15515157, 48.60698595 ], [ -123.15515364, 48.60702668 ], [ -123.155046, 48.60709453 ], [ -123.15492399, 48.60711336 ], [ -123.15471447, 48.60711804 ], [ -123.15444685, 48.60718946 ], [ -123.15422961, 48.60727619 ], [ -123.15401567, 48.60742796 ], [ -123.15392839, 48.60748987 ], [ -123.1538491, 48.60754612 ], [ -123.15360873, 48.60766592 ], [ -123.15341739, 48.60778464 ], [ -123.15320345, 48.6079364 ], [ -123.15313245, 48.60800343 ], [ -123.15313619, 48.60807701 ], [ -123.15377201, 48.60918255 ], [ -123.15362886, 48.60928374 ], [ -123.15352873, 48.6092452 ], [ -123.15313977, 48.60911477 ], [ -123.15263202, 48.60833359 ], [ -123.15237884, 48.60844545 ], [ -123.15225882, 48.60851357 ], [ -123.15209637, 48.60871318 ], [ -123.15195789, 48.60889615 ], [ -123.1518862, 48.60895977 ], [ -123.15176903, 48.6090638 ], [ -123.15153113, 48.60923255 ], [ -123.15134361, 48.60941661 ], [ -123.15120129, 48.60953422 ], [ -123.15098816, 48.60970241 ], [ -123.15085132, 48.6099179 ], [ -123.15076434, 48.61014871 ], [ -123.15072555, 48.61036201 ], [ -123.15076523, 48.61065545 ], [ -123.15075205, 48.61088462 ], [ -123.1508363, 48.61107873 ], [ -123.15097569, 48.61140249 ], [ -123.1510809, 48.61153103 ], [ -123.15130895, 48.61165683 ], [ -123.151448, 48.61171918 ], [ -123.15157079, 48.61175618 ], [ -123.15180533, 48.61182667 ], [ -123.15194634, 48.61187664 ], [ -123.15217043, 48.61191412 ], [ -123.15248421, 48.61196777 ], [ -123.15265891, 48.61207078 ], [ -123.15286709, 48.61219188 ], [ -123.15314884, 48.61224555 ], [ -123.1534482, 48.6123307 ], [ -123.15376975, 48.61237457 ], [ -123.15410145, 48.61239424 ], [ -123.15438321, 48.61243797 ], [ -123.15467455, 48.6125788 ], [ -123.15483356, 48.61275924 ], [ -123.15495046, 48.61299545 ], [ -123.15498447, 48.61306493 ], [ -123.15510146, 48.61330319 ], [ -123.15529554, 48.61361442 ], [ -123.1555696, 48.61387247 ], [ -123.15580363, 48.61407488 ], [ -123.15611901, 48.61426142 ], [ -123.15648437, 48.61431287 ], [ -123.15650792, 48.61431886 ], [ -123.15662523, 48.61431898 ], [ -123.15682387, 48.61431317 ], [ -123.15701423, 48.61431714 ], [ -123.15709036, 48.61434079 ], [ -123.15720483, 48.61437661 ], [ -123.15732148, 48.61447576 ], [ -123.15739724, 48.61463442 ], [ -123.1575223, 48.61478718 ], [ -123.15755793, 48.61497963 ], [ -123.15745067, 48.61521776 ], [ -123.15731386, 48.61544387 ], [ -123.157298, 48.61556894 ], [ -123.15733171, 48.61572375 ], [ -123.15724227, 48.6158347 ], [ -123.15702604, 48.6158505 ], [ -123.1567207, 48.61589227 ], [ -123.15647247, 48.61596977 ], [ -123.15619264, 48.61609663 ], [ -123.15591283, 48.61621389 ], [ -123.15558386, 48.61638056 ], [ -123.15533714, 48.61653854 ], [ -123.15524604, 48.61659677 ], [ -123.15504183, 48.61682884 ], [ -123.15496835, 48.61699974 ], [ -123.15476212, 48.61710062 ], [ -123.1545558, 48.61705726 ], [ -123.15432371, 48.61702544 ], [ -123.15410158, 48.61711845 ], [ -123.15395279, 48.61717008 ], [ -123.15384546, 48.61721393 ], [ -123.15363119, 48.61730917 ], [ -123.15336754, 48.61746993 ], [ -123.15300629, 48.61772365 ], [ -123.15259354, 48.61800149 ], [ -123.15214896, 48.61828345 ], [ -123.15172241, 48.61859482 ], [ -123.1513692, 48.61893608 ], [ -123.15105772, 48.61928531 ], [ -123.15079585, 48.6196444 ], [ -123.15056762, 48.62003529 ], [ -123.15044658, 48.62033882 ], [ -123.15039741, 48.620429 ], [ -123.15036524, 48.62048762 ], [ -123.1503158, 48.62067443 ], [ -123.15028607, 48.62093412 ], [ -123.15026403, 48.6212536 ], [ -123.15027622, 48.62131054 ], [ -123.15034969, 48.62164845 ], [ -123.1503494, 48.62170397 ], [ -123.1503754, 48.6218192 ], [ -123.15047648, 48.62197798 ], [ -123.15071827, 48.62210896 ], [ -123.15107386, 48.62215037 ], [ -123.15135574, 48.62207316 ], [ -123.15142007, 48.62205768 ], [ -123.15161154, 48.62201161 ], [ -123.15187553, 48.62199955 ], [ -123.15204187, 48.62205923 ], [ -123.1522068, 48.62216245 ], [ -123.15237549, 48.62230911 ], [ -123.15260783, 48.62239643 ], [ -123.15284764, 48.62246783 ], [ -123.15303005, 48.62255901 ], [ -123.15304788, 48.62267614 ], [ -123.1529328, 48.6228627 ], [ -123.15282778, 48.62303362 ], [ -123.15257988, 48.62312857 ], [ -123.15244094, 48.62321185 ], [ -123.15239129, 48.62340449 ], [ -123.15221071, 48.62348183 ], [ -123.15199627, 48.62353356 ], [ -123.15180582, 48.62365053 ], [ -123.15155998, 48.62375572 ], [ -123.15121261, 48.62379532 ], [ -123.15094661, 48.62375774 ], [ -123.15074048, 48.62376953 ], [ -123.15055999, 48.62385887 ], [ -123.15035358, 48.62392617 ], [ -123.15003007, 48.62390631 ], [ -123.14966508, 48.62392438 ], [ -123.14928612, 48.62408495 ], [ -123.14888126, 48.62414262 ], [ -123.14855186, 48.62421026 ], [ -123.14822863, 48.62427742 ], [ -123.14784967, 48.62429545 ], [ -123.14749227, 48.62419822 ], [ -123.14714285, 48.62408505 ], [ -123.14680364, 48.62407136 ], [ -123.14644851, 48.62411078 ], [ -123.1461414, 48.62405731 ], [ -123.14589134, 48.6238549 ], [ -123.14588053, 48.62384555 ], [ -123.14568272, 48.62367452 ], [ -123.14539302, 48.62357715 ], [ -123.14516751, 48.62354311 ], [ -123.14499618, 48.62351745 ], [ -123.1447381, 48.6235136 ], [ -123.1444326, 48.62355329 ] ] ], [ [ [ -122.995216576, 48.515887129 ], [ -122.995220907, 48.515890604 ], [ -122.995177646, 48.515887948 ], [ -122.995216576, 48.515887129 ] ] ], [ [ [ -122.995222035, 48.515891181 ], [ -122.995224729, 48.515893335 ], [ -122.995226569, 48.515894808 ], [ -122.995222035, 48.515891181 ] ] ], [ [ [ -122.995616789, 48.516038182 ], [ -122.995587732, 48.51603264 ], [ -122.995608426, 48.516036585 ], [ -122.995616789, 48.516038182 ] ] ], [ [ [ -122.997807247, 48.516301112 ], [ -122.997686822, 48.516234634 ], [ -122.997739929, 48.516238611 ], [ -122.997807247, 48.516301112 ] ] ], [ [ [ -122.998430795, 48.516488535 ], [ -122.998349822, 48.516421348 ], [ -122.998430795, 48.516488533 ], [ -122.998430795, 48.516488535 ] ] ], [ [ [ -122.998250062, 48.516452863 ], [ -122.998438871, 48.516695827 ], [ -122.998336947, 48.516608959 ], [ -122.998250062, 48.516452863 ] ] ], [ [ [ -122.988277278, 48.516697932 ], [ -122.988249426, 48.516700364 ], [ -122.988219565, 48.516686496 ], [ -122.988277278, 48.516697932 ] ] ], [ [ [ -122.998730903, 48.517732807 ], [ -122.998548362, 48.517660231 ], [ -122.998722383, 48.517725288 ], [ -122.998730903, 48.517732807 ] ] ], [ [ [ -122.999401142, 48.519355254 ], [ -122.999386325, 48.51934116 ], [ -122.999380255, 48.519335385 ], [ -122.999401142, 48.519355254 ] ] ], [ [ [ -123.002115388, 48.519523418 ], [ -123.002123618, 48.519539149 ], [ -123.002056266, 48.51955258 ], [ -123.002115388, 48.519523418 ] ] ], [ [ [ -122.999855117, 48.519760178 ], [ -122.999558178, 48.519465695 ], [ -122.999847599, 48.519667646 ], [ -123.000300949, 48.519698108 ], [ -122.999855117, 48.519760178 ] ] ], [ [ [ -123.002052241, 48.519567612 ], [ -123.001307031, 48.519669688 ], [ -123.001134161, 48.51967308 ], [ -123.001750694, 48.519569304 ], [ -123.002052241, 48.519567612 ] ] ], [ [ [ -123.002275483, 48.519661713 ], [ -123.002901076, 48.519795489 ], [ -123.002297337, 48.519723832 ], [ -123.002243439, 48.51960211 ], [ -123.002275483, 48.519661713 ] ] ], [ [ [ -123.003180764, 48.520041996 ], [ -123.003180825, 48.520042154 ], [ -123.003171893, 48.520027566 ], [ -123.003180764, 48.520041996 ] ] ], [ [ [ -123.003199745, 48.520093482 ], [ -123.003081101, 48.520019682 ], [ -123.003334283, 48.52011276 ], [ -123.003199745, 48.520093482 ] ] ], [ [ [ -122.997094632, 48.526252924 ], [ -122.997001004, 48.526319187 ], [ -122.997057869, 48.526278942 ], [ -122.997094632, 48.526252924 ] ] ], [ [ [ -123.000267513, 48.526713543 ], [ -123.000276322, 48.526699033 ], [ -123.000276326, 48.526699041 ], [ -123.000267513, 48.526713543 ] ] ], [ [ [ -123.0006186, 48.527327022 ], [ -123.000594105, 48.527316894 ], [ -123.000589077, 48.527314814 ], [ -123.0006186, 48.527327022 ] ] ], [ [ [ -123.002413035, 48.527917436 ], [ -123.00241412, 48.527916767 ], [ -123.002414041, 48.527916816 ], [ -123.002413035, 48.527917436 ] ] ], [ [ [ -122.993942878, 48.529258856 ], [ -122.993943661, 48.52925875 ], [ -122.993943791, 48.529258774 ], [ -122.993942878, 48.529258856 ] ] ], [ [ [ -122.993757583, 48.529283216 ], [ -122.993942863, 48.529258858 ], [ -122.99375758, 48.529283218 ], [ -122.993757583, 48.529283216 ] ] ], [ [ [ -122.994218565, 48.529307143 ], [ -122.994258377, 48.529314153 ], [ -122.994259306, 48.529314537 ], [ -122.994218565, 48.529307143 ] ] ], [ [ [ -122.995379453, 48.529467187 ], [ -122.995388665, 48.529456229 ], [ -122.995421225, 48.529442319 ], [ -122.995379453, 48.529467187 ] ] ], [ [ [ -122.996546793, 48.52959051 ], [ -122.996574179, 48.529599535 ], [ -122.996574171, 48.529599539 ], [ -122.996546793, 48.52959051 ] ] ], [ [ [ -122.993530203, 48.529667016 ], [ -122.993525922, 48.529659691 ], [ -122.993522671, 48.529654127 ], [ -122.993530203, 48.529667016 ] ] ], [ [ [ -122.994429891, 48.531816388 ], [ -122.994425169, 48.531829344 ], [ -122.994425166, 48.531829344 ], [ -122.994429891, 48.531816388 ] ] ], [ [ [ -122.994340217, 48.533397155 ], [ -122.994342062, 48.533398738 ], [ -122.994345771, 48.533401935 ], [ -122.994340217, 48.533397155 ] ] ], [ [ [ -122.986000308, 48.516021997 ], [ -122.986172397, 48.516051856 ], [ -122.986135293, 48.516052981 ], [ -122.986000308, 48.516021997 ] ] ], [ [ [ -122.981376727, 48.516108465 ], [ -122.981465056, 48.51610909 ], [ -122.981443603, 48.51611744 ], [ -122.981376727, 48.516108465 ] ] ], [ [ [ -122.981307424, 48.516267509 ], [ -122.981290313, 48.51622196 ], [ -122.981305457, 48.516202063 ], [ -122.981387188, 48.516322424 ], [ -122.981387432, 48.516377587 ], [ -122.981307424, 48.516267509 ] ] ], [ [ [ -122.981083097, 48.516337356 ], [ -122.981078515, 48.516336211 ], [ -122.981063625, 48.516332488 ], [ -122.981083097, 48.516337356 ] ] ], [ [ [ -122.980950333, 48.517249606 ], [ -122.980988529, 48.51717591 ], [ -122.981013164, 48.517201667 ], [ -122.980950333, 48.517249606 ] ] ], [ [ [ -122.980962061, 48.517540617 ], [ -122.980968918, 48.51754839 ], [ -122.980979373, 48.517569042 ], [ -122.980962061, 48.517540617 ] ] ], [ [ [ -122.980997695, 48.517605343 ], [ -122.980993508, 48.517596989 ], [ -122.980997023, 48.517603999 ], [ -122.980997695, 48.517605343 ] ] ], [ [ [ -122.975043269, 48.519828206 ], [ -122.975049881, 48.519826587 ], [ -122.975198918, 48.519824404 ], [ -122.975043269, 48.519828206 ] ] ], [ [ [ -122.973979695, 48.519847799 ], [ -122.974219853, 48.519812133 ], [ -122.97422251, 48.519812083 ], [ -122.973979695, 48.519847799 ] ] ], [ [ [ -122.974883333, 48.519868484 ], [ -122.974887276, 48.519867194 ], [ -122.974898048, 48.519864557 ], [ -122.974883333, 48.519868484 ] ] ], [ [ [ -122.97445092, 48.519946614 ], [ -122.974449655, 48.519946609 ], [ -122.974291054, 48.519833155 ], [ -122.97445092, 48.519946614 ] ] ], [ [ [ -122.975978033, 48.51989871 ], [ -122.976283691, 48.519906587 ], [ -122.975821629, 48.51989736 ], [ -122.975978033, 48.51989871 ] ] ], [ [ [ -122.97458812, 48.519964911 ], [ -122.974588248, 48.519964869 ], [ -122.974589155, 48.519964576 ], [ -122.97458812, 48.519964911 ] ] ], [ [ [ -122.9737586, 48.520474627 ], [ -122.973748098, 48.520470477 ], [ -122.973748108, 48.520470471 ], [ -122.9737586, 48.520474627 ] ] ], [ [ [ -122.973726306, 48.520451872 ], [ -122.973863824, 48.520516156 ], [ -122.973841704, 48.520507398 ], [ -122.973726306, 48.520451872 ] ] ], [ [ [ -122.97346668, 48.520532965 ], [ -122.973479081, 48.520531352 ], [ -122.973502478, 48.520533274 ], [ -122.97346668, 48.520532965 ] ] ], [ [ [ -122.972949024, 48.520640298 ], [ -122.972879213, 48.520669659 ], [ -122.972865927, 48.520675296 ], [ -122.972935679, 48.520640577 ], [ -122.972949024, 48.520640298 ] ] ], [ [ [ -122.97232392, 48.52109666 ], [ -122.972693827, 48.520783347 ], [ -122.972829067, 48.520693637 ], [ -122.97232392, 48.52109666 ] ] ], [ [ [ -122.972487817, 48.526111727 ], [ -122.972482563, 48.526108705 ], [ -122.972462973, 48.526090682 ], [ -122.972487817, 48.526111727 ] ] ], [ [ [ -122.97356479, 48.526495361 ], [ -122.973055129, 48.526346078 ], [ -122.973486133, 48.52637727 ], [ -122.97356479, 48.526495361 ] ] ], [ [ [ -122.973760981, 48.527645029 ], [ -122.973761116, 48.52764549 ], [ -122.973761116, 48.527645492 ], [ -122.973760981, 48.527645029 ] ] ], [ [ [ -122.974789508, 48.527665141 ], [ -122.97479057, 48.527664464 ], [ -122.974790562, 48.527664472 ], [ -122.974789508, 48.527665141 ] ] ], [ [ [ -122.973761726, 48.527678812 ], [ -122.973790736, 48.527718521 ], [ -122.973760974, 48.527870396 ], [ -122.973761726, 48.527678812 ] ] ], [ [ [ -122.97990518, 48.528119297 ], [ -122.979821288, 48.528031757 ], [ -122.979700557, 48.527921935 ], [ -122.979785517, 48.527976554 ], [ -122.97990518, 48.528119297 ] ] ], [ [ [ -122.980131605, 48.52995656 ], [ -122.980131872, 48.529951316 ], [ -122.980131609, 48.529956544 ], [ -122.980131605, 48.52995656 ] ] ], [ [ [ -122.979529304, 48.531000789 ], [ -122.979482121, 48.53092314 ], [ -122.979536446, 48.53094087 ], [ -122.979529304, 48.531000789 ] ] ], [ [ [ -122.978888355, 48.532860157 ], [ -122.978884608, 48.532857431 ], [ -122.97888447, 48.532857324 ], [ -122.978888355, 48.532860157 ] ] ], [ [ [ -122.91498452, 48.51934016 ], [ -122.91504795, 48.51933758 ], [ -122.9152017, 48.51933126 ], [ -122.91534826, 48.51934154 ], [ -122.91551747, 48.51940309 ], [ -122.91594019, 48.51960041 ], [ -122.91612897, 48.51976856 ], [ -122.91605247, 48.51978725 ], [ -122.91586845, 48.51972213 ], [ -122.91563132, 48.51962383 ], [ -122.91541997, 48.51952534 ], [ -122.91498452, 48.51934016 ] ] ], [ [ [ -122.972051182, 48.52137542 ], [ -122.972135857, 48.521244151 ], [ -122.972079098, 48.521355278 ], [ -122.972051182, 48.52137542 ] ] ], [ [ [ -122.97189397, 48.521754773 ], [ -122.97188343, 48.521698025 ], [ -122.971892651, 48.521747667 ], [ -122.97189397, 48.521754773 ] ] ], [ [ [ -122.971898374, 48.52199729 ], [ -122.971977984, 48.521890947 ], [ -122.971982658, 48.521969083 ], [ -122.971898374, 48.52199729 ] ] ], [ [ [ -122.971714147, 48.521958789 ], [ -122.971881324, 48.521997174 ], [ -122.971670996, 48.521985079 ], [ -122.971714147, 48.521958789 ] ] ], [ [ [ -122.971582512, 48.522092492 ], [ -122.971567428, 48.52212026 ], [ -122.971478301, 48.52220747 ], [ -122.971582512, 48.522092492 ] ] ], [ [ [ -122.97156027, 48.52237535 ], [ -122.97156032, 48.522375396 ], [ -122.971560383, 48.522375455 ], [ -122.97156027, 48.52237535 ] ] ], [ [ [ -122.972035273, 48.522570542 ], [ -122.972086921, 48.522621791 ], [ -122.971723452, 48.522489997 ], [ -122.972035273, 48.522570542 ] ] ], [ [ [ -122.972116018, 48.522829491 ], [ -122.971927017, 48.522967488 ], [ -122.971876843, 48.523098902 ], [ -122.971859859, 48.523001096 ], [ -122.972116018, 48.522829491 ] ] ], [ [ [ -122.97205149, 48.523362961 ], [ -122.972164999, 48.52340974 ], [ -122.972130765, 48.523480464 ], [ -122.97205149, 48.523362961 ] ] ], [ [ [ -122.972066766, 48.523532316 ], [ -122.972069371, 48.523530303 ], [ -122.972067734, 48.523531569 ], [ -122.972066766, 48.523532316 ] ] ], [ [ [ -122.971986527, 48.523594306 ], [ -122.971985809, 48.523594859 ], [ -122.971983735, 48.523595614 ], [ -122.971986527, 48.523594306 ] ] ], [ [ [ -122.971936146, 48.523612831 ], [ -122.971931541, 48.523614497 ], [ -122.971931548, 48.52361449 ], [ -122.971936146, 48.523612831 ] ] ], [ [ [ -122.971543739, 48.524278946 ], [ -122.971544112, 48.524061785 ], [ -122.971549054, 48.524044242 ], [ -122.971543739, 48.524278946 ] ] ], [ [ [ -122.971517566, 48.524208883 ], [ -122.971522795, 48.524319588 ], [ -122.971526003, 48.524326494 ], [ -122.97152279, 48.524319592 ], [ -122.971517566, 48.524208883 ] ] ], [ [ [ -122.971543654, 48.524330691 ], [ -122.971598409, 48.524415759 ], [ -122.971543612, 48.524365969 ], [ -122.971543654, 48.524330691 ] ] ], [ [ [ -122.971600366, 48.524501266 ], [ -122.971600497, 48.524501623 ], [ -122.971600357, 48.524502417 ], [ -122.971600366, 48.524501266 ] ] ], [ [ [ -122.971592608, 48.524539011 ], [ -122.971598716, 48.524505573 ], [ -122.971598768, 48.524527722 ], [ -122.971592608, 48.524539011 ] ] ], [ [ [ -122.971557094, 48.524742886 ], [ -122.971556586, 48.52474066 ], [ -122.971556591, 48.524740664 ], [ -122.971557094, 48.524742886 ] ] ], [ [ [ -122.90663925, 48.52865064 ], [ -122.90724534, 48.52864827 ], [ -122.90724447, 48.5277166 ], [ -122.90724293, 48.52678518 ], [ -122.90781955, 48.52678399 ], [ -122.90781688, 48.52616482 ], [ -122.90781669, 48.5259588 ], [ -122.90899832, 48.52595649 ], [ -122.90899677, 48.52554532 ], [ -122.90983992, 48.52554345 ], [ -122.90996581, 48.52554317 ], [ -122.90996537, 48.52502069 ], [ -122.90996501, 48.52459378 ], [ -122.90996477, 48.52430619 ], [ -122.90983885, 48.5243064 ], [ -122.90781119, 48.52430981 ], [ -122.90765217, 48.52431007 ], [ -122.90765013, 48.52348004 ], [ -122.90748576, 48.52347972 ], [ -122.90748495, 48.52287125 ], [ -122.90983904, 48.52287421 ], [ -122.90996356, 48.52287433 ], [ -122.90996339, 48.52266826 ], [ -122.90996316, 48.52240786 ], [ -122.90983863, 48.52240775 ], [ -122.90748659, 48.5223943 ], [ -122.90674215, 48.52238267 ], [ -122.90624664, 48.52238221 ], [ -122.90451806, 48.52238046 ], [ -122.90451758, 48.52191023 ], [ -122.90451299, 48.52147606 ], [ -122.90451299, 48.5213936 ], [ -122.90451232, 48.52131162 ], [ -122.90451192, 48.52039618 ], [ -122.90665639, 48.52039804 ], [ -122.90747209, 48.52039874 ], [ -122.90863688, 48.52039973 ], [ -122.90863504, 48.52009511 ], [ -122.90985207, 48.5200961 ], [ -122.90995538, 48.52009595 ], [ -122.90995469, 48.52001373 ], [ -122.90995456, 48.51984654 ], [ -122.90995376, 48.51954505 ], [ -122.91005671, 48.51954079 ], [ -122.91077143, 48.51951224 ], [ -122.91218648, 48.51945463 ], [ -122.91398175, 48.51938101 ], [ -122.91404464, 48.51941593 ], [ -122.91415333, 48.51952507 ], [ -122.91426191, 48.51964313 ], [ -122.91447091, 48.51969061 ], [ -122.91455345, 48.51979172 ], [ -122.91461051, 48.51991082 ], [ -122.9147425, 48.519977 ], [ -122.91488471, 48.51997411 ], [ -122.91493544, 48.51995595 ], [ -122.91501482, 48.51998859 ], [ -122.91512103, 48.52005496 ], [ -122.91525353, 48.52012113 ], [ -122.91538789, 48.52023866 ], [ -122.91539343, 48.5203588 ], [ -122.91529117, 48.52037802 ], [ -122.91511032, 48.5203817 ], [ -122.91504591, 48.52038301 ], [ -122.91502409, 48.52046911 ], [ -122.91505303, 48.52053739 ], [ -122.91492845, 48.52064305 ], [ -122.91489415, 48.52073797 ], [ -122.91489969, 48.52085812 ], [ -122.91513998, 48.52102489 ], [ -122.91542389, 48.52101911 ], [ -122.9157551, 48.52090958 ], [ -122.91588047, 48.52082103 ], [ -122.91590108, 48.52070892 ], [ -122.91605566, 48.52070577 ], [ -122.91613464, 48.52072986 ], [ -122.91631076, 48.52062348 ], [ -122.91653363, 48.52041268 ], [ -122.91676285, 48.52033949 ], [ -122.91695658, 48.52033555 ], [ -122.91713426, 48.52026306 ], [ -122.91733533, 48.5201387 ], [ -122.91753561, 48.51999723 ], [ -122.91771012, 48.51985628 ], [ -122.91783577, 48.5197852 ], [ -122.9179334, 48.51965438 ], [ -122.9179015, 48.51952069 ], [ -122.91825134, 48.51954523 ], [ -122.91825371, 48.51954952 ], [ -122.91817943, 48.51984839 ], [ -122.9181268, 48.51993379 ], [ -122.91798173, 48.52014267 ], [ -122.91778186, 48.52029304 ], [ -122.91766739, 48.5203382 ], [ -122.91755349, 48.52048511 ], [ -122.91754712, 48.52049243 ], [ -122.91750126, 48.52059376 ], [ -122.91726216, 48.52086622 ], [ -122.9170246, 48.52117223 ], [ -122.916567, 48.52161634 ], [ -122.91635252, 48.52199794 ], [ -122.91616726, 48.52214081 ], [ -122.91600436, 48.52239973 ], [ -122.91589508, 48.52268051 ], [ -122.91586914, 48.52287838 ], [ -122.9158809, 48.5231334 ], [ -122.9159118, 48.52342298 ], [ -122.91590953, 48.523754 ], [ -122.91597493, 48.52403122 ], [ -122.91602445, 48.52435537 ], [ -122.91603987, 48.52450626 ], [ -122.91536926, 48.52450562 ], [ -122.91537064, 48.52458511 ], [ -122.91537165, 48.52464267 ], [ -122.91537452, 48.52480713 ], [ -122.91539395, 48.52502358 ], [ -122.91541145, 48.52508068 ], [ -122.91541298, 48.52538238 ], [ -122.91541369, 48.52562882 ], [ -122.91541509, 48.52591659 ], [ -122.91541628, 48.52617718 ], [ -122.91541756, 48.52645102 ], [ -122.91541874, 48.52672258 ], [ -122.91541987, 48.52698956 ], [ -122.91542094, 48.52728111 ], [ -122.91542335, 48.52782182 ], [ -122.91542623, 48.52824799 ], [ -122.91543441, 48.52864642 ], [ -122.91543872, 48.52974085 ], [ -122.91544012, 48.53009721 ], [ -122.91544046, 48.53018208 ], [ -122.91544164, 48.53048358 ], [ -122.91544434, 48.53116881 ], [ -122.9154451, 48.53136066 ], [ -122.9154465, 48.53171698 ], [ -122.91544758, 48.53199108 ], [ -122.91544793, 48.53208025 ], [ -122.91544866, 48.53226517 ], [ -122.91270615, 48.53226204 ], [ -122.91270569, 48.53207575 ], [ -122.91270389, 48.53135753 ], [ -122.91270073, 48.53009461 ], [ -122.91270001, 48.52980744 ], [ -122.91269918, 48.52947423 ], [ -122.91269595, 48.52864132 ], [ -122.91190739, 48.52864067 ], [ -122.91002825, 48.5286407 ], [ -122.90996841, 48.52864064 ], [ -122.90996743, 48.52944547 ], [ -122.90996772, 48.52995253 ], [ -122.90996928, 48.53045058 ], [ -122.90888437, 48.53045248 ], [ -122.90799892, 48.5304553 ], [ -122.90712495, 48.53045808 ], [ -122.9067463, 48.53045929 ], [ -122.90527363, 48.5304632 ], [ -122.90527487, 48.52972611 ], [ -122.90527436, 48.52865532 ], [ -122.90663925, 48.52865064 ] ] ], [ [ [ -122.880234, 48.572667 ], [ -122.880244, 48.568168 ], [ -122.887022, 48.568175 ], [ -122.887012, 48.572673 ], [ -122.880234, 48.572667 ] ] ], [ [ [ -122.925905, 48.586268 ], [ -122.925911, 48.58177 ], [ -122.932691, 48.581774 ], [ -122.932685, 48.586272 ], [ -122.925905, 48.586268 ] ] ], [ [ [ -122.940708, 48.600177 ], [ -122.940713, 48.595679 ], [ -122.947494, 48.595683 ], [ -122.947489, 48.600181 ], [ -122.940708, 48.600177 ] ] ], [ [ [ -122.90336737, 48.71362059 ], [ -122.90293321, 48.71361256 ], [ -122.90253887, 48.71363729 ], [ -122.90205849, 48.71372714 ], [ -122.90173048, 48.7138098 ], [ -122.90129964, 48.71400861 ], [ -122.90097499, 48.71409096 ], [ -122.90097487, 48.71408117 ], [ -122.90096897, 48.71328398 ], [ -122.90096807, 48.71317412 ], [ -122.90095504, 48.7128439 ], [ -122.90095239, 48.71251658 ], [ -122.90096185, 48.71240591 ], [ -122.90095918, 48.71207698 ], [ -122.90095649, 48.71174458 ], [ -122.90095563, 48.71163832 ], [ -122.90095298, 48.71131032 ], [ -122.90082873, 48.71131076 ], [ -122.90082608, 48.7109829 ], [ -122.90095032, 48.71098219 ], [ -122.90094943, 48.71087242 ], [ -122.90094994, 48.71054351 ], [ -122.90094411, 48.71021416 ], [ -122.90094339, 48.71013191 ], [ -122.90357591, 48.71013056 ], [ -122.90357039, 48.7097923 ], [ -122.90356889, 48.70945906 ], [ -122.90356588, 48.70879133 ], [ -122.9035655, 48.70870485 ], [ -122.90356789, 48.70836058 ], [ -122.90356247, 48.70803293 ], [ -122.90356339, 48.70736378 ], [ -122.90356302, 48.70728157 ], [ -122.90355992, 48.70660658 ], [ -122.90257534, 48.70660593 ], [ -122.90182264, 48.70660528 ], [ -122.90091874, 48.70660411 ], [ -122.90091728, 48.70641325 ], [ -122.90091406, 48.70601485 ], [ -122.90090791, 48.70525195 ], [ -122.90090426, 48.70479969 ], [ -122.9008861, 48.70303609 ], [ -122.90088576, 48.70299498 ], [ -122.89951692, 48.70298643 ], [ -122.89922926, 48.70298463 ], [ -122.89814808, 48.70297786 ], [ -122.89814879, 48.70289563 ], [ -122.89817952, 48.69933756 ], [ -122.90092144, 48.69933911 ], [ -122.90093051, 48.69841503 ], [ -122.90094264, 48.69718052 ], [ -122.90094536, 48.69690425 ], [ -122.90094837, 48.69659719 ], [ -122.90095736, 48.69568321 ], [ -122.89932276, 48.69569159 ], [ -122.89878808, 48.69569432 ], [ -122.8985539, 48.69569551 ], [ -122.89827919, 48.69535795 ], [ -122.89848158, 48.69531771 ], [ -122.89910759, 48.69518568 ], [ -122.89910453, 48.69509915 ], [ -122.89905401, 48.69496475 ], [ -122.899501, 48.69484773 ], [ -122.90009168, 48.69465084 ], [ -122.90056482, 48.69450873 ], [ -122.90089426, 48.69436986 ], [ -122.90113484, 48.69421153 ], [ -122.90131376, 48.69409659 ], [ -122.901406, 48.69402073 ], [ -122.90142352, 48.69398544 ], [ -122.90143537, 48.6939619 ], [ -122.90142347, 48.69387205 ], [ -122.90138972, 48.69383573 ], [ -122.90133922, 48.69378399 ], [ -122.90127451, 48.69373366 ], [ -122.9012097, 48.69357719 ], [ -122.90125598, 48.69324605 ], [ -122.90134009, 48.69313714 ], [ -122.90138867, 48.69311565 ], [ -122.90143429, 48.6930726 ], [ -122.90147926, 48.69299409 ], [ -122.9014901, 48.69298381 ], [ -122.90156918, 48.69286328 ], [ -122.90157062, 48.69270178 ], [ -122.90154947, 48.69261634 ], [ -122.90153913, 48.6925621 ], [ -122.90153585, 48.69256131 ], [ -122.90152757, 48.69252784 ], [ -122.90139954, 48.69232894 ], [ -122.90135713, 48.69217086 ], [ -122.90120664, 48.69200942 ], [ -122.90074789, 48.69156971 ], [ -122.90066652, 48.69152425 ], [ -122.90062302, 48.69148809 ], [ -122.90061391, 48.69148142 ], [ -122.90057377, 48.69145242 ], [ -122.90051629, 48.69140631 ], [ -122.90039498, 48.69135634 ], [ -122.90030573, 48.69130572 ], [ -122.90020773, 48.69124501 ], [ -122.90009421, 48.69118426 ], [ -122.90002166, 48.69115934 ], [ -122.89994606, 48.69114679 ], [ -122.89984488, 48.6910967 ], [ -122.89951464, 48.69093515 ], [ -122.89918489, 48.69079013 ], [ -122.8990089, 48.69069002 ], [ -122.89888476, 48.69051436 ], [ -122.89887044, 48.69035843 ], [ -122.89880603, 48.69015046 ], [ -122.89885338, 48.68993784 ], [ -122.89898225, 48.68976349 ], [ -122.89922741, 48.68959766 ], [ -122.89945008, 48.68946274 ], [ -122.89981263, 48.68933842 ], [ -122.90006552, 48.68929106 ], [ -122.90025558, 48.68927721 ], [ -122.90043561, 48.68925887 ], [ -122.90046531, 48.68926315 ], [ -122.90063389, 48.6893173 ], [ -122.90084276, 48.68938126 ], [ -122.90097982, 48.68943639 ], [ -122.90101424, 48.68949839 ], [ -122.90105525, 48.68952395 ], [ -122.90118262, 48.68953714 ], [ -122.90130076, 48.68952961 ], [ -122.9013476, 48.68951291 ], [ -122.90139515, 48.68951195 ], [ -122.90148252, 48.68953515 ], [ -122.90149092, 48.68953836 ], [ -122.90155014, 48.68955628 ], [ -122.90158775, 48.68957076 ], [ -122.90162077, 48.68957767 ], [ -122.90190382, 48.68966336 ], [ -122.90223693, 48.68981863 ], [ -122.90233549, 48.68985686 ], [ -122.90247996, 48.68989979 ], [ -122.9027486, 48.68998715 ], [ -122.90301972, 48.69011441 ], [ -122.90302239, 48.69011872 ], [ -122.90308886, 48.69018008 ], [ -122.90314562, 48.69021045 ], [ -122.90324071, 48.69021915 ], [ -122.90335541, 48.69021683 ], [ -122.90351478, 48.69027213 ], [ -122.90362266, 48.69033853 ], [ -122.90364343, 48.69035764 ], [ -122.90370986, 48.69042962 ], [ -122.90374383, 48.69048169 ], [ -122.9037625, 48.69053886 ], [ -122.90379038, 48.69062737 ], [ -122.90381681, 48.69068439 ], [ -122.90385754, 48.69071509 ], [ -122.90393881, 48.69076072 ], [ -122.90404461, 48.690768 ], [ -122.90406885, 48.69078178 ], [ -122.9043251, 48.69082947 ], [ -122.90453955, 48.69089183 ], [ -122.90456273, 48.69091928 ], [ -122.90457917, 48.69094717 ], [ -122.9046056, 48.69102303 ], [ -122.90459836, 48.69115814 ], [ -122.90467213, 48.69121058 ], [ -122.90469081, 48.69128133 ], [ -122.90471345, 48.69139084 ], [ -122.90472785, 48.69151251 ], [ -122.90471347, 48.69158234 ], [ -122.90468977, 48.69164072 ], [ -122.90467434, 48.69168762 ], [ -122.90462399, 48.69172906 ], [ -122.90456408, 48.69176521 ], [ -122.90452252, 48.69180648 ], [ -122.90447113, 48.69183663 ], [ -122.90443836, 48.69187772 ], [ -122.90441387, 48.69191898 ], [ -122.90439762, 48.69194808 ], [ -122.90439178, 48.69201226 ], [ -122.90441121, 48.69205229 ], [ -122.90441334, 48.6920985 ], [ -122.90445864, 48.69213835 ], [ -122.90448633, 48.69216657 ], [ -122.90452443, 48.69222986 ], [ -122.90463124, 48.69226813 ], [ -122.90478971, 48.6922824 ], [ -122.90485173, 48.69228458 ], [ -122.90485659, 48.69228677 ], [ -122.90498256, 48.6923557 ], [ -122.90503423, 48.69239013 ], [ -122.90502331, 48.69241095 ], [ -122.90505209, 48.69247409 ], [ -122.90509566, 48.69249339 ], [ -122.90510764, 48.69261032 ], [ -122.90506794, 48.69273181 ], [ -122.90506027, 48.69283334 ], [ -122.90506008, 48.69300866 ], [ -122.90511749, 48.69309023 ], [ -122.90512647, 48.69313376 ], [ -122.90514644, 48.69318543 ], [ -122.90518427, 48.69324256 ], [ -122.90523782, 48.69327059 ], [ -122.90542345, 48.69330145 ], [ -122.90552068, 48.69332278 ], [ -122.90561818, 48.69334993 ], [ -122.90570687, 48.69337691 ], [ -122.90574363, 48.69341111 ], [ -122.9058611, 48.69348993 ], [ -122.90590664, 48.69352361 ], [ -122.90598736, 48.69356857 ], [ -122.9060164, 48.69362588 ], [ -122.90602866, 48.693701 ], [ -122.9060332, 48.69379957 ], [ -122.90602869, 48.69386363 ], [ -122.90598183, 48.69393331 ], [ -122.90600839, 48.69400968 ], [ -122.90599248, 48.6940611 ], [ -122.90600341, 48.69410747 ], [ -122.90600874, 48.69411078 ], [ -122.9060487, 48.69413567 ], [ -122.9061286, 48.69416283 ], [ -122.90618355, 48.69416813 ], [ -122.90623531, 48.69419844 ], [ -122.906366, 48.69420341 ], [ -122.90670937, 48.69423358 ], [ -122.90695804, 48.69420814 ], [ -122.90702637, 48.69420677 ], [ -122.90720507, 48.69418418 ], [ -122.90725677, 48.69417267 ], [ -122.90731974, 48.69416206 ], [ -122.90732671, 48.6941571 ], [ -122.90741955, 48.69413644 ], [ -122.90764779, 48.69418232 ], [ -122.90783842, 48.69431516 ], [ -122.90791717, 48.69434997 ], [ -122.908124, 48.69436899 ], [ -122.90874428, 48.69428194 ], [ -122.90886821, 48.69427943 ], [ -122.90907591, 48.69426153 ], [ -122.9094603, 48.694226 ], [ -122.9097411, 48.69419977 ], [ -122.90991726, 48.69418216 ], [ -122.91009363, 48.69415804 ], [ -122.91035227, 48.69411135 ], [ -122.91044476, 48.69407488 ], [ -122.91053705, 48.69404526 ], [ -122.91063988, 48.69400858 ], [ -122.91069861, 48.69392449 ], [ -122.91075934, 48.69385029 ], [ -122.91076767, 48.69384018 ], [ -122.91077419, 48.69375715 ], [ -122.91073774, 48.69364038 ], [ -122.91059019, 48.69338096 ], [ -122.91055292, 48.69325735 ], [ -122.9104972, 48.69318243 ], [ -122.91048183, 48.69317151 ], [ -122.91048077, 48.69316895 ], [ -122.91037406, 48.69307548 ], [ -122.91026624, 48.69303351 ], [ -122.91026053, 48.69302474 ], [ -122.91025411, 48.69300135 ], [ -122.91027866, 48.69296589 ], [ -122.91034288, 48.69293971 ], [ -122.91060308, 48.69306027 ], [ -122.91065222, 48.69302248 ], [ -122.91065931, 48.69297484 ], [ -122.91072338, 48.69294881 ], [ -122.91081313, 48.69293329 ], [ -122.9108783, 48.69289662 ], [ -122.9109013, 48.69289094 ], [ -122.91100541, 48.69288198 ], [ -122.91111025, 48.69286727 ], [ -122.91123041, 48.69287086 ], [ -122.91129295, 48.69283728 ], [ -122.91125574, 48.69280131 ], [ -122.9112825, 48.69278661 ], [ -122.91128952, 48.69270357 ], [ -122.9112873, 48.69265531 ], [ -122.91128637, 48.69265112 ], [ -122.91127932, 48.69253393 ], [ -122.91128092, 48.69251738 ], [ -122.91139292, 48.69246647 ], [ -122.91144419, 48.69244487 ], [ -122.91148478, 48.6924163 ], [ -122.9114816, 48.69234751 ], [ -122.91146214, 48.6922915 ], [ -122.91147, 48.69211635 ], [ -122.91149299, 48.69203697 ], [ -122.91150817, 48.69201536 ], [ -122.9115457, 48.6919609 ], [ -122.91166684, 48.69185658 ], [ -122.9117354, 48.69180367 ], [ -122.91178338, 48.69176554 ], [ -122.91190076, 48.69171005 ], [ -122.912002, 48.69163914 ], [ -122.91206646, 48.69158043 ], [ -122.91225883, 48.6915296 ], [ -122.91241405, 48.69151359 ], [ -122.91248282, 48.6915065 ], [ -122.91262038, 48.6914832 ], [ -122.91282862, 48.69145506 ], [ -122.91311981, 48.69141833 ], [ -122.91324497, 48.6913584 ], [ -122.91326502, 48.69133388 ], [ -122.91332218, 48.69130819 ], [ -122.91343343, 48.69122988 ], [ -122.91347307, 48.69118077 ], [ -122.91352158, 48.69111093 ], [ -122.9135383, 48.69101364 ], [ -122.91360945, 48.6908851 ], [ -122.91375166, 48.69079384 ], [ -122.91388249, 48.69074734 ], [ -122.91394752, 48.69071039 ], [ -122.91405238, 48.69067298 ], [ -122.9141317, 48.6906539 ], [ -122.91421131, 48.69065229 ], [ -122.91430487, 48.69065039 ], [ -122.91435892, 48.69066676 ], [ -122.91443936, 48.69068295 ], [ -122.91453455, 48.6907163 ], [ -122.91461538, 48.69074104 ], [ -122.9146172, 48.69074116 ], [ -122.91474625, 48.69079095 ], [ -122.91491108, 48.69082887 ], [ -122.91516456, 48.69080537 ], [ -122.91537211, 48.69079884 ], [ -122.91561612, 48.69074747 ], [ -122.91581539, 48.69074343 ], [ -122.91606898, 48.69075576 ], [ -122.91625518, 48.69074307 ], [ -122.9165214, 48.69073767 ], [ -122.91672955, 48.69074886 ], [ -122.91672951, 48.69078257 ], [ -122.91672745, 48.69092565 ], [ -122.91672338, 48.69153424 ], [ -122.91671686, 48.69250655 ], [ -122.91649199, 48.69256373 ], [ -122.91622684, 48.69262266 ], [ -122.91622581, 48.69278393 ], [ -122.9162226, 48.69328649 ], [ -122.916218, 48.69378644 ], [ -122.91622035, 48.69425344 ], [ -122.91621159, 48.69489835 ], [ -122.91621066, 48.69577267 ], [ -122.91718705, 48.69578065 ], [ -122.91717076, 48.69650558 ], [ -122.91716867, 48.69662594 ], [ -122.91716096, 48.69708007 ], [ -122.91715876, 48.69720792 ], [ -122.91715172, 48.69761908 ], [ -122.91714461, 48.69803599 ], [ -122.91713963, 48.69844129 ], [ -122.91713065, 48.69885245 ], [ -122.91712247, 48.69932993 ], [ -122.91758373, 48.69933183 ], [ -122.9180617, 48.69933409 ], [ -122.91826837, 48.69933497 ], [ -122.91875562, 48.69933717 ], [ -122.91913141, 48.69933882 ], [ -122.91982587, 48.69934188 ], [ -122.91982882, 48.69942413 ], [ -122.91982666, 48.69952998 ], [ -122.91979359, 48.70123985 ], [ -122.9197696, 48.70232462 ], [ -122.91976237, 48.70267838 ], [ -122.91975891, 48.70303181 ], [ -122.91908104, 48.70303096 ], [ -122.91840903, 48.7030297 ], [ -122.91790818, 48.70302875 ], [ -122.91698761, 48.703027 ], [ -122.91698364, 48.70310015 ], [ -122.91698227, 48.70333271 ], [ -122.91698096, 48.70355179 ], [ -122.91697965, 48.70377086 ], [ -122.91697839, 48.70398993 ], [ -122.91697708, 48.70420898 ], [ -122.91697577, 48.70442806 ], [ -122.9169745, 48.70464713 ], [ -122.91695919, 48.70486693 ], [ -122.91691981, 48.70661752 ], [ -122.91689646, 48.70773523 ], [ -122.91689411, 48.70791101 ], [ -122.91689302, 48.70828352 ], [ -122.916888, 48.70865612 ], [ -122.91688298, 48.70902872 ], [ -122.91687173, 48.70940308 ], [ -122.91686441, 48.70948548 ], [ -122.91686258, 48.70962178 ], [ -122.91686041, 48.70977071 ], [ -122.91685442, 48.71020772 ], [ -122.91703485, 48.71020792 ], [ -122.91860672, 48.71020687 ], [ -122.91859465, 48.71080957 ], [ -122.91859354, 48.71089181 ], [ -122.91857722, 48.71210875 ], [ -122.91920002, 48.71199497 ], [ -122.91965555, 48.71191178 ], [ -122.9200548, 48.71183883 ], [ -122.92053267, 48.71172088 ], [ -122.92095298, 48.71161376 ], [ -122.92093969, 48.71225603 ], [ -122.92082164, 48.71228716 ], [ -122.92042303, 48.71238672 ], [ -122.91987532, 48.71249719 ], [ -122.91928473, 48.71267671 ], [ -122.9188893, 48.71284506 ], [ -122.91848089, 48.71299038 ], [ -122.91841273, 48.71303537 ], [ -122.91810484, 48.71317643 ], [ -122.91769995, 48.71346084 ], [ -122.91732422, 48.71347233 ], [ -122.91717039, 48.71351376 ], [ -122.91704173, 48.71349628 ], [ -122.91682756, 48.7134674 ], [ -122.91678369, 48.71346529 ], [ -122.91669336, 48.71344629 ], [ -122.91649681, 48.71342733 ], [ -122.91619702, 48.71342553 ], [ -122.91601185, 48.71339537 ], [ -122.91576341, 48.71339595 ], [ -122.91525447, 48.71342751 ], [ -122.91482918, 48.71346559 ], [ -122.91449904, 48.71350174 ], [ -122.91420078, 48.71353313 ], [ -122.91392785, 48.71356401 ], [ -122.91364853, 48.71359091 ], [ -122.9133323, 48.71364802 ], [ -122.91309111, 48.71368236 ], [ -122.91285698, 48.71371246 ], [ -122.91264127, 48.71373806 ], [ -122.91225992, 48.71377524 ], [ -122.91192377, 48.71381562 ], [ -122.91167899, 48.71382846 ], [ -122.91130341, 48.71384462 ], [ -122.91093958, 48.7138352 ], [ -122.9104424, 48.71384114 ], [ -122.91004747, 48.71385324 ], [ -122.90980025, 48.71386949 ], [ -122.90953826, 48.71385525 ], [ -122.90934801, 48.71387194 ], [ -122.90924121, 48.7139108 ], [ -122.90910088, 48.71393576 ], [ -122.90895393, 48.71402677 ], [ -122.90894587, 48.71403173 ], [ -122.90887761, 48.71406668 ], [ -122.90884788, 48.71411798 ], [ -122.90882334, 48.71417568 ], [ -122.90877138, 48.71422898 ], [ -122.90872053, 48.71425554 ], [ -122.90868266, 48.71426352 ], [ -122.90867694, 48.71400325 ], [ -122.90866971, 48.71371221 ], [ -122.90865688, 48.71356894 ], [ -122.90855828, 48.71350755 ], [ -122.90855032, 48.71346969 ], [ -122.90863578, 48.71339225 ], [ -122.90867087, 48.71314318 ], [ -122.90863655, 48.71276978 ], [ -122.90864953, 48.71250163 ], [ -122.90870442, 48.71223297 ], [ -122.90877271, 48.71206407 ], [ -122.90884774, 48.71186181 ], [ -122.90900603, 48.71163525 ], [ -122.90940139, 48.71162178 ], [ -122.90940929, 48.71087378 ], [ -122.90935758, 48.71085256 ], [ -122.90901964, 48.71084261 ], [ -122.9088766, 48.71102946 ], [ -122.90883549, 48.71104708 ], [ -122.90848989, 48.71177963 ], [ -122.90828654, 48.71230822 ], [ -122.90823218, 48.71258851 ], [ -122.90821918, 48.71285633 ], [ -122.90825882, 48.71337863 ], [ -122.90837733, 48.7134564 ], [ -122.9083418, 48.71351638 ], [ -122.90824088, 48.71353932 ], [ -122.90816816, 48.71390391 ], [ -122.90812341, 48.71417922 ], [ -122.90814851, 48.71438054 ], [ -122.90807481, 48.71442559 ], [ -122.90803203, 48.71440888 ], [ -122.9079595, 48.71435142 ], [ -122.90793013, 48.71427596 ], [ -122.90790995, 48.71424245 ], [ -122.90783748, 48.71419767 ], [ -122.90773305, 48.71414463 ], [ -122.90762309, 48.71411739 ], [ -122.9074949, 48.71409908 ], [ -122.90745262, 48.71409367 ], [ -122.90736087, 48.71406079 ], [ -122.9069885, 48.71400081 ], [ -122.90664733, 48.71397284 ], [ -122.90647031, 48.71398439 ], [ -122.90637657, 48.71399999 ], [ -122.90628667, 48.71400255 ], [ -122.90618661, 48.71400456 ], [ -122.90577247, 48.71390208 ], [ -122.90535831, 48.71383468 ], [ -122.90494413, 48.71379625 ], [ -122.90452999, 48.71372102 ], [ -122.90411582, 48.71368067 ], [ -122.90352533, 48.71364278 ], [ -122.90336737, 48.71362059 ] ] ] ] } }
]
}
