{
"type": "FeatureCollection",
"name": "snohomish_ui_with_pop_centers",
"crs": { "type": "name", "properties": { "name": "urn:ogc:def:crs:OGC:1.3:CRS84" } },
"features": [
{ "type": "Feature", "properties": { "pop_centers": "Arlington Heights CDP,Bryant CDP,Canyon Creek CDP,Chain Lake CDP,Darrington UGA,Eastmont CDP,Everett UGA,Fobes Hill CDP,Granite Falls UGA,Hat Island CDP,High Bridge CDP,Lake Bosworth CDP,Lake Cassidy CDP,Lake Goodwin CDP,Lake Ketchum CDP,Lake Roesiger CDP,Lochsloy CDP,Machias CDP,Maltby CDP,May Creek CDP,Monroe North CDP,North Sultan CDP,Northwest Stanwood CDP,Oso CDP,Silvana CDP,Sisco Heights CDP,Snohomish UGA,Stanwood,Stanwood,Stanwood UGA,Startup CDP,Sunday Lake CDP,Swede Heaven CDP,Three Lakes CDP,Verlot CDP,Warm Beach CDP,Woods Creek CDP" }, "geometry": { "type": "MultiPolygon", "coordinates": [ [ [ [ -122.286876, 47.7773852 ], [ -122.2812719, 47.7770792 ], [ -122.2899766, 47.7771707 ], [ -122.2874449, 47.7773394 ], [ -122.2895628, 47.7782532 ], [ -122.2883323, 47.7801409 ], [ -122.2868602, 47.7801309 ], [ -122.286876, 47.7773852 ] ] ], [ [ [ -122.3908312, 47.7852428 ], [ -122.3932856, 47.7779703 ], [ -122.3972243, 47.78028 ], [ -122.3968423, 47.78251 ], [ -122.3908312, 47.7852428 ] ] ], [ [ [ -122.3421631, 47.7888915 ], [ -122.3421233, 47.7870714 ], [ -122.3519275, 47.7875743 ], [ -122.3518888, 47.7850144 ], [ -122.3530438, 47.7850082 ], [ -122.3561601, 47.7901247 ], [ -122.3562436, 47.7994311 ], [ -122.3364521, 47.7994934 ], [ -122.3364849, 47.7969212 ], [ -122.3380917, 47.7969053 ], [ -122.3365112, 47.7948517 ], [ -122.3416208, 47.7921686 ], [ -122.337135, 47.7921734 ], [ -122.3394914, 47.7889142 ], [ -122.3421631, 47.7888915 ] ] ], [ [ [ -122.2869055, 47.8036669 ], [ -122.2853758, 47.804346 ], [ -122.2853594, 47.8037513 ], [ -122.2869055, 47.8036669 ] ] ], [ [ [ -122.3237529, 48.0209052 ], [ -122.3217678, 48.0200257 ], [ -122.3211694, 48.017241 ], [ -122.3169241, 48.0160362 ], [ -122.3158456, 48.0139023 ], [ -122.3097256, 48.0128033 ], [ -122.3094311, 48.010201 ], [ -122.3034504, 48.0059122 ], [ -122.3074236, 48.0049724 ], [ -122.324964, 48.009912 ], [ -122.3343999, 48.0188076 ], [ -122.3299744, 48.0211538 ], [ -122.3265576, 48.0214782 ], [ -122.3231696, 48.0211882 ], [ -122.3223887, 48.0210454 ], [ -122.322102, 48.0206356 ], [ -122.3237529, 48.0209052 ] ] ], [ [ [ -122.3647701, 48.1260208 ], [ -122.3627358, 48.1297168 ], [ -122.3625854, 48.1307537 ], [ -122.3626213, 48.1312971 ], [ -122.3680545, 48.1355196 ], [ -122.3637803, 48.1421261 ], [ -122.3650019, 48.145551 ], [ -122.3641679, 48.1493598 ], [ -122.3698103, 48.1647058 ], [ -122.3655588, 48.172369 ], [ -122.3602526, 48.1770629 ], [ -122.354427, 48.1858953 ], [ -122.35202, 48.1882774 ], [ -122.3438759, 48.1894824 ], [ -122.343667, 48.191021 ], [ -122.3367, 48.19075 ], [ -122.336758, 48.186252 ], [ -122.3380283, 48.1862591 ], [ -122.333708, 48.1813165 ], [ -122.332209, 48.1745395 ], [ -122.321863, 48.1659456 ], [ -122.318603, 48.1607796 ], [ -122.311074, 48.161343 ], [ -122.3111158, 48.1582621 ], [ -122.303691, 48.158188 ], [ -122.3037221, 48.1558978 ], [ -122.300908, 48.1558494 ], [ -122.300877, 48.158136 ], [ -122.294154, 48.158094 ], [ -122.2941863, 48.1557528 ], [ -122.286509, 48.1556967 ], [ -122.286236, 48.1661057 ], [ -122.275971, 48.1666697 ], [ -122.275341, 48.1713119 ], [ -122.2240715, 48.1709772 ], [ -122.2238879, 48.1831435 ], [ -122.2235321, 48.182478 ], [ -122.2230967, 48.1822124 ], [ -122.2226423, 48.1820728 ], [ -122.2182099, 48.1809086 ], [ -122.2164094, 48.180896 ], [ -122.2156815, 48.1809995 ], [ -122.2149424, 48.1811654 ], [ -122.2124353, 48.1818329 ], [ -122.2118526, 48.1821104 ], [ -122.2109143, 48.1829454 ], [ -122.2096656, 48.1826581 ], [ -122.2089465, 48.1827277 ], [ -122.2086719, 48.1832597 ], [ -122.2090394, 48.1845096 ], [ -122.2086358, 48.1847202 ], [ -122.2050936, 48.1827104 ], [ -122.2034777, 48.1823206 ], [ -122.2026187, 48.1812393 ], [ -122.2013662, 48.1806033 ], [ -122.1970331, 48.1798062 ], [ -122.1970006, 48.1818916 ], [ -122.1923299, 48.1762227 ], [ -122.1916475, 48.1706945 ], [ -122.1885093, 48.1704385 ], [ -122.1885028, 48.1678854 ], [ -122.1920723, 48.167206 ], [ -122.1913152, 48.1630526 ], [ -122.1969252, 48.1629885 ], [ -122.1970073, 48.1556149 ], [ -122.2160308, 48.1553679 ], [ -122.2159714, 48.1515968 ], [ -122.2084485, 48.1512523 ], [ -122.2084164, 48.1497609 ], [ -122.2058398, 48.148979 ], [ -122.208124, 48.1481199 ], [ -122.2031279, 48.1481626 ], [ -122.1887629, 48.1295258 ], [ -122.1944747, 48.1294718 ], [ -122.1947564, 48.1265572 ], [ -122.1892138, 48.1265368 ], [ -122.1893636, 48.1229222 ], [ -122.2596375, 48.1231369 ], [ -122.2597052, 48.1215299 ], [ -122.2636482, 48.1197629 ], [ -122.2650212, 48.1173819 ], [ -122.2636472, 48.1127669 ], [ -122.2687752, 48.1134459 ], [ -122.2658472, 48.110304 ], [ -122.2700642, 48.1102759 ], [ -122.2700192, 48.108364 ], [ -122.2916822, 48.1082719 ], [ -122.2917962, 48.1232108 ], [ -122.3626209, 48.1232773 ], [ -122.3647701, 48.1260208 ] ] ], [ [ [ -122.3626818, 48.1313336 ], [ -122.362626, 48.1311752 ], [ -122.362626, 48.1311388 ], [ -122.3626818, 48.1313336 ] ] ], [ [ [ -122.334153, 48.198989 ], [ -122.341055, 48.199089 ], [ -122.340997, 48.203587 ], [ -122.334095, 48.203488 ], [ -122.334153, 48.198989 ] ] ], [ [ [ -122.326514, 48.20419 ], [ -122.3289587, 48.2051002 ], [ -122.3284795, 48.2060858 ], [ -122.3248708, 48.2056655 ], [ -122.326514, 48.20419 ] ] ], [ [ [ -122.33244, 48.215309 ], [ -122.333223, 48.206209 ], [ -122.339953, 48.206248 ], [ -122.339622, 48.215111 ], [ -122.33244, 48.215309 ] ] ], [ [ [ -122.338667, 48.222526 ], [ -122.340721, 48.222538 ], [ -122.340663, 48.227036 ], [ -122.333931, 48.226998 ], [ -122.333953, 48.225265 ], [ -122.3319, 48.225254 ], [ -122.331959, 48.220755 ], [ -122.33869, 48.220794 ], [ -122.338667, 48.222526 ] ] ], [ [ [ -122.3248148, 48.2338864 ], [ -122.3246509, 48.2387249 ], [ -122.3229637, 48.2387471 ], [ -122.3246847, 48.2394259 ], [ -122.3247223, 48.2422351 ], [ -122.3193396, 48.2422448 ], [ -122.3190077, 48.2283462 ], [ -122.3247773, 48.2322153 ], [ -122.3329589, 48.2290111 ], [ -122.3393353, 48.2311171 ], [ -122.3511291, 48.2312383 ], [ -122.3524256, 48.2328954 ], [ -122.3515068, 48.2369528 ], [ -122.3584457, 48.2350648 ], [ -122.3644159, 48.2258206 ], [ -122.3689178, 48.2268703 ], [ -122.3725618, 48.2311842 ], [ -122.3667886, 48.2352735 ], [ -122.3657324, 48.2391659 ], [ -122.3650201, 48.2360836 ], [ -122.3596084, 48.234828 ], [ -122.3572753, 48.2361125 ], [ -122.3573066, 48.2394634 ], [ -122.3467843, 48.2394346 ], [ -122.3413656, 48.2338903 ], [ -122.3315283, 48.2297448 ], [ -122.3310578, 48.2320873 ], [ -122.3275417, 48.2317139 ], [ -122.3248148, 48.2338864 ] ] ], [ [ [ -122.3846467, 48.240127 ], [ -122.3836177, 48.2404952 ], [ -122.3835282, 48.2404066 ], [ -122.3846467, 48.240127 ] ] ], [ [ [ -122.3835633, 48.2407146 ], [ -122.3834741, 48.24066 ], [ -122.383495, 48.2406543 ], [ -122.3835633, 48.2407146 ] ] ], [ [ [ -122.3247608, 48.2447353 ], [ -122.3241566, 48.2449135 ], [ -122.3247476, 48.2437205 ], [ -122.3247608, 48.2447353 ] ] ], [ [ [ -122.3602037, 48.2660313 ], [ -122.364516, 48.266055 ], [ -122.364641, 48.270983 ], [ -122.3623938, 48.2709707 ], [ -122.3629197, 48.2757981 ], [ -122.3532186, 48.2975771 ], [ -122.3247515, 48.2975282 ], [ -122.3256096, 48.2822442 ], [ -122.3242246, 48.2686292 ], [ -122.3414197, 48.2684942 ], [ -122.3414055, 48.2616754 ], [ -122.3242987, 48.2615793 ], [ -122.3249297, 48.2601702 ], [ -122.3387484, 48.2592268 ], [ -122.3387002, 48.2575624 ], [ -122.3414608, 48.2575888 ], [ -122.3414538, 48.2561415 ], [ -122.3467599, 48.2562083 ], [ -122.3502373, 48.254049 ], [ -122.3520807, 48.2540299 ], [ -122.3520793, 48.2555066 ], [ -122.3557167, 48.25514 ], [ -122.3520966, 48.2501983 ], [ -122.3520331, 48.246635 ], [ -122.3750978, 48.2467532 ], [ -122.3753943, 48.2411525 ], [ -122.3846308, 48.2414496 ], [ -122.3838463, 48.2619138 ], [ -122.3583137, 48.2617703 ], [ -122.3602037, 48.2660313 ] ] ], [ [ [ -122.3305991, 47.8771356 ], [ -122.3335351, 47.8806952 ], [ -122.3275858, 47.8933752 ], [ -122.3190983, 47.8934416 ], [ -122.3176927, 47.8912769 ], [ -122.3195771, 47.88945 ], [ -122.319623, 47.8832087 ], [ -122.3184274, 47.8826166 ], [ -122.3199716, 47.8811106 ], [ -122.3166429, 47.8794903 ], [ -122.3094241, 47.8820527 ], [ -122.3035976, 47.8814907 ], [ -122.2991488, 47.8784205 ], [ -122.2989378, 47.8745795 ], [ -122.2906919, 47.8746422 ], [ -122.2796467, 47.8825491 ], [ -122.2927241, 47.9024224 ], [ -122.2931773, 47.9185156 ], [ -122.2916393, 47.9185314 ], [ -122.2915665, 47.9222384 ], [ -122.287677, 47.9249832 ], [ -122.2840852, 47.9249856 ], [ -122.2826298, 47.9235132 ], [ -122.282349, 47.9115973 ], [ -122.2718429, 47.9116455 ], [ -122.2711657, 47.9158508 ], [ -122.2637684, 47.91463 ], [ -122.2634363, 47.9091607 ], [ -122.2661148, 47.9077233 ], [ -122.2661054, 47.9057094 ], [ -122.2704502, 47.905752 ], [ -122.2581303, 47.8893216 ], [ -122.2516465, 47.8961684 ], [ -122.2478705, 47.8961785 ], [ -122.2426875, 47.903763 ], [ -122.2280687, 47.9034981 ], [ -122.2280772, 47.9002254 ], [ -122.2327438, 47.9002332 ], [ -122.2335549, 47.8928642 ], [ -122.2217848, 47.8925103 ], [ -122.2192237, 47.8900294 ], [ -122.213495, 47.8896608 ], [ -122.2118686, 47.8784197 ], [ -122.2166604, 47.8786972 ], [ -122.219537, 47.8805903 ], [ -122.2196244, 47.8782628 ], [ -122.2226262, 47.8782684 ], [ -122.2225912, 47.871084 ], [ -122.2261971, 47.8710663 ], [ -122.2256704, 47.8676084 ], [ -122.2276141, 47.8667847 ], [ -122.2279118, 47.8637651 ], [ -122.2275215, 47.8554537 ], [ -122.2248755, 47.855466 ], [ -122.227512, 47.8545469 ], [ -122.2274954, 47.8529631 ], [ -122.2243467, 47.8529669 ], [ -122.224318, 47.8492188 ], [ -122.2226731, 47.8492052 ], [ -122.2230698, 47.8392251 ], [ -122.2148004, 47.8392334 ], [ -122.2157919, 47.8460087 ], [ -122.210766, 47.847035 ], [ -122.2071082, 47.8440895 ], [ -122.2070757, 47.8460077 ], [ -122.2042428, 47.8459242 ], [ -122.2042422, 47.8494267 ], [ -122.1871834, 47.8488539 ], [ -122.1881424, 47.8515263 ], [ -122.1863368, 47.8605863 ], [ -122.1794664, 47.8635825 ], [ -122.1750878, 47.8715397 ], [ -122.1662179, 47.8776264 ], [ -122.2065472, 47.878397 ], [ -122.2065347, 47.880951 ], [ -122.2016586, 47.8809147 ], [ -122.2017782, 47.8891038 ], [ -122.1981544, 47.8891246 ], [ -122.19878, 47.8964444 ], [ -122.2016076, 47.8964666 ], [ -122.201585, 47.8983202 ], [ -122.2060998, 47.8993752 ], [ -122.206421, 47.9017649 ], [ -122.2048937, 47.903194 ], [ -122.2057706, 47.9066646 ], [ -122.2017349, 47.9065894 ], [ -122.2017497, 47.9036053 ], [ -122.1962441, 47.9034761 ], [ -122.1961357, 47.8977829 ], [ -122.1909318, 47.8997279 ], [ -122.1909984, 47.9039474 ], [ -122.1896816, 47.9050837 ], [ -122.1897108, 47.9072185 ], [ -122.195991, 47.9072864 ], [ -122.1959589, 47.9107402 ], [ -122.1991525, 47.910755 ], [ -122.2003244, 47.9083455 ], [ -122.2067845, 47.9099429 ], [ -122.2042487, 47.9106683 ], [ -122.2043125, 47.9140859 ], [ -122.2023246, 47.9145948 ], [ -122.2023334, 47.9166166 ], [ -122.2049744, 47.9166271 ], [ -122.2054878, 47.918257 ], [ -122.2043995, 47.9217007 ], [ -122.1813997, 47.9216253 ], [ -122.1701307, 47.903589 ], [ -122.1585977, 47.8972248 ], [ -122.1443997, 47.8920271 ], [ -122.1285669, 47.8812317 ], [ -122.1129089, 47.8792347 ], [ -122.1040419, 47.8764507 ], [ -122.0943464, 47.8641209 ], [ -122.0927128, 47.8464307 ], [ -122.0898138, 47.8432797 ], [ -122.0771646, 47.8403445 ], [ -122.0646055, 47.8301395 ], [ -122.0491321, 47.8311614 ], [ -122.0377884, 47.822459 ], [ -122.0157162, 47.8168602 ], [ -122.0139804, 47.8138667 ], [ -122.0064042, 47.8098786 ], [ -122.0010269, 47.7974163 ], [ -122.0013183, 47.7886158 ], [ -121.9978943, 47.7827898 ], [ -122.0003729, 47.7753992 ], [ -122.0430974, 47.7757752 ], [ -122.0431349, 47.7737296 ], [ -122.1696746, 47.7762235 ], [ -122.1721211, 47.7776387 ], [ -122.172511, 47.7801269 ], [ -122.1752515, 47.7801425 ], [ -122.1755376, 47.7872622 ], [ -122.1859807, 47.787415 ], [ -122.1860704, 47.8140846 ], [ -122.1887306, 47.8145673 ], [ -122.2026295, 47.8095918 ], [ -122.212077, 47.8095495 ], [ -122.2109173, 47.8110602 ], [ -122.2111507, 47.8118593 ], [ -122.2121178, 47.8095495 ], [ -122.2297965, 47.8091612 ], [ -122.2278326, 47.8057587 ], [ -122.2313193, 47.8058196 ], [ -122.2325056, 47.8024141 ], [ -122.2491983, 47.8025985 ], [ -122.2491729, 47.7987419 ], [ -122.2438478, 47.7986984 ], [ -122.2437266, 47.784216 ], [ -122.2423959, 47.7842042 ], [ -122.2423673, 47.7806088 ], [ -122.2437014, 47.7806201 ], [ -122.2437896, 47.7770549 ], [ -122.267058, 47.7770982 ], [ -122.2648429, 47.7855464 ], [ -122.2633957, 47.78555 ], [ -122.2644077, 47.7881302 ], [ -122.2612811, 47.7881142 ], [ -122.2645873, 47.7919037 ], [ -122.2557619, 47.7917092 ], [ -122.2592112, 47.7952134 ], [ -122.2584292, 47.7975953 ], [ -122.2600352, 47.7977024 ], [ -122.2601893, 47.8062909 ], [ -122.2663954, 47.8063164 ], [ -122.2664513, 47.809028 ], [ -122.2693628, 47.8090026 ], [ -122.2694501, 47.8062845 ], [ -122.2869978, 47.8064009 ], [ -122.2922335, 47.8082587 ], [ -122.2871229, 47.808677 ], [ -122.2871246, 47.8100416 ], [ -122.2921061, 47.8118624 ], [ -122.2909283, 47.8136034 ], [ -122.2847217, 47.8135542 ], [ -122.2831448, 47.8162506 ], [ -122.2845249, 47.817423 ], [ -122.2811906, 47.8192263 ], [ -122.274854, 47.8172344 ], [ -122.2709114, 47.8199612 ], [ -122.2658396, 47.8198375 ], [ -122.2658138, 47.8180205 ], [ -122.2630471, 47.817971 ], [ -122.2625177, 47.820796 ], [ -122.2683651, 47.8226344 ], [ -122.2683963, 47.8273063 ], [ -122.2642627, 47.8321388 ], [ -122.2722145, 47.8377267 ], [ -122.27306, 47.8365536 ], [ -122.2749593, 47.8465385 ], [ -122.2816785, 47.847761 ], [ -122.2816988, 47.8491341 ], [ -122.2847387, 47.8491177 ], [ -122.2845705, 47.8501994 ], [ -122.2877235, 47.8510234 ], [ -122.2924848, 47.8493085 ], [ -122.2929214, 47.8503738 ], [ -122.2944008, 47.8478046 ], [ -122.2979581, 47.8475508 ], [ -122.3142825, 47.8502214 ], [ -122.3143665, 47.853912 ], [ -122.3222005, 47.8538322 ], [ -122.3220478, 47.851986 ], [ -122.3248161, 47.8519565 ], [ -122.3252799, 47.8594914 ], [ -122.3349712, 47.8605947 ], [ -122.3293274, 47.869101 ], [ -122.3305991, 47.8771356 ] ] ], [ [ [ -122.2475598, 47.8534384 ], [ -122.2475624, 47.8534323 ], [ -122.2475599, 47.8534384 ], [ -122.2475598, 47.8534384 ] ] ], [ [ [ -122.1758226, 47.921655 ], [ -122.175808, 47.9227138 ], [ -122.1744009, 47.9216398 ], [ -122.1758226, 47.921655 ] ] ], [ [ [ -122.1758034, 47.9230472 ], [ -122.1755403, 47.9421049 ], [ -122.1745614, 47.9420815 ], [ -122.1741603, 47.9218352 ], [ -122.1758034, 47.9230472 ] ] ], [ [ [ -122.1712463, 47.9369619 ], [ -122.1713867, 47.9402888 ], [ -122.172914, 47.941823 ], [ -122.1723091, 47.9413428 ], [ -122.1707145, 47.939586 ], [ -122.1695341, 47.9366689 ], [ -122.1740259, 47.9367013 ], [ -122.1712463, 47.9369619 ] ] ], [ [ [ -122.1750862, 48.0234298 ], [ -122.1737667, 48.0082883 ], [ -122.1707416, 48.0073216 ], [ -122.1748233, 48.0073041 ], [ -122.1761587, 48.0233465 ], [ -122.1750862, 48.0234298 ] ] ], [ [ [ -122.1762303, 48.0336716 ], [ -122.1762618, 48.0238947 ], [ -122.178603, 48.035476 ], [ -122.1762303, 48.0336716 ] ] ], [ [ [ -122.245892, 48.040675 ], [ -122.238531, 48.040419 ], [ -122.238598, 48.035921 ], [ -122.245957, 48.036177 ], [ -122.245892, 48.040675 ] ] ], [ [ [ -122.23678, 48.03644 ], [ -122.236713, 48.040938 ], [ -122.229386, 48.040718 ], [ -122.229453, 48.036219 ], [ -122.23678, 48.03644 ] ] ], [ [ [ -122.226009, 48.044656 ], [ -122.219301, 48.04461 ], [ -122.219369, 48.040112 ], [ -122.226077, 48.040158 ], [ -122.226009, 48.044656 ] ] ], [ [ [ -122.191258, 48.050657 ], [ -122.192986, 48.053523 ], [ -122.197582, 48.053555 ], [ -122.198105, 48.052178 ], [ -122.201897, 48.052204 ], [ -122.201916, 48.05093 ], [ -122.208608, 48.05086 ], [ -122.208795, 48.04816 ], [ -122.215504, 48.048206 ], [ -122.215283, 48.053113 ], [ -122.209653, 48.053074 ], [ -122.209618, 48.055365 ], [ -122.19884, 48.057027 ], [ -122.19821, 48.05912 ], [ -122.1915, 48.059072 ], [ -122.191536, 48.056772 ], [ -122.186226, 48.056734 ], [ -122.186251, 48.05512 ], [ -122.184478, 48.055107 ], [ -122.1839242, 48.0489499 ], [ -122.188976, 48.048986 ], [ -122.18895, 48.05064 ], [ -122.191258, 48.050657 ] ] ], [ [ [ -122.254575, 48.057227 ], [ -122.254639, 48.052729 ], [ -122.261349, 48.052772 ], [ -122.261284, 48.057271 ], [ -122.254575, 48.057227 ] ] ], [ [ [ -122.295422, 48.063342 ], [ -122.295316, 48.069558 ], [ -122.280593, 48.067404 ], [ -122.27978, 48.071497 ], [ -122.273069, 48.071455 ], [ -122.273631, 48.065795 ], [ -122.268755, 48.065764 ], [ -122.269188, 48.059318 ], [ -122.270578, 48.058419 ], [ -122.267807, 48.058206 ], [ -122.267838, 48.056053 ], [ -122.262222, 48.054741 ], [ -122.262287, 48.050243 ], [ -122.27332, 48.049109 ], [ -122.273257, 48.053607 ], [ -122.271113, 48.053728 ], [ -122.27458, 48.05375 ], [ -122.274878, 48.057027 ], [ -122.280047, 48.05862 ], [ -122.280196, 48.062627 ], [ -122.295422, 48.063342 ] ] ], [ [ [ -122.198127, 48.065902 ], [ -122.191417, 48.065854 ], [ -122.191727, 48.060734 ], [ -122.198437, 48.060781 ], [ -122.198127, 48.065902 ] ] ], [ [ [ -122.198276, 48.067293 ], [ -122.198206, 48.071792 ], [ -122.191302, 48.071491 ], [ -122.191373, 48.066993 ], [ -122.198276, 48.067293 ] ] ], [ [ [ -122.25055, 48.068765 ], [ -122.264387, 48.069351 ], [ -122.264323, 48.073849 ], [ -122.250484, 48.073263 ], [ -122.25055, 48.068765 ] ] ], [ [ [ -122.191269, 48.078655 ], [ -122.191522, 48.072937 ], [ -122.198234, 48.072984 ], [ -122.197981, 48.078703 ], [ -122.191269, 48.078655 ] ] ], [ [ [ -122.188996, 48.079722 ], [ -122.188953, 48.082487 ], [ -122.1838777, 48.0824507 ], [ -122.1837586, 48.0751862 ], [ -122.190309, 48.075233 ], [ -122.190239, 48.079731 ], [ -122.188996, 48.079722 ] ] ], [ [ [ -122.187366, 48.095989 ], [ -122.188082, 48.087712 ], [ -122.18522, 48.087692 ], [ -122.185291, 48.083194 ], [ -122.192004, 48.083242 ], [ -122.191974, 48.08513 ], [ -122.194836, 48.085151 ], [ -122.194081, 48.096037 ], [ -122.187366, 48.095989 ] ] ], [ [ [ -122.1842336, 48.1025647 ], [ -122.1841532, 48.0980643 ], [ -122.188773, 48.09814 ], [ -122.188702, 48.102638 ], [ -122.1842336, 48.1025647 ] ] ], [ [ [ -122.1696241, 48.1211897 ], [ -122.1733629, 48.1216123 ], [ -122.1732296, 48.1268835 ], [ -122.167867, 48.1267989 ], [ -122.167964, 48.1229786 ], [ -122.1696241, 48.1211897 ] ] ], [ [ [ -122.2014474, 48.1807128 ], [ -122.203451, 48.1823416 ], [ -122.2086313, 48.1847476 ], [ -122.2090802, 48.1845141 ], [ -122.2089731, 48.1827486 ], [ -122.2109268, 48.1829717 ], [ -122.2156934, 48.1810257 ], [ -122.2230735, 48.1822351 ], [ -122.2238, 48.1889694 ], [ -122.2018318, 48.1885324 ], [ -122.1971491, 48.1818971 ], [ -122.1972956, 48.1802984 ], [ -122.199574, 48.1810968 ], [ -122.1984528, 48.1819836 ], [ -122.1983668, 48.1824681 ], [ -122.2014474, 48.1807128 ] ] ], [ [ [ -122.2554588, 48.1937642 ], [ -122.2554712, 48.1935215 ], [ -122.2560466, 48.1933813 ], [ -122.2554588, 48.1937642 ] ] ], [ [ [ -122.2548942, 48.1937699 ], [ -122.2541787, 48.1937653 ], [ -122.2549397, 48.1936262 ], [ -122.2548942, 48.1937699 ] ] ], [ [ [ -122.2516053, 48.1946306 ], [ -122.252089, 48.1945073 ], [ -122.2515466, 48.1948092 ], [ -122.2516053, 48.1946306 ] ] ], [ [ [ -122.2494628, 48.1950208 ], [ -122.2477553, 48.1945867 ], [ -122.2496483, 48.1948963 ], [ -122.2494628, 48.1950208 ] ] ], [ [ [ -122.247164, 48.2112814 ], [ -122.2510451, 48.2056836 ], [ -122.2484703, 48.2025449 ], [ -122.2433679, 48.204104 ], [ -122.2340631, 48.2022971 ], [ -122.2258634, 48.2077664 ], [ -122.2217523, 48.208324 ], [ -122.2180132, 48.206714 ], [ -122.2242493, 48.2043994 ], [ -122.2241467, 48.2014208 ], [ -122.2182373, 48.2003818 ], [ -122.2166797, 48.1986023 ], [ -122.2377752, 48.1972758 ], [ -122.242064, 48.1996416 ], [ -122.2457118, 48.1953659 ], [ -122.2508936, 48.1953898 ], [ -122.2557804, 48.1939738 ], [ -122.2596256, 48.1916949 ], [ -122.2624593, 48.193198 ], [ -122.2651768, 48.2022387 ], [ -122.2637397, 48.2048525 ], [ -122.258331, 48.2050202 ], [ -122.2581081, 48.2066024 ], [ -122.2602837, 48.2098009 ], [ -122.2598543, 48.2108784 ], [ -122.2547159, 48.2130045 ], [ -122.247164, 48.2112814 ] ], [ [ -122.2299446, 48.2010261 ], [ -122.2323383, 48.200041 ], [ -122.2334567, 48.1990797 ], [ -122.2336185, 48.1981279 ], [ -122.2295877, 48.2010689 ], [ -122.2306441, 48.2017495 ], [ -122.2342086, 48.2018066 ], [ -122.2299446, 48.2010261 ] ] ], [ [ [ -122.2588693, 48.207264 ], [ -122.2587428, 48.2066066 ], [ -122.2591557, 48.2073378 ], [ -122.2588693, 48.207264 ] ] ], [ [ [ -122.180768, 48.216738 ], [ -122.18084, 48.21224 ], [ -122.187569, 48.212287 ], [ -122.187498, 48.216785 ], [ -122.180768, 48.216738 ] ] ], [ [ [ -122.2236468, 48.2227915 ], [ -122.2202098, 48.2170765 ], [ -122.2264418, 48.2170185 ], [ -122.2262608, 48.2099445 ], [ -122.2311148, 48.2087866 ], [ -122.2410327, 48.2102376 ], [ -122.2446937, 48.2119595 ], [ -122.2482751, 48.219925 ], [ -122.2530186, 48.2218325 ], [ -122.2658746, 48.2254525 ], [ -122.2712716, 48.2236354 ], [ -122.2795297, 48.2237944 ], [ -122.2886357, 48.2267114 ], [ -122.2916757, 48.2300774 ], [ -122.2953437, 48.2311244 ], [ -122.2953697, 48.2364783 ], [ -122.2768086, 48.2355724 ], [ -122.2466403, 48.2388172 ], [ -122.246366, 48.240956 ], [ -122.239632, 48.240912 ], [ -122.2406959, 48.2359359 ], [ -122.2236468, 48.2227915 ] ] ], [ [ [ -122.1323234, 48.2322824 ], [ -122.1312724, 48.2223684 ], [ -122.1369754, 48.2172465 ], [ -122.1423594, 48.2168375 ], [ -122.1445253, 48.2238624 ], [ -122.1471173, 48.2245339 ], [ -122.193713, 48.2243685 ], [ -122.1940719, 48.2325094 ], [ -122.1915509, 48.2349154 ], [ -122.188154, 48.2352374 ], [ -122.188152, 48.2387304 ], [ -122.2050005, 48.2387493 ], [ -122.1976477, 48.2400791 ], [ -122.1969865, 48.2424142 ], [ -122.1935092, 48.2426773 ], [ -122.1900459, 48.253252 ], [ -122.1815592, 48.2534348 ], [ -122.1822233, 48.2568494 ], [ -122.1798674, 48.257588 ], [ -122.1766936, 48.2561709 ], [ -122.1715843, 48.2597784 ], [ -122.1720322, 48.2617968 ], [ -122.1616656, 48.2663206 ], [ -122.1488242, 48.2565893 ], [ -122.1323234, 48.2322824 ] ] ], [ [ [ -122.0964953, 47.9104572 ], [ -122.09093, 47.9049759 ], [ -122.0956787, 47.9068034 ], [ -122.0990875, 47.9014261 ], [ -122.108629, 47.8988899 ], [ -122.1086776, 47.9058582 ], [ -122.1066836, 47.9092351 ], [ -122.1086185, 47.9099576 ], [ -122.1085444, 47.9115886 ], [ -122.0964953, 47.9104572 ] ] ], [ [ [ -122.0841998, 47.9170966 ], [ -122.0836139, 47.9180206 ], [ -122.0840227, 47.9161008 ], [ -122.0841998, 47.9170966 ] ] ], [ [ [ -122.0799934, 47.9289311 ], [ -122.0770329, 47.933331 ], [ -122.0773628, 47.9384127 ], [ -122.0826711, 47.9383881 ], [ -122.082653, 47.9420449 ], [ -122.0882082, 47.9420628 ], [ -122.0882192, 47.9385598 ], [ -122.0956428, 47.9385537 ], [ -122.0969796, 47.9451943 ], [ -122.1003995, 47.9476409 ], [ -122.1018763, 47.9455682 ], [ -122.1011843, 47.939752 ], [ -122.1070382, 47.9397402 ], [ -122.107601, 47.9408848 ], [ -122.1041211, 47.9411703 ], [ -122.1042646, 47.9458774 ], [ -122.1105522, 47.9456721 ], [ -122.1111831, 47.9486647 ], [ -122.1126822, 47.9489928 ], [ -122.1109106, 47.9490163 ], [ -122.1120743, 47.9508631 ], [ -122.1090222, 47.951794 ], [ -122.1147543, 47.9538334 ], [ -122.1189731, 47.953839 ], [ -122.1150108, 47.9494715 ], [ -122.1167503, 47.9467648 ], [ -122.1149312, 47.943907 ], [ -122.1174805, 47.9439105 ], [ -122.1175081, 47.942129 ], [ -122.1148242, 47.9421098 ], [ -122.113371, 47.9321443 ], [ -122.1127594, 47.9309995 ], [ -122.1030013, 47.9318243 ], [ -122.1068995, 47.9294941 ], [ -122.1076283, 47.9258575 ], [ -122.1156464, 47.925731 ], [ -122.1115536, 47.919471 ], [ -122.1125638, 47.9164035 ], [ -122.1192951, 47.9164712 ], [ -122.1259821, 47.921138 ], [ -122.1374699, 47.9229032 ], [ -122.1433668, 47.922209 ], [ -122.1445599, 47.9248037 ], [ -122.1549149, 47.9315099 ], [ -122.1611159, 47.9397789 ], [ -122.1591379, 47.9503884 ], [ -122.1472833, 47.9521097 ], [ -122.1366651, 47.9556742 ], [ -122.1294489, 47.9636636 ], [ -122.1359272, 47.9707098 ], [ -122.1338392, 47.9707888 ], [ -122.1377349, 47.9776267 ], [ -122.1378359, 47.9857707 ], [ -122.1280429, 47.9954957 ], [ -122.1267719, 48.0033947 ], [ -122.1319379, 48.0100327 ], [ -122.1355399, 48.0121147 ], [ -122.1345789, 48.0213585 ], [ -122.1302355, 48.019733 ], [ -122.1225703, 48.0214175 ], [ -122.1218099, 48.0170948 ], [ -122.1258533, 48.0170766 ], [ -122.1257425, 48.0143837 ], [ -122.1245063, 48.0143631 ], [ -122.1243678, 48.0107662 ], [ -122.1192079, 48.0108611 ], [ -122.1192391, 48.0090263 ], [ -122.1243737, 48.0090166 ], [ -122.1242886, 48.0071468 ], [ -122.1190176, 48.0071225 ], [ -122.1190105, 48.0035688 ], [ -122.1160097, 48.0035384 ], [ -122.1165232, 48.0024033 ], [ -122.1142439, 48.001374 ], [ -122.1155858, 48.0000163 ], [ -122.1230497, 48.0013533 ], [ -122.1223018, 48.0035292 ], [ -122.1242024, 48.0047541 ], [ -122.1259217, 47.9958476 ], [ -122.1244338, 47.9958408 ], [ -122.124457, 47.9933737 ], [ -122.1308262, 47.9889834 ], [ -122.1344372, 47.989072 ], [ -122.1378075, 47.9856964 ], [ -122.1353977, 47.9849654 ], [ -122.1372, 47.9817546 ], [ -122.1353433, 47.9745292 ], [ -122.1350163, 47.9759357 ], [ -122.1323784, 47.9762556 ], [ -122.1297871, 47.9762056 ], [ -122.1298113, 47.9745038 ], [ -122.1246772, 47.9745228 ], [ -122.12477, 47.9709302 ], [ -122.1196332, 47.9709525 ], [ -122.119544, 47.9745004 ], [ -122.103843, 47.9735692 ], [ -122.1026686, 47.9706271 ], [ -122.0877546, 47.9708852 ], [ -122.0876, 47.9780309 ], [ -122.0699745, 47.9778508 ], [ -122.0700371, 47.9760889 ], [ -122.0659627, 47.9761264 ], [ -122.0655308, 48.000576 ], [ -122.0543186, 48.0005125 ], [ -122.0545188, 48.0043306 ], [ -122.0586757, 48.0043653 ], [ -122.0586386, 48.0063354 ], [ -122.0598737, 48.0063508 ], [ -122.0598395, 48.0081546 ], [ -122.053334, 48.0080637 ], [ -122.0545387, 48.0117281 ], [ -122.0490129, 48.0116752 ], [ -122.0490628, 48.009897 ], [ -122.0463866, 48.0107521 ], [ -122.0437566, 48.0080305 ], [ -122.0460028, 48.011057 ], [ -122.048968, 48.013243 ], [ -122.0469084, 48.018929 ], [ -122.0476494, 48.0189381 ], [ -122.0482803, 48.0209569 ], [ -122.0486541, 48.0213727 ], [ -122.0514545, 48.0228535 ], [ -122.0525101, 48.022039 ], [ -122.0536298, 48.0304673 ], [ -122.0574236, 48.0302936 ], [ -122.0582284, 48.0319152 ], [ -122.1104022, 48.0279567 ], [ -122.111925, 48.0780436 ], [ -122.11881, 48.0775309 ], [ -122.1189717, 48.0819024 ], [ -122.1294953, 48.0828721 ], [ -122.1291112, 48.0761539 ], [ -122.1335891, 48.0762017 ], [ -122.133654, 48.0744317 ], [ -122.1396472, 48.0745164 ], [ -122.1402786, 48.0920995 ], [ -122.151298, 48.0920352 ], [ -122.1515696, 48.1141679 ], [ -122.149715, 48.1148415 ], [ -122.1497601, 48.1180016 ], [ -122.1519613, 48.1180666 ], [ -122.1517791, 48.1265422 ], [ -122.147231, 48.1264919 ], [ -122.1464717, 48.1303173 ], [ -122.1465193, 48.1334767 ], [ -122.151885, 48.1335361 ], [ -122.1516963, 48.1378482 ], [ -122.143742, 48.1464819 ], [ -122.14063, 48.1464549 ], [ -122.1403674, 48.1517663 ], [ -122.134404, 48.1527385 ], [ -122.1285558, 48.1518946 ], [ -122.1298324, 48.1519327 ], [ -122.1299415, 48.1481975 ], [ -122.1085548, 48.1475887 ], [ -122.1084145, 48.1502001 ], [ -122.1058336, 48.1501962 ], [ -122.1058784, 48.1516609 ], [ -122.1084396, 48.1516654 ], [ -122.1083664, 48.1552958 ], [ -122.1140541, 48.1553499 ], [ -122.1166458, 48.1606942 ], [ -122.1166135, 48.1625717 ], [ -122.1143689, 48.1625781 ], [ -122.1134188, 48.1643298 ], [ -122.1133568, 48.1697184 ], [ -122.1187572, 48.1702178 ], [ -122.11859, 48.1808645 ], [ -122.1160624, 48.1808615 ], [ -122.110661, 48.1744681 ], [ -122.1024031, 48.1735274 ], [ -122.1024569, 48.1701807 ], [ -122.0970169, 48.1645167 ], [ -122.0969809, 48.1488987 ], [ -122.0872911, 48.1423659 ], [ -122.0874461, 48.1375039 ], [ -122.0800101, 48.1379539 ], [ -122.0744322, 48.122337 ], [ -122.0718673, 48.1082021 ], [ -122.0547004, 48.1081671 ], [ -122.0551964, 48.0938222 ], [ -122.0649184, 48.0937372 ], [ -122.0591864, 48.0864373 ], [ -122.0490175, 48.0819273 ], [ -122.0487565, 48.0797833 ], [ -122.0423875, 48.0822323 ], [ -122.0375076, 48.0818943 ], [ -122.0319346, 48.0770853 ], [ -122.0318286, 48.0818933 ], [ -122.0244576, 48.0833813 ], [ -122.0129097, 48.0831323 ], [ -122.0127217, 48.0736861 ], [ -122.0107369, 48.073669 ], [ -122.0102825, 48.0973583 ], [ -121.9962725, 48.0972367 ], [ -121.9881539, 48.0938107 ], [ -121.9822119, 48.0934287 ], [ -121.9795039, 48.0913677 ], [ -121.9641465, 48.1016879 ], [ -121.956448, 48.1027847 ], [ -121.9618885, 48.0937787 ], [ -121.9747301, 48.0941469 ], [ -121.9802347, 48.089771 ], [ -121.9803157, 48.0909264 ], [ -121.9804386, 48.0898432 ], [ -121.9876394, 48.0904161 ], [ -121.9877859, 48.0928341 ], [ -121.9911588, 48.0927797 ], [ -121.9964468, 48.0915436 ], [ -121.9962624, 48.0868969 ], [ -122.0002803, 48.0869269 ], [ -122.0002073, 48.0830449 ], [ -121.9961851, 48.0830069 ], [ -121.9961644, 48.0818916 ], [ -121.985455, 48.083587 ], [ -121.9832804, 48.0826878 ], [ -121.980904, 48.0780808 ], [ -121.9799036, 48.0794836 ], [ -121.9763562, 48.079566 ], [ -121.972565, 48.0769076 ], [ -121.9839727, 48.0765022 ], [ -121.9861493, 48.0796881 ], [ -121.9981909, 48.0777249 ], [ -122.0009349, 48.0760841 ], [ -122.0027451, 48.0722847 ], [ -122.0067071, 48.0728828 ], [ -122.006782, 48.069008 ], [ -122.0117117, 48.0675037 ], [ -122.011754, 48.065305 ], [ -122.0136566, 48.0648044 ], [ -122.0131575, 48.0626302 ], [ -122.0206863, 48.0608053 ], [ -122.0179887, 48.0573636 ], [ -122.0238981, 48.0535 ], [ -122.0250797, 48.0490023 ], [ -122.0297189, 48.047773 ], [ -122.0255943, 48.0449487 ], [ -122.0261639, 48.0413908 ], [ -122.0245309, 48.041107 ], [ -122.0232305, 48.0420404 ], [ -122.0222425, 48.0417984 ], [ -122.0217569, 48.0395538 ], [ -122.0182097, 48.0391183 ], [ -122.0175719, 48.0363685 ], [ -122.0241301, 48.0342566 ], [ -122.0245657, 48.0326043 ], [ -122.0214949, 48.0292495 ], [ -122.0263535, 48.0265463 ], [ -122.0241291, 48.0230683 ], [ -122.0281103, 48.0230697 ], [ -122.0285438, 48.0237147 ], [ -122.0287388, 48.0238837 ], [ -122.0288938, 48.0239522 ], [ -122.0307635, 48.0240566 ], [ -122.0287379, 48.0238827 ], [ -122.0270939, 48.0205307 ], [ -122.0328469, 48.0143487 ], [ -122.0336973, 48.0075852 ], [ -122.0436276, 48.0076681 ], [ -122.0388668, 48.0001708 ], [ -122.0398458, 47.9915259 ], [ -122.0377308, 47.9911389 ], [ -122.0356793, 47.985966 ], [ -122.0393945, 47.9834239 ], [ -122.0382021, 47.9812366 ], [ -122.0435361, 47.9794451 ], [ -122.0476877, 47.9758266 ], [ -122.0530767, 47.9766001 ], [ -122.0604795, 47.9732152 ], [ -122.0622875, 47.964557 ], [ -122.0690931, 47.9606796 ], [ -122.0679465, 47.9580345 ], [ -122.0712121, 47.9517628 ], [ -122.0687809, 47.9485438 ], [ -122.0750657, 47.9425878 ], [ -122.0735431, 47.9334249 ], [ -122.0753813, 47.9319285 ], [ -122.07675, 47.9287761 ], [ -122.0747227, 47.9268416 ], [ -122.0809896, 47.922224 ], [ -122.0807708, 47.9212103 ], [ -122.0814467, 47.9200645 ], [ -122.0826489, 47.9187727 ], [ -122.0832755, 47.9184079 ], [ -122.0813223, 47.9219782 ], [ -122.077104, 47.9255956 ], [ -122.0799934, 47.9289311 ] ] ], [ [ [ -122.1544044, 48.1519959 ], [ -122.1613487, 48.1522679 ], [ -122.1543991, 48.1522132 ], [ -122.1544044, 48.1519959 ] ] ], [ [ [ -122.1907595, 48.1762696 ], [ -122.1933506, 48.1784406 ], [ -122.1934302, 48.1870222 ], [ -122.191716, 48.1881649 ], [ -122.1940898, 48.1887647 ], [ -122.1327872, 48.1883181 ], [ -122.1532258, 48.1883102 ], [ -122.152493, 48.1865363 ], [ -122.1481611, 48.1864562 ], [ -122.1484007, 48.1845949 ], [ -122.1535624, 48.1842772 ], [ -122.1517966, 48.1811851 ], [ -122.1457883, 48.1825419 ], [ -122.1459679, 48.1774014 ], [ -122.161829, 48.1780258 ], [ -122.1647736, 48.1812792 ], [ -122.1711583, 48.1805545 ], [ -122.1726291, 48.177867 ], [ -122.1669949, 48.1776333 ], [ -122.1672988, 48.1750514 ], [ -122.1724232, 48.1750604 ], [ -122.1723273, 48.169636 ], [ -122.1752343, 48.1686519 ], [ -122.175256, 48.1667429 ], [ -122.1804019, 48.1668162 ], [ -122.1803816, 48.1693376 ], [ -122.1894258, 48.1721594 ], [ -122.1907595, 48.1762696 ] ] ], [ [ [ -122.1117199, 48.1930155 ], [ -122.1076595, 48.1950213 ], [ -122.1106544, 48.1987107 ], [ -122.1027029, 48.198957 ], [ -122.1028419, 48.1964897 ], [ -122.0994358, 48.1939411 ], [ -122.0943669, 48.1928197 ], [ -122.0947929, 48.1877147 ], [ -122.0981179, 48.1871507 ], [ -122.0913329, 48.1831827 ], [ -122.0917669, 48.1773297 ], [ -122.1025712, 48.1770115 ], [ -122.1013887, 48.1912849 ], [ -122.1069995, 48.1894843 ], [ -122.1072052, 48.1877772 ], [ -122.1122885, 48.187752 ], [ -122.1117199, 48.1930155 ] ] ], [ [ [ -122.1136392, 48.189505 ], [ -122.1139208, 48.1883561 ], [ -122.1141283, 48.1894903 ], [ -122.1136392, 48.189505 ] ] ], [ [ [ -122.1386491, 48.1988547 ], [ -122.1298341, 48.2008232 ], [ -122.1302047, 48.2030874 ], [ -122.128434, 48.2033656 ], [ -122.1300561, 48.1989021 ], [ -122.12878, 48.1913869 ], [ -122.1304923, 48.1913736 ], [ -122.1327872, 48.1883181 ], [ -122.1430795, 48.188396 ], [ -122.1429091, 48.198617 ], [ -122.1390118, 48.2006562 ], [ -122.1386491, 48.1988547 ] ] ], [ [ [ -122.127968, 48.202505 ], [ -122.1283835, 48.2033667 ], [ -122.12724, 48.2027211 ], [ -122.127968, 48.202505 ] ] ], [ [ [ -122.1146526, 48.2067808 ], [ -122.1169079, 48.2022997 ], [ -122.120833, 48.20233 ], [ -122.120756, 48.206828 ], [ -122.1146526, 48.2067808 ] ] ], [ [ [ -122.0851905, 48.2282061 ], [ -122.085127, 48.231778 ], [ -122.0764933, 48.2315411 ], [ -122.0727343, 48.2330927 ], [ -122.072678, 48.236218 ], [ -122.064724, 48.236932 ], [ -122.064694, 48.23857 ], [ -122.057961, 48.238515 ], [ -122.057995, 48.236671 ], [ -122.0481, 48.2360793 ], [ -122.041306, 48.2312563 ], [ -122.0383391, 48.2184934 ], [ -122.0350921, 48.2154944 ], [ -122.0167973, 48.2146554 ], [ -122.0161133, 48.2118845 ], [ -122.0239279, 48.2125814 ], [ -122.0235968, 48.2105266 ], [ -122.0272848, 48.20803 ], [ -122.0352777, 48.205641 ], [ -122.0303546, 48.2010647 ], [ -122.0336576, 48.2002023 ], [ -122.0310988, 48.1976078 ], [ -122.0370283, 48.1920343 ], [ -122.0352214, 48.1881595 ], [ -122.0432042, 48.1839146 ], [ -122.0523201, 48.1835836 ], [ -122.0585061, 48.1843286 ], [ -122.0587731, 48.1875576 ], [ -122.063999, 48.1876266 ], [ -122.063581, 48.1926896 ], [ -122.069162, 48.1924656 ], [ -122.0750929, 48.2001455 ], [ -122.0749974, 48.20201 ], [ -122.0902928, 48.2036295 ], [ -122.0926968, 48.2096255 ], [ -122.0997817, 48.2115625 ], [ -122.1170246, 48.2084445 ], [ -122.1021951, 48.2240234 ], [ -122.0948505, 48.2259478 ], [ -122.094805, 48.228539 ], [ -122.088073, 48.228486 ], [ -122.0880943, 48.2272874 ], [ -122.0851905, 48.2282061 ] ] ], [ [ [ -122.0144022, 47.8814575 ], [ -122.0126779, 47.8814425 ], [ -122.0123039, 47.837914 ], [ -122.0016268, 47.8379304 ], [ -122.0016154, 47.8415247 ], [ -121.9955485, 47.8415337 ], [ -121.9955527, 47.8402348 ], [ -121.9932882, 47.8401027 ], [ -121.9932836, 47.8414917 ], [ -121.9911063, 47.8414869 ], [ -121.9945392, 47.8363181 ], [ -121.9948029, 47.8308587 ], [ -121.9990209, 47.8273391 ], [ -122.0411148, 47.8282677 ], [ -122.0420814, 47.831065 ], [ -122.0294708, 47.8298327 ], [ -122.0178558, 47.8369957 ], [ -122.0139698, 47.8422857 ], [ -122.0144022, 47.8814575 ] ] ], [ [ [ -121.9828612, 47.8559227 ], [ -121.9845295, 47.8559118 ], [ -121.9845346, 47.8571824 ], [ -121.9828883, 47.8572012 ], [ -121.9828612, 47.8559227 ] ] ], [ [ [ -121.9956889, 47.8796992 ], [ -121.9965479, 47.8849811 ], [ -122.0109478, 47.8851655 ], [ -122.0126262, 47.8863949 ], [ -122.0132631, 47.8936493 ], [ -122.0202691, 47.8952093 ], [ -122.0245971, 47.8944293 ], [ -122.0439731, 47.9059052 ], [ -122.0433412, 47.9129582 ], [ -122.0342802, 47.9129372 ], [ -122.0339102, 47.9159922 ], [ -122.0343784, 47.9348711 ], [ -122.0450133, 47.9349351 ], [ -122.0431856, 47.963042 ], [ -121.9720367, 47.962796 ], [ -121.9624346, 47.9575631 ], [ -121.9587646, 47.958383 ], [ -121.9523146, 47.956401 ], [ -121.948112, 47.9511611 ], [ -121.9490895, 47.9499311 ], [ -121.9478685, 47.9421531 ], [ -121.9440204, 47.9405331 ], [ -121.9439584, 47.9310062 ], [ -121.9481214, 47.9309002 ], [ -121.9438223, 47.9208482 ], [ -121.9435533, 47.9157782 ], [ -121.9413057, 47.9130292 ], [ -121.9447042, 47.9121083 ], [ -121.9433997, 47.9020863 ], [ -121.9081351, 47.9021008 ], [ -121.9067151, 47.9037623 ], [ -121.9093562, 47.9101222 ], [ -121.9036282, 47.9158902 ], [ -121.9050722, 47.9172562 ], [ -121.9061942, 47.9159092 ], [ -121.9088452, 47.9163252 ], [ -121.9115122, 47.9201812 ], [ -121.9080532, 47.9214372 ], [ -121.9066123, 47.9246352 ], [ -121.9008482, 47.9224122 ], [ -121.8990893, 47.9259772 ], [ -121.8965693, 47.9265182 ], [ -121.8972772, 47.9237562 ], [ -121.8951162, 47.9201902 ], [ -121.8960902, 47.9188132 ], [ -121.8823761, 47.9052802 ], [ -121.8773531, 47.9040383 ], [ -121.8753066, 47.9017688 ], [ -121.863614, 47.9014783 ], [ -121.853812, 47.8992443 ], [ -121.846057, 47.8997413 ], [ -121.848712, 47.8952703 ], [ -121.8330508, 47.8903061 ], [ -121.8349955, 47.8888823 ], [ -121.8356211, 47.8877607 ], [ -121.8348047, 47.8843962 ], [ -121.8325158, 47.8825766 ], [ -121.8288993, 47.8819434 ], [ -121.828884, 47.8802916 ], [ -121.8277395, 47.8765723 ], [ -121.8252326, 47.8736523 ], [ -121.829915, 47.869264 ], [ -121.8298132, 47.8671821 ], [ -121.8315626, 47.8671799 ], [ -121.8310388, 47.8593087 ], [ -121.8343002, 47.8584235 ], [ -121.8338273, 47.8571312 ], [ -121.8207284, 47.8603529 ], [ -121.822303, 47.8567245 ], [ -121.8261779, 47.8554777 ], [ -121.8221921, 47.8518652 ], [ -121.8245566, 47.8486952 ], [ -121.8347434, 47.8496898 ], [ -121.8321312, 47.8510844 ], [ -121.8319586, 47.8519557 ], [ -121.8476863, 47.8439149 ], [ -121.8561739, 47.8439998 ], [ -121.8571453, 47.8453078 ], [ -121.86017, 47.8461839 ], [ -121.8719429, 47.8459073 ], [ -121.8733048, 47.8571486 ], [ -121.9053448, 47.8547865 ], [ -121.92339, 47.8556795 ], [ -121.923436, 47.853456 ], [ -121.930119, 47.853518 ], [ -121.9311052, 47.8560847 ], [ -121.9377777, 47.856447 ], [ -121.9374559, 47.860386 ], [ -121.9416568, 47.8616595 ], [ -121.9541349, 47.8612085 ], [ -121.9572607, 47.8584912 ], [ -121.9561968, 47.8599955 ], [ -121.9611755, 47.8589487 ], [ -121.9640373, 47.8622354 ], [ -121.9534796, 47.8672007 ], [ -121.9534397, 47.870317 ], [ -121.9588017, 47.8702791 ], [ -121.9588843, 47.8755434 ], [ -121.9603851, 47.875842 ], [ -121.9535472, 47.875848 ], [ -121.9535497, 47.8776521 ], [ -121.9672192, 47.8786748 ], [ -121.9671869, 47.8776196 ], [ -121.9854322, 47.8775091 ], [ -121.9867467, 47.8740218 ], [ -121.9854531, 47.8736841 ], [ -121.9854576, 47.8708962 ], [ -121.9822285, 47.8701154 ], [ -121.98227, 47.8669053 ], [ -121.9853084, 47.8668925 ], [ -121.9853501, 47.863909 ], [ -122.002913, 47.8703641 ], [ -121.9904904, 47.870348 ], [ -121.99075, 47.8756728 ], [ -121.9971661, 47.877584 ], [ -121.9956889, 47.8796992 ] ] ], [ [ [ -122.0411271, 47.8828427 ], [ -122.0398037, 47.8816727 ], [ -122.0411485, 47.881684 ], [ -122.0411271, 47.8828427 ] ] ], [ [ [ -122.0397518, 47.8816723 ], [ -122.0410835, 47.8852051 ], [ -122.0320472, 47.8816076 ], [ -122.0397518, 47.8816723 ] ] ], [ [ [ -122.0144022, 47.8814575 ], [ -122.031354, 47.8816018 ], [ -122.0320863, 47.8886047 ], [ -122.0261504, 47.8902456 ], [ -122.0142339, 47.8903298 ], [ -122.0144022, 47.8814575 ] ] ], [ [ [ -122.075346, 47.910949 ], [ -122.0825637, 47.9098791 ], [ -122.0788007, 47.9066378 ], [ -122.0797317, 47.9035409 ], [ -122.0827045, 47.9045905 ], [ -122.0835416, 47.9022477 ], [ -122.0901188, 47.9045447 ], [ -122.0892834, 47.9060009 ], [ -122.0823416, 47.9060036 ], [ -122.0827301, 47.9100655 ], [ -122.0817322, 47.9115089 ], [ -122.0836842, 47.9126956 ], [ -122.0840144, 47.9160517 ], [ -122.0835931, 47.9128584 ], [ -122.0820201, 47.9119079 ], [ -122.081836, 47.915624 ], [ -122.075145, 47.91557 ], [ -122.075346, 47.910949 ] ] ], [ [ [ -122.0836405, 47.9180208 ], [ -122.083596, 47.918068 ], [ -122.0836139, 47.9180206 ], [ -122.0836405, 47.9180208 ] ] ], [ [ [ -122.0738609, 47.9284017 ], [ -122.0765073, 47.9288046 ], [ -122.0750559, 47.9305927 ], [ -122.0738609, 47.9284017 ] ] ], [ [ [ -122.0476928, 48.0189386 ], [ -122.0497806, 48.0191844 ], [ -122.0503586, 48.021731 ], [ -122.0483191, 48.020948 ], [ -122.0476928, 48.0189386 ] ] ], [ [ [ -122.0243581, 48.0325936 ], [ -122.0243295, 48.0327735 ], [ -122.0238815, 48.0324366 ], [ -122.0243581, 48.0325936 ] ] ], [ [ [ -121.9777909, 48.0758984 ], [ -121.9681683, 48.067814 ], [ -121.9690427, 48.067048 ], [ -121.9693767, 48.0652785 ], [ -121.9650369, 48.0633951 ], [ -121.9636905, 48.0612508 ], [ -121.9605969, 48.058946 ], [ -121.9621829, 48.0580426 ], [ -121.9624715, 48.0573168 ], [ -121.9621853, 48.0562072 ], [ -121.9611035, 48.0556035 ], [ -121.956028, 48.0542784 ], [ -121.9599708, 48.0531865 ], [ -121.9580229, 48.0435586 ], [ -121.9631609, 48.0387476 ], [ -121.9685069, 48.0384026 ], [ -121.9730039, 48.0403506 ], [ -121.9901529, 48.0391706 ], [ -121.9997589, 48.0488466 ], [ -122.0053829, 48.0512915 ], [ -122.0078338, 48.0555045 ], [ -122.0088008, 48.0621605 ], [ -121.9960988, 48.0667104 ], [ -121.9959808, 48.0683544 ], [ -121.9905158, 48.0682594 ], [ -121.9906248, 48.0719114 ], [ -121.9797538, 48.0722304 ], [ -121.9798061, 48.0757173 ], [ -121.9777909, 48.0758984 ] ] ], [ [ [ -121.9779803, 48.0956766 ], [ -121.9781505, 48.0957682 ], [ -121.9775069, 48.0956812 ], [ -121.9779803, 48.0956766 ] ] ], [ [ [ -121.9813199, 48.0965071 ], [ -121.9822989, 48.0984413 ], [ -121.9789813, 48.0959911 ], [ -121.9813199, 48.0965071 ] ] ], [ [ [ -122.0124048, 48.126622 ], [ -122.0145382, 48.1260289 ], [ -122.0147742, 48.1261568 ], [ -122.0124048, 48.126622 ] ] ], [ [ [ -122.0149183, 48.1262567 ], [ -122.0172223, 48.1270054 ], [ -122.0142962, 48.1265484 ], [ -122.0149183, 48.1262567 ] ] ], [ [ [ -122.0123473, 48.1268287 ], [ -122.0133614, 48.1269993 ], [ -122.0123233, 48.1273499 ], [ -122.0123473, 48.1268287 ] ] ], [ [ [ -122.0352844, 48.1438482 ], [ -122.0340453, 48.144261 ], [ -122.0345596, 48.1438152 ], [ -122.0352844, 48.1438482 ] ] ], [ [ [ -122.0358567, 48.1470475 ], [ -122.0357693, 48.1468578 ], [ -122.0364344, 48.147088 ], [ -122.0358567, 48.1470475 ] ] ], [ [ [ -122.045437, 48.249715 ], [ -122.038703, 48.249659 ], [ -122.038791, 48.244972 ], [ -122.045525, 48.245028 ], [ -122.045437, 48.249715 ] ] ], [ [ [ -122.017689, 48.261809 ], [ -122.025436, 48.261376 ], [ -122.02535, 48.265873 ], [ -122.017603, 48.266307 ], [ -122.017689, 48.261809 ] ] ], [ [ [ -122.007462, 48.272852 ], [ -122.002833, 48.272812 ], [ -122.002777, 48.275695 ], [ -121.995928, 48.27548 ], [ -121.996016, 48.270983 ], [ -122.000621, 48.271023 ], [ -122.000677, 48.268134 ], [ -122.005743, 48.268178 ], [ -122.007049, 48.266074 ], [ -122.013786, 48.266132 ], [ -122.013699, 48.27063 ], [ -122.0075, 48.270864 ], [ -122.007462, 48.272852 ] ] ], [ [ [ -121.987636, 48.271314 ], [ -121.987547, 48.275812 ], [ -121.980244, 48.275829 ], [ -121.980333, 48.271331 ], [ -121.987636, 48.271314 ] ] ], [ [ [ -121.8630698, 47.8450071 ], [ -121.8588235, 47.8454416 ], [ -121.8575045, 47.8440131 ], [ -121.8630698, 47.8450071 ] ] ], [ [ [ -121.8252068, 47.8743418 ], [ -121.8281287, 47.8809249 ], [ -121.8293342, 47.8825957 ], [ -121.8343164, 47.884255 ], [ -121.8350947, 47.8881079 ], [ -121.8325836, 47.8903731 ], [ -121.8289979, 47.8915583 ], [ -121.8286269, 47.8889333 ], [ -121.8206422, 47.8867543 ], [ -121.8206374, 47.8851946 ], [ -121.8152104, 47.8853165 ], [ -121.8151699, 47.8817371 ], [ -121.8172156, 47.881699 ], [ -121.8171875, 47.8781271 ], [ -121.8192196, 47.8780952 ], [ -121.8206307, 47.8744012 ], [ -121.8252068, 47.8743418 ] ] ], [ [ [ -121.8322548, 47.942866 ], [ -121.8321651, 47.9391131 ], [ -121.8365763, 47.9391733 ], [ -121.8366832, 47.9427908 ], [ -121.8322548, 47.942866 ] ] ], [ [ [ -121.9108228, 48.0021408 ], [ -121.8983067, 47.9950798 ], [ -121.8993547, 47.9913428 ], [ -121.9043017, 47.9894048 ], [ -121.9031507, 47.9882258 ], [ -121.8867486, 47.9799889 ], [ -121.8885086, 47.9732189 ], [ -121.8945126, 47.9708279 ], [ -121.8934715, 47.9670439 ], [ -121.8977025, 47.96402 ], [ -121.9015035, 47.963701 ], [ -121.9053135, 47.95962 ], [ -121.9165486, 47.964808 ], [ -121.9246956, 47.965487 ], [ -121.9243406, 47.969342 ], [ -121.9268417, 47.9731529 ], [ -121.9262967, 47.9745699 ], [ -121.9300057, 47.9793909 ], [ -121.9281667, 47.9831159 ], [ -121.9288127, 47.9856069 ], [ -121.9357218, 47.9936739 ], [ -121.9299678, 47.9972378 ], [ -121.9384309, 48.0007858 ], [ -121.9314159, 48.0007108 ], [ -121.9314269, 48.0079828 ], [ -121.9152368, 48.0079827 ], [ -121.9151738, 48.0006898 ], [ -121.9108228, 48.0021408 ] ], [ [ -121.9164454, 47.9946291 ], [ -121.9136581, 47.9921015 ], [ -121.9185996, 47.9904027 ], [ -121.9192575, 47.988439 ], [ -121.9243271, 47.985373 ], [ -121.9221982, 47.9794602 ], [ -121.9240972, 47.9775074 ], [ -121.9248388, 47.9719181 ], [ -121.916245, 47.9766056 ], [ -121.9147646, 47.9792193 ], [ -121.9168905, 47.9813537 ], [ -121.9186269, 47.9802185 ], [ -121.9223559, 47.9821785 ], [ -121.9193794, 47.9834645 ], [ -121.9187651, 47.987966 ], [ -121.9039094, 47.9916671 ], [ -121.9039543, 47.995168 ], [ -121.9105151, 48.0010568 ], [ -121.9131437, 47.9988357 ], [ -121.9123431, 47.996192 ], [ -121.9164454, 47.9946291 ] ] ], [ [ [ -121.9621037, 48.0575471 ], [ -121.9621957, 48.0566572 ], [ -121.9622081, 48.0576559 ], [ -121.9621037, 48.0575471 ] ] ], [ [ [ -121.9621211, 48.05788 ], [ -121.9619211, 48.0581124 ], [ -121.9619203, 48.0580404 ], [ -121.9621211, 48.05788 ] ] ], [ [ [ -121.9619315, 48.0562322 ], [ -121.9603081, 48.058593 ], [ -121.9619997, 48.0609434 ], [ -121.9660271, 48.0643307 ], [ -121.9691461, 48.0654026 ], [ -121.9682137, 48.0660595 ], [ -121.9677531, 48.0672521 ], [ -121.9674177, 48.06626 ], [ -121.9674997, 48.0677807 ], [ -121.9677303, 48.0683494 ], [ -121.9690665, 48.0697476 ], [ -121.9673041, 48.0705953 ], [ -121.9670861, 48.0711065 ], [ -121.9676495, 48.0718041 ], [ -121.9691524, 48.0719933 ], [ -121.9692439, 48.0761067 ], [ -121.9632845, 48.0761864 ], [ -121.9634081, 48.0809865 ], [ -121.9581968, 48.0810544 ], [ -121.9580859, 48.0794973 ], [ -121.9531015, 48.0795725 ], [ -121.954188, 48.0794338 ], [ -121.9518544, 48.0776431 ], [ -121.9529735, 48.0763132 ], [ -121.9584374, 48.0762518 ], [ -121.958283, 48.072614 ], [ -121.9644827, 48.0725395 ], [ -121.9592889, 48.0679617 ], [ -121.9586339, 48.0625097 ], [ -121.9598608, 48.0599495 ], [ -121.9573704, 48.0548442 ], [ -121.9619315, 48.0562322 ] ] ], [ [ [ -121.9683289, 48.0661598 ], [ -121.9690893, 48.0664094 ], [ -121.9687187, 48.0668738 ], [ -121.9683289, 48.0661598 ] ] ], [ [ [ -121.9680525, 48.0666609 ], [ -121.9685189, 48.067259 ], [ -121.9680977, 48.0672286 ], [ -121.9680525, 48.0666609 ] ] ], [ [ [ -121.9679609, 48.0673801 ], [ -121.9679719, 48.0685136 ], [ -121.9676619, 48.0673955 ], [ -121.9679609, 48.0673801 ] ] ], [ [ [ -121.9686098, 48.0700131 ], [ -121.9686735, 48.0699868 ], [ -121.9686857, 48.0700586 ], [ -121.9686098, 48.0700131 ] ] ], [ [ [ -121.9684557, 48.0702095 ], [ -121.9684675, 48.0701559 ], [ -121.9685815, 48.0701391 ], [ -121.9684557, 48.0702095 ] ] ], [ [ [ -121.9682841, 48.0703612 ], [ -121.9682711, 48.0702978 ], [ -121.9684263, 48.0702908 ], [ -121.9682841, 48.0703612 ] ] ], [ [ [ -121.9675577, 48.0715961 ], [ -121.9695599, 48.0694728 ], [ -121.9719637, 48.0717171 ], [ -121.9675577, 48.0715961 ] ] ], [ [ [ -122.0006327, 48.126133 ], [ -121.9944677, 48.1218451 ], [ -121.9982427, 48.1208971 ], [ -121.9957857, 48.1161981 ], [ -121.9830837, 48.1160841 ], [ -121.9763977, 48.1187821 ], [ -121.9696057, 48.1178241 ], [ -121.9528517, 48.1216211 ], [ -121.9485177, 48.12418 ], [ -121.9413157, 48.121987 ], [ -121.9375427, 48.124002 ], [ -121.9044228, 48.122668 ], [ -121.9096948, 48.1158401 ], [ -121.9322448, 48.1181811 ], [ -121.9459587, 48.1174501 ], [ -121.9508397, 48.1131321 ], [ -121.9486358, 48.1068621 ], [ -121.9495088, 48.1048362 ], [ -121.9531018, 48.1028112 ], [ -121.9604261, 48.1029907 ], [ -121.9631409, 48.1023869 ], [ -121.9711735, 48.0975683 ], [ -121.9709907, 48.103532 ], [ -121.9716681, 48.0969698 ], [ -121.9774955, 48.0957891 ], [ -121.9818961, 48.0981942 ], [ -121.9834629, 48.1015735 ], [ -122.0060501, 48.1011682 ], [ -122.0128653, 48.1069494 ], [ -122.0199405, 48.1090158 ], [ -122.0205692, 48.1130075 ], [ -122.0272799, 48.1151333 ], [ -122.027693, 48.121912 ], [ -122.0248903, 48.1260358 ], [ -122.0284692, 48.1284238 ], [ -122.0246076, 48.1298215 ], [ -122.0160365, 48.1262036 ], [ -122.0141013, 48.1258182 ], [ -122.012591, 48.1260478 ], [ -122.0121388, 48.1273756 ], [ -122.0217172, 48.1339087 ], [ -122.0399708, 48.1411885 ], [ -122.0337163, 48.1439701 ], [ -122.0354794, 48.1471829 ], [ -122.0322324, 48.1442449 ], [ -122.0229415, 48.1417589 ], [ -122.0174885, 48.1381499 ], [ -122.0152225, 48.133005 ], [ -122.0058816, 48.125372 ], [ -122.0006327, 48.126133 ] ] ], [ [ [ -121.9144797, 48.2659873 ], [ -121.9145758, 48.2658934 ], [ -121.9144791, 48.2659881 ], [ -121.9144797, 48.2659873 ] ] ], [ [ [ -121.9142821, 48.26622 ], [ -121.9139387, 48.2665442 ], [ -121.9142827, 48.2662193 ], [ -121.9142821, 48.26622 ] ] ], [ [ [ -121.9138668, 48.2666121 ], [ -121.913783, 48.2666716 ], [ -121.9138675, 48.2666114 ], [ -121.9138668, 48.2666121 ] ] ], [ [ [ -121.9132893, 48.2671083 ], [ -121.913288, 48.2671103 ], [ -121.9132589, 48.2671474 ], [ -121.9132893, 48.2671083 ] ] ], [ [ [ -121.9119474, 48.2682048 ], [ -121.9123177, 48.267929 ], [ -121.9116947, 48.2684353 ], [ -121.9119474, 48.2682048 ] ] ], [ [ [ -121.9116337, 48.2684823 ], [ -121.9116947, 48.2684353 ], [ -121.911694, 48.268436 ], [ -121.9116337, 48.2684823 ] ] ], [ [ [ -121.964311, 48.266141 ], [ -121.964112, 48.270815 ], [ -121.950544, 48.271321 ], [ -121.95117, 48.266505 ], [ -121.964311, 48.266141 ] ] ], [ [ [ -121.9335081, 48.2728991 ], [ -121.9316756, 48.2770043 ], [ -121.9376515, 48.2822303 ], [ -121.9374655, 48.2855233 ], [ -121.9468485, 48.2859873 ], [ -121.9492535, 48.2893743 ], [ -121.9425685, 48.2874233 ], [ -121.9382595, 48.2912203 ], [ -121.9483265, 48.2950793 ], [ -121.9440615, 48.2948393 ], [ -121.9447515, 48.2974233 ], [ -121.9048767, 48.2976388 ], [ -121.9059317, 48.2946723 ], [ -121.9087547, 48.2931693 ], [ -121.9068397, 48.2894533 ], [ -121.9093727, 48.2877223 ], [ -121.9101037, 48.2842653 ], [ -121.9081597, 48.2814763 ], [ -121.9118677, 48.2779753 ], [ -121.9121884, 48.2759011 ], [ -121.909737, 48.2723854 ], [ -121.9119593, 48.2684568 ], [ -121.9180043, 48.2650044 ], [ -121.938073, 48.268054 ], [ -121.93798, 48.272552 ], [ -121.9335081, 48.2728991 ] ] ], [ [ [ -121.892678, 48.269419 ], [ -121.892581, 48.273916 ], [ -121.884765, 48.273659 ], [ -121.884862, 48.269162 ], [ -121.892678, 48.269419 ] ] ], [ [ [ -121.896791, 48.274543 ], [ -121.896848, 48.269876 ], [ -121.903585, 48.26994 ], [ -121.903528, 48.274607 ], [ -121.896791, 48.274543 ] ] ], [ [ [ -121.9094413, 48.2723539 ], [ -121.9094091, 48.2724417 ], [ -121.9094307, 48.2723813 ], [ -121.9094413, 48.2723539 ] ] ], [ [ [ -121.698435, 47.854254 ], [ -121.7013622, 47.8554661 ], [ -121.695712, 47.8532438 ], [ -121.698435, 47.854254 ] ] ], [ [ [ -121.6805158, 47.8495639 ], [ -121.6805806, 47.8530037 ], [ -121.6858807, 47.8564205 ], [ -121.6858666, 47.8593089 ], [ -121.6832529, 47.8605444 ], [ -121.6646599, 47.8605332 ], [ -121.6646598, 47.8504978 ], [ -121.6805158, 47.8495639 ] ] ], [ [ [ -121.7300567, 47.8566815 ], [ -121.7388866, 47.8570466 ], [ -121.7318698, 47.857916 ], [ -121.7273146, 47.8551286 ], [ -121.7300567, 47.8566815 ] ] ], [ [ [ -121.7893612, 47.8594056 ], [ -121.7877154, 47.8594957 ], [ -121.7910012, 47.8587125 ], [ -121.7893612, 47.8594056 ] ] ], [ [ [ -121.7536976, 47.8584125 ], [ -121.7501576, 47.8611531 ], [ -121.745529, 47.8600515 ], [ -121.7500147, 47.8600655 ], [ -121.7536976, 47.8584125 ] ] ], [ [ [ -121.7932264, 47.8583933 ], [ -121.7973802, 47.8591478 ], [ -121.793672, 47.8590007 ], [ -121.7872709, 47.8614348 ], [ -121.7932264, 47.8583933 ] ] ], [ [ [ -121.7842575, 47.8604921 ], [ -121.7862959, 47.8600043 ], [ -121.787021, 47.8603253 ], [ -121.7864246, 47.8605529 ], [ -121.7842575, 47.8604921 ] ] ], [ [ [ -121.7767774, 47.8602125 ], [ -121.7672598, 47.8623426 ], [ -121.7655408, 47.8611257 ], [ -121.7745817, 47.8589995 ], [ -121.7767774, 47.8602125 ] ] ], [ [ [ -121.7944319, 47.8593214 ], [ -121.7911592, 47.8611682 ], [ -121.78944, 47.8618384 ], [ -121.7970781, 47.8621204 ], [ -121.7875546, 47.8629621 ], [ -121.7887048, 47.8619807 ], [ -121.793282, 47.8595903 ], [ -121.7944319, 47.8593214 ] ] ], [ [ [ -121.7773502, 47.8679099 ], [ -121.7757244, 47.8667313 ], [ -121.77062, 47.8679118 ], [ -121.7722666, 47.869038 ], [ -121.7674757, 47.8696146 ], [ -121.7674036, 47.8715711 ], [ -121.7772967, 47.871313 ], [ -121.77716, 47.8747187 ], [ -121.7854461, 47.8746429 ], [ -121.7855287, 47.8782532 ], [ -121.7809199, 47.8782937 ], [ -121.7815878, 47.8821643 ], [ -121.7248748, 47.8761323 ], [ -121.7241288, 47.8748073 ], [ -121.7269968, 47.8710684 ], [ -121.7239826, 47.8672635 ], [ -121.7278664, 47.8664827 ], [ -121.7292556, 47.8652969 ], [ -121.7331854, 47.8664292 ], [ -121.7343315, 47.8662992 ], [ -121.7295876, 47.8651211 ], [ -121.7212659, 47.8661786 ], [ -121.721236, 47.867403 ], [ -121.714552, 47.867328 ], [ -121.7147374, 47.8628318 ], [ -121.7044678, 47.8565305 ], [ -121.7076904, 47.8571116 ], [ -121.7207542, 47.854163 ], [ -121.7321367, 47.8590825 ], [ -121.7403289, 47.858064 ], [ -121.7478554, 47.8619561 ], [ -121.7535624, 47.8611275 ], [ -121.7573804, 47.8572118 ], [ -121.7611176, 47.8560465 ], [ -121.7652147, 47.8579375 ], [ -121.7646208, 47.8605643 ], [ -121.766023, 47.8628695 ], [ -121.7800232, 47.8600037 ], [ -121.7884276, 47.8618522 ], [ -121.7812788, 47.8664909 ], [ -121.7871564, 47.86338 ], [ -121.788504, 47.8658624 ], [ -121.7773502, 47.8679099 ] ], [ [ -121.7476125, 47.8660742 ], [ -121.7538386, 47.8668172 ], [ -121.7553734, 47.8675084 ], [ -121.7600612, 47.8684415 ], [ -121.7614604, 47.8682225 ], [ -121.7642228, 47.868963 ], [ -121.7673778, 47.8683581 ], [ -121.7740816, 47.8642908 ], [ -121.7760992, 47.8644651 ], [ -121.7794424, 47.8665706 ], [ -121.7803744, 47.8665711 ], [ -121.7759048, 47.8640852 ], [ -121.7742186, 47.8641395 ], [ -121.7722232, 47.8645498 ], [ -121.7638902, 47.8686805 ], [ -121.7618504, 47.8680014 ], [ -121.7552488, 47.8671472 ], [ -121.7528218, 47.8653752 ], [ -121.7504126, 47.8652231 ], [ -121.7476125, 47.8660742 ] ] ], [ [ [ -121.8055222, 47.8794739 ], [ -121.8057414, 47.8764795 ], [ -121.8096754, 47.8764429 ], [ -121.8096962, 47.879517 ], [ -121.8055222, 47.8794739 ] ] ], [ [ [ -121.7966951, 47.9555996 ], [ -121.7991567, 47.9552569 ], [ -121.8005666, 47.9500771 ], [ -121.8028687, 47.9500546 ], [ -121.8013238, 47.9555225 ], [ -121.7966951, 47.9555996 ] ] ], [ [ [ -121.7648453, 48.0852666 ], [ -121.7655423, 48.0855305 ], [ -121.7646737, 48.0852828 ], [ -121.7648453, 48.0852666 ] ] ], [ [ [ -121.7573652, 48.0872824 ], [ -121.7593121, 48.0876768 ], [ -121.757983, 48.0877344 ], [ -121.7573652, 48.0872824 ] ] ], [ [ [ -121.7893173, 48.0947044 ], [ -121.7894538, 48.0943594 ], [ -121.7898126, 48.0949525 ], [ -121.7893173, 48.0947044 ] ] ], [ [ [ -121.7965589, 48.120849 ], [ -121.7805749, 48.121479 ], [ -121.7742549, 48.119151 ], [ -121.7682719, 48.120551 ], [ -121.757196, 48.119398 ], [ -121.7564989, 48.117213 ], [ -121.7501229, 48.112408 ], [ -121.742556, 48.1092431 ], [ -121.731817, 48.1079761 ], [ -121.725489, 48.109648 ], [ -121.727838, 48.1035901 ], [ -121.722744, 48.1000491 ], [ -121.7062851, 48.108114 ], [ -121.7020171, 48.1038291 ], [ -121.6975821, 48.1044231 ], [ -121.6867871, 48.1020601 ], [ -121.7073791, 48.1012171 ], [ -121.713896, 48.0985961 ], [ -121.7212399, 48.0916011 ], [ -121.7205009, 48.0869411 ], [ -121.7148569, 48.0804232 ], [ -121.7157459, 48.0752322 ], [ -121.7175988, 48.0737102 ], [ -121.7139978, 48.0721382 ], [ -121.715474, 48.0703609 ], [ -121.7190483, 48.0700904 ], [ -121.7242926, 48.072722 ], [ -121.7285012, 48.0726922 ], [ -121.7313731, 48.0750228 ], [ -121.7305315, 48.0769659 ], [ -121.7311655, 48.0795417 ], [ -121.7325246, 48.0809918 ], [ -121.7408338, 48.0793646 ], [ -121.7321543, 48.0801825 ], [ -121.7318076, 48.075302 ], [ -121.7310209, 48.0740922 ], [ -121.7286539, 48.0725229 ], [ -121.7242463, 48.0723886 ], [ -121.7189418, 48.0697262 ], [ -121.7286588, 48.0723042 ], [ -121.7407048, 48.0785242 ], [ -121.7496848, 48.0773752 ], [ -121.7508608, 48.0782742 ], [ -121.7525488, 48.0829332 ], [ -121.7571528, 48.0836842 ], [ -121.7594708, 48.0855462 ], [ -121.7622093, 48.0848252 ], [ -121.7711248, 48.0858972 ], [ -121.7891958, 48.0920732 ], [ -121.8004918, 48.0934782 ], [ -121.7998998, 48.0957423 ], [ -121.7963207, 48.0948004 ], [ -121.7907066, 48.0952723 ], [ -121.787696, 48.092042 ], [ -121.7701615, 48.0859939 ], [ -121.7682579, 48.08614 ], [ -121.7652305, 48.0853022 ], [ -121.7631033, 48.0850814 ], [ -121.759024, 48.0873723 ], [ -121.7570203, 48.0865139 ], [ -121.7574423, 48.0842556 ], [ -121.7550507, 48.0839328 ], [ -121.7521103, 48.0851695 ], [ -121.751183, 48.0843002 ], [ -121.7507607, 48.0785148 ], [ -121.7499069, 48.0777002 ], [ -121.7412195, 48.0796523 ], [ -121.7495544, 48.0780833 ], [ -121.7511664, 48.0850198 ], [ -121.7529362, 48.0858263 ], [ -121.7567943, 48.084433 ], [ -121.7565389, 48.0866031 ], [ -121.7579613, 48.0879007 ], [ -121.7607259, 48.0875886 ], [ -121.7630612, 48.0854724 ], [ -121.7687813, 48.086609 ], [ -121.7710149, 48.0863495 ], [ -121.7801908, 48.090676 ], [ -121.7869002, 48.0919392 ], [ -121.7892904, 48.094812 ], [ -121.7905843, 48.095514 ], [ -121.8002507, 48.0963575 ], [ -121.8068626, 48.0947393 ], [ -121.8240908, 48.0997981 ], [ -121.8342198, 48.0978362 ], [ -121.8423783, 48.1032351 ], [ -121.8384108, 48.1081231 ], [ -121.8349568, 48.1087851 ], [ -121.8312199, 48.1126021 ], [ -121.8225459, 48.1113941 ], [ -121.8156769, 48.1135721 ], [ -121.8018754, 48.1235825 ], [ -121.7965589, 48.120849 ] ] ], [ [ [ -121.5929303, 48.2372586 ], [ -121.592747, 48.2345369 ], [ -121.5950232, 48.2345001 ], [ -121.596977, 48.2362331 ], [ -121.596972, 48.2405089 ], [ -121.5887809, 48.2404716 ], [ -121.5885713, 48.2424394 ], [ -121.5885684, 48.2411005 ], [ -121.5893019, 48.23732 ], [ -121.5929303, 48.2372586 ] ] ], [ [ [ -121.6110621, 48.2496263 ], [ -121.6099531, 48.2405848 ], [ -121.6153482, 48.2405469 ], [ -121.6154831, 48.2480568 ], [ -121.6110621, 48.2496263 ] ] ], [ [ [ -121.5882669, 48.2468235 ], [ -121.5874044, 48.2425473 ], [ -121.5880857, 48.2417685 ], [ -121.5904153, 48.2455121 ], [ -121.5941353, 48.2480722 ], [ -121.5973954, 48.2482901 ], [ -121.5975532, 48.2510831 ], [ -121.5948858, 48.2511294 ], [ -121.5945171, 48.2534633 ], [ -121.5938785, 48.2505001 ], [ -121.5882669, 48.2468235 ] ] ], [ [ [ -121.5943674, 48.2553578 ], [ -121.5919593, 48.2553909 ], [ -121.594369, 48.2539237 ], [ -121.5943674, 48.2553578 ] ] ], [ [ [ -121.6379099, 48.2646342 ], [ -121.637996, 48.261408 ], [ -121.644731, 48.261487 ], [ -121.644612, 48.265985 ], [ -121.6392606, 48.2659214 ], [ -121.6429457, 48.2695228 ], [ -121.6161122, 48.2697269 ], [ -121.6160149, 48.2673085 ], [ -121.6104904, 48.2668173 ], [ -121.6104349, 48.2650081 ], [ -121.6159903, 48.2666974 ], [ -121.6158227, 48.2625325 ], [ -121.6172923, 48.2625348 ], [ -121.6172665, 48.2610694 ], [ -121.6192995, 48.2615831 ], [ -121.6199918, 48.2603218 ], [ -121.6157463, 48.2580511 ], [ -121.629406, 48.2626372 ], [ -121.629549, 48.260732 ], [ -121.636283, 48.260812 ], [ -121.6379099, 48.2646342 ] ] ], [ [ [ -121.721975, 48.266443 ], [ -121.7219411, 48.2686255 ], [ -121.7231047, 48.2686213 ], [ -121.723156, 48.266562 ], [ -121.729892, 48.266637 ], [ -121.73204, 48.267505 ], [ -121.7319569, 48.2708725 ], [ -121.7482425, 48.2766974 ], [ -121.7524889, 48.2773197 ], [ -121.752534, 48.275459 ], [ -121.766577, 48.276327 ], [ -121.766469, 48.280824 ], [ -121.7540216, 48.2801988 ], [ -121.7570316, 48.2820935 ], [ -121.7495979, 48.286645 ], [ -121.7450001, 48.2849664 ], [ -121.7473011, 48.283464 ], [ -121.74648, 48.2826076 ], [ -121.7445625, 48.2823434 ], [ -121.7413831, 48.2830738 ], [ -121.737848, 48.2822071 ], [ -121.7374221, 48.2818608 ], [ -121.7381035, 48.2806356 ], [ -121.7377971, 48.279822 ], [ -121.7290033, 48.2749997 ], [ -121.7257268, 48.2762133 ], [ -121.7218486, 48.2764787 ], [ -121.7200927, 48.2770176 ], [ -121.7195371, 48.2778928 ], [ -121.7195471, 48.2786306 ], [ -121.7201798, 48.28122 ], [ -121.7184463, 48.2822444 ], [ -121.7144503, 48.2799863 ], [ -121.7146848, 48.2779647 ], [ -121.7139919, 48.2771112 ], [ -121.7129744, 48.2766052 ], [ -121.7104447, 48.2761721 ], [ -121.7088513, 48.2764597 ], [ -121.7073241, 48.2774058 ], [ -121.7056447, 48.2810665 ], [ -121.7025594, 48.2801859 ], [ -121.7030821, 48.2779875 ], [ -121.7026332, 48.2773432 ], [ -121.7016512, 48.2769997 ], [ -121.6995946, 48.2766527 ], [ -121.6988442, 48.2768241 ], [ -121.6981729, 48.2771851 ], [ -121.6965084, 48.2787771 ], [ -121.6961351, 48.2813187 ], [ -121.693825, 48.2823325 ], [ -121.6828761, 48.2781765 ], [ -121.6786231, 48.2817816 ], [ -121.6700531, 48.2834366 ], [ -121.6653722, 48.2794866 ], [ -121.6594353, 48.2778206 ], [ -121.6552033, 48.2797556 ], [ -121.6523714, 48.2760606 ], [ -121.6478554, 48.2764396 ], [ -121.6509794, 48.2733586 ], [ -121.6502024, 48.2726816 ], [ -121.6612734, 48.2668676 ], [ -121.6664772, 48.2692612 ], [ -121.672598, 48.268436 ], [ -121.672639, 48.266846 ], [ -121.680213, 48.26707 ], [ -121.6801569, 48.2692464 ], [ -121.697132, 48.2691785 ], [ -121.7026333, 48.2689204 ], [ -121.702698, 48.266367 ], [ -121.710846, 48.266571 ], [ -121.7107914, 48.2687435 ], [ -121.7152022, 48.2687387 ], [ -121.715239, 48.266368 ], [ -121.721975, 48.266443 ] ] ], [ [ [ -121.5927939, 48.2687986 ], [ -121.5936537, 48.2698331 ], [ -121.5924771, 48.2698265 ], [ -121.5927939, 48.2687986 ] ] ], [ [ [ -121.797626, 48.279179 ], [ -121.797947, 48.274539 ], [ -121.804684, 48.274609 ], [ -121.804364, 48.279249 ], [ -121.797626, 48.279179 ] ] ], [ [ [ -121.821836, 48.279525 ], [ -121.814319, 48.279297 ], [ -121.814423, 48.2748 ], [ -121.821939, 48.275028 ], [ -121.821836, 48.279525 ] ] ], [ [ [ -121.774881, 48.275865 ], [ -121.781618, 48.275937 ], [ -121.781509, 48.280552 ], [ -121.774771, 48.280481 ], [ -121.774881, 48.275865 ] ] ], [ [ [ -121.6926559, 48.2989635 ], [ -121.6941669, 48.2972895 ], [ -121.6931539, 48.2927665 ], [ -121.6951579, 48.2873235 ], [ -121.6945944, 48.2821067 ], [ -121.6965049, 48.2812868 ], [ -121.6966219, 48.2788499 ], [ -121.6992139, 48.2767922 ], [ -121.7027485, 48.2775881 ], [ -121.7022819, 48.2801647 ], [ -121.7046864, 48.2812625 ], [ -121.7061173, 48.2810897 ], [ -121.7070784, 48.2802551 ], [ -121.7082265, 48.2769656 ], [ -121.7129748, 48.2767579 ], [ -121.7142082, 48.2799475 ], [ -121.7183427, 48.282477 ], [ -121.7208055, 48.2814253 ], [ -121.7203704, 48.2770476 ], [ -121.7256554, 48.2764702 ], [ -121.7291818, 48.275271 ], [ -121.737677, 48.279911 ], [ -121.7371435, 48.2817137 ], [ -121.7377334, 48.2823494 ], [ -121.7412919, 48.2832982 ], [ -121.7464923, 48.2828685 ], [ -121.7445373, 48.2847993 ], [ -121.7491937, 48.2867851 ], [ -121.7527821, 48.2860769 ], [ -121.7590065, 48.2819698 ], [ -121.7694102, 48.2834244 ], [ -121.7656264, 48.2860584 ], [ -121.7585095, 48.2861174 ], [ -121.7558795, 48.2889634 ], [ -121.7625664, 48.2988654 ], [ -121.6926559, 48.2989635 ] ] ] ] } }
]
}
