{"type": "FeatureCollection", "features": [{"type": "Feature", "geometry": {"type": "MultiPolygon", "coordinates": [[[[-124.103957958, 46.858854445], [-124.103958072, 46.858854445], [-124.103984935, 46.858854445], [-124.104012024, 46.858854201], [-124.106057001, 46.858835734], [-124.106113335, 46.858835575], [-124.106451083, 46.858837369], [-124.106963819, 46.858840094], [-124.107029935, 46.858840445], [-124.107096044, 46.858839339], [-124.107468884, 46.858833103], [-124.107836457, 46.858826955], [-124.107897419, 46.858826554], [-124.107981019, 46.858826855], [-124.108143333, 46.858827439], [-124.109074492, 46.858831286], [-124.109074497, 46.858831286], [-124.109112936, 46.858831445], [-124.109151379, 46.858831111], [-124.111730992, 46.858808713], [-124.112447929, 46.858802488], [-124.112452936, 46.858802444], [-124.112457944, 46.858802392], [-124.112929705, 46.858797509], [-124.113625994, 46.858791747], [-124.11362605, 46.858791747], [-124.113904936, 46.858789444], [-124.114182518, 46.858761259], [-124.115624414, 46.858614851], [-124.116359053, 46.858540257], [-124.11650461, 46.858532634], [-124.116508209, 46.858533152], [-124.116563937, 46.858664444], [-124.117776426, 46.858654537], [-124.120583449, 46.858631603], [-124.120727537, 46.858637685], [-124.120735414, 46.858660578], [-124.120750938, 46.858849443], [-124.121074533, 46.859532031], [-124.125242323, 46.868323522], [-124.125393959, 46.86864338], [-124.125915941, 46.869744443], [-124.126009941, 46.870005443], [-124.126286022, 46.87000835], [-124.126288145, 46.870011237], [-124.126293954, 46.870050671], [-124.126294941, 46.870060605], [-124.126294941, 46.870779443], [-124.126597941, 46.871612443], [-124.1266427, 46.87173503], [-124.126814343, 46.872205138], [-124.126855999, 46.872339902], [-124.126715199, 46.872348367], [-124.12289092, 46.872385674], [-124.120254041, 46.872411397], [-124.120101903, 46.872405107], [-124.120097485, 46.872403999], [-124.119969487, 46.872058354], [-124.119969487, 46.872058353], [-124.119969486, 46.872058352], [-124.119969486, 46.872058351], [-124.119969485, 46.87205835], [-124.119969484, 46.87205835], [-124.119969484, 46.872058349], [-124.119969483, 46.872058348], [-124.119969482, 46.872058348], [-124.119969481, 46.872058348], [-124.11996948, 46.872058347], [-124.119969479, 46.872058347], [-124.119969478, 46.872058347], [-124.114980919, 46.872037624], [-124.114980918, 46.872037624], [-124.114980917, 46.872037624], [-124.114980916, 46.872037624], [-124.114980915, 46.872037625], [-124.114980915, 46.872037625], [-124.114980914, 46.872037626], [-124.114980913, 46.872037626], [-124.114980912, 46.872037627], [-124.114980912, 46.872037628], [-124.114980911, 46.872037628], [-124.11498091, 46.872037629], [-124.11498091, 46.87203763], [-124.11498091, 46.872037631], [-124.114980909, 46.872037632], [-124.114980909, 46.872037633], [-124.114980909, 46.872037634], [-124.114982752, 46.872454664], [-124.114981165, 46.872455266], [-124.114831377, 46.872464297], [-124.114831376, 46.872464297], [-124.106359187, 46.872546946], [-124.106357962, 46.872546928], [-124.080263788, 46.872796185], [-124.080124166, 46.872790708], [-124.080114558, 46.872651306], [-124.079852549, 46.859588792], [-124.079857071, 46.859441931], [-124.079996546, 46.859395724], [-124.080692351, 46.859203847], [-124.080731583, 46.859193314], [-124.080733874, 46.859192715], [-124.081220708, 46.859065532], [-124.081359938, 46.859032684], [-124.081496143, 46.859003961], [-124.081706841, 46.858959528], [-124.081755102, 46.858949763], [-124.081988275, 46.858904575], [-124.081988932, 46.858904448], [-124.082010678, 46.858900228], [-124.082010679, 46.858900228], [-124.082236517, 46.858865278], [-124.082391361, 46.858847325], [-124.082544857, 46.858833514], [-124.082689645, 46.858824229], [-124.082869376, 46.858812704], [-124.083064688, 46.858806557], [-124.083661215, 46.858807228], [-124.084737061, 46.858808437], [-124.088160306, 46.858822408], [-124.088160329, 46.858822408], [-124.088169933, 46.858822447], [-124.088179582, 46.858822455], [-124.089447492, 46.858823561], [-124.090452913, 46.858824438], [-124.096291397, 46.85884903], [-124.096236, 46.85614], [-124.102794, 46.856077], [-124.102850825, 46.858855846], [-124.10378735, 46.858854452], [-124.103787585, 46.858854452], [-124.103957958, 46.858854445]]], [[[-124.057515, 46.866704], [-124.057426, 46.862205], [-124.063985, 46.862144], [-124.063987, 46.862245], [-124.064113, 46.862244], [-124.064202, 46.866743], [-124.057643, 46.866804], [-124.057641, 46.866703], [-124.057515, 46.866704]]], [[[-124.017634, 46.894967], [-124.017549, 46.890468], [-124.024111, 46.890409], [-124.024114, 46.890559], [-124.024134, 46.890559], [-124.02422, 46.895058], [-124.017657, 46.895117], [-124.017654, 46.894966], [-124.017634, 46.894967]]], [[[-123.994877, 46.899656], [-124.00144, 46.899599], [-124.001524, 46.904098], [-124.001451, 46.904098], [-124.00146, 46.904622], [-123.994896, 46.904679], [-123.994813, 46.900181], [-123.994886, 46.90018], [-123.994877, 46.899656]]], [[[-123.946661, 46.98121], [-123.946659, 46.981075], [-123.953232, 46.981021], [-123.953312, 46.985519], [-123.953174, 46.985521], [-123.953177, 46.985655], [-123.946603, 46.98571], [-123.946523, 46.981211], [-123.946661, 46.98121]]], [[[-123.956808, 46.981907], [-123.956834, 46.981907], [-123.956827, 46.981509], [-123.9634, 46.981454], [-123.963481, 46.985953], [-123.963455, 46.985953], [-123.963462, 46.986351], [-123.956888, 46.986406], [-123.956808, 46.981907]]], [[[-124.162052, 47.015244], [-124.162149, 47.019742], [-124.155571, 47.019809], [-124.155474, 47.01531], [-124.162052, 47.015244]]], [[[-124.077141, 47.043641], [-124.07056, 47.043703], [-124.070557, 47.043551], [-124.070353, 47.043553], [-124.070263, 47.039055], [-124.076843, 47.038993], [-124.076846, 47.039145], [-124.07705, 47.039143], [-124.077141, 47.043641]]], [[[-124.173957, 47.044401], [-124.167376, 47.044468], [-124.167278, 47.039969], [-124.173858, 47.039902], [-124.173957, 47.044401]]], [[[-124.161776, 47.04661], [-124.161739, 47.04661], [-124.161743, 47.046785], [-124.155162, 47.046851], [-124.155155, 47.046526], [-124.155016, 47.046527], [-124.154919, 47.042029], [-124.1615, 47.041962], [-124.161503, 47.042113], [-124.161679, 47.042111], [-124.161776, 47.04661]]], [[[-124.162854, 47.073191], [-124.162756, 47.068692], [-124.16934, 47.068625], [-124.169344, 47.068805], [-124.169674, 47.068802], [-124.169772, 47.073301], [-124.163188, 47.073368], [-124.163184, 47.073187], [-124.162854, 47.073191]]], [[[-124.169614, 47.102153], [-124.176202, 47.102085], [-124.176301, 47.106583], [-124.176048, 47.106586], [-124.176049, 47.106616], [-124.169461, 47.106684], [-124.169362, 47.102185], [-124.169615, 47.102183], [-124.169614, 47.102153]]], [[[-124.081928, 47.114613], [-124.075339, 47.114675], [-124.075248, 47.110177], [-124.081837, 47.110115], [-124.081928, 47.114613]]], [[[-124.170671, 47.110582], [-124.170635, 47.108932], [-124.177224, 47.108864], [-124.177323, 47.113362], [-124.177056, 47.113365], [-124.177092, 47.115015], [-124.173948, 47.115048], [-124.17399, 47.116938], [-124.173792, 47.11694], [-124.173797, 47.117161], [-124.167207, 47.117228], [-124.167108, 47.11273], [-124.167306, 47.112727], [-124.167302, 47.112507], [-124.170446, 47.112475], [-124.170404, 47.110585], [-124.170671, 47.110582]]], [[[-124.196337, 47.194163], [-124.202936, 47.194094], [-124.203038, 47.198593], [-124.202821, 47.198595], [-124.202822, 47.198616], [-124.196222, 47.198685], [-124.196121, 47.194187], [-124.196337, 47.194185], [-124.196337, 47.194163]]], [[[-124.202263, 47.207045], [-124.202364, 47.211544], [-124.195763, 47.211613], [-124.195662, 47.207114], [-124.202263, 47.207045]]], [[[-123.956821, 47.228956], [-123.963425, 47.228901], [-123.963507, 47.2334], [-123.96308, 47.233403], [-123.963092, 47.234045], [-123.956487, 47.2341], [-123.956406, 47.229602], [-123.956833, 47.229598], [-123.956821, 47.228956]]], [[[-124.210537, 47.233414], [-124.217141, 47.233344], [-124.217244, 47.237842], [-124.216915, 47.237846], [-124.216919, 47.237988], [-124.210314, 47.238058], [-124.210212, 47.23356], [-124.21054, 47.233556], [-124.210537, 47.233414]]], [[[-124.297247, 47.349704], [-124.290629, 47.349778], [-124.290519, 47.34528], [-124.297137, 47.345206], [-124.297247, 47.349704]]], [[[-124.014729, 47.476797], [-124.008094, 47.476855], [-124.008008, 47.472357], [-124.014642, 47.472299], [-124.014729, 47.476797]]], [[[-123.790283434, 46.945160426], [-123.790283435, 46.945160426], [-123.790283436, 46.945160426], [-123.790283437, 46.945160425], [-123.790283438, 46.945160424], [-123.790283438, 46.945160424], [-123.790283439, 46.945160423], [-123.79028344, 46.945160422], [-123.79028344, 46.945160421], [-123.790283441, 46.945160421], [-123.790283441, 46.94516042], [-123.790283441, 46.945160419], [-123.790283441, 46.945160418], [-123.790283441, 46.945160417], [-123.790277469, 46.944341455], [-123.790277469, 46.944341454], [-123.790277469, 46.944341453], [-123.790277469, 46.944341452], [-123.790277468, 46.944341451], [-123.790277468, 46.94434145], [-123.790277467, 46.944341449], [-123.790277467, 46.944341448], [-123.790277466, 46.944341448], [-123.790277465, 46.944341447], [-123.790277465, 46.944341446], [-123.790277464, 46.944341446], [-123.790277463, 46.944341445], [-123.790277462, 46.944341445], [-123.790277461, 46.944341445], [-123.79027746, 46.944341445], [-123.790277459, 46.944341445], [-123.789099368, 46.944342714], [-123.789085937, 46.943542052], [-123.789085937, 46.943542051], [-123.789085937, 46.94354205], [-123.789085937, 46.943542049], [-123.789085937, 46.943542048], [-123.789085936, 46.943542048], [-123.789085936, 46.943542047], [-123.789085935, 46.943542046], [-123.789085934, 46.943542045], [-123.789085934, 46.943542045], [-123.789085933, 46.943542044], [-123.789085932, 46.943542044], [-123.789085931, 46.943542043], [-123.78908593, 46.943542043], [-123.789085929, 46.943542043], [-123.789085928, 46.943542042], [-123.789085927, 46.943542042], [-123.780287169, 46.943574923], [-123.780287166, 46.943574923], [-123.778782208, 46.943571537], [-123.778781991, 46.943571536], [-123.778443959, 46.943570751], [-123.77844669, 46.943055763], [-123.77844669, 46.943055762], [-123.778446689, 46.943055761], [-123.778446689, 46.94305576], [-123.778446689, 46.943055759], [-123.778446688, 46.943055758], [-123.778446688, 46.943055757], [-123.778446687, 46.943055757], [-123.778446687, 46.943055756], [-123.778446686, 46.943055755], [-123.778446685, 46.943055755], [-123.778446684, 46.943055754], [-123.778446683, 46.943055754], [-123.778446683, 46.943055753], [-123.778446682, 46.943055753], [-123.778446681, 46.943055753], [-123.77844668, 46.943055753], [-123.774460591, 46.943042642], [-123.77446059, 46.943042642], [-123.774460589, 46.943042642], [-123.774460588, 46.943042642], [-123.774460587, 46.943042642], [-123.774460587, 46.943042643], [-123.774460586, 46.943042643], [-123.774460585, 46.943042644], [-123.774460584, 46.943042645], [-123.774460584, 46.943042645], [-123.774460583, 46.943042646], [-123.774460582, 46.943042647], [-123.774460582, 46.943042648], [-123.774460582, 46.943042649], [-123.774460581, 46.94304265], [-123.774460581, 46.943042651], [-123.774460581, 46.943042652], [-123.774454015, 46.944271119], [-123.774454015, 46.94427112], [-123.774454015, 46.944271121], [-123.774454015, 46.944271122], [-123.774454016, 46.944271123], [-123.774454016, 46.944271124], [-123.774454017, 46.944271125], [-123.774454017, 46.944271125], [-123.774454018, 46.944271126], [-123.774454019, 46.944271127], [-123.774454019, 46.944271127], [-123.77445402, 46.944271128], [-123.774454021, 46.944271128], [-123.774454022, 46.944271129], [-123.774454023, 46.944271129], [-123.774454024, 46.944271129], [-123.774454025, 46.944271129], [-123.774784789, 46.94427221], [-123.774645868, 46.944701087], [-123.774288643, 46.945445954], [-123.773819656, 46.946161174], [-123.77329135, 46.946783269], [-123.773244097, 46.946838909], [-123.773244096, 46.94683891], [-123.773244096, 46.94683891], [-123.773244095, 46.946838911], [-123.773244095, 46.946838912], [-123.773244095, 46.946838913], [-123.773244095, 46.946838914], [-123.773244094, 46.946838915], [-123.773242421, 46.946893546], [-123.773231287, 46.947254016], [-123.773225847, 46.947266006], [-123.773082229, 46.947274099], [-123.771522326, 46.947284717], [-123.766386254, 46.947319681], [-123.766246403, 46.947313797], [-123.766237574, 46.947174101], [-123.766017495, 46.931745022], [-123.76598508, 46.929472546], [-123.765990028, 46.929331478], [-123.766130959, 46.929323563], [-123.781799665, 46.929217291], [-123.786844106, 46.929183077], [-123.786995234, 46.929189746], [-123.787018022, 46.929198048], [-123.787037595, 46.929207323], [-123.787058655, 46.929218529], [-123.787278903, 46.929393483], [-123.787446903, 46.929553483], [-123.787638903, 46.929679483], [-123.787718903, 46.929640483], [-123.787814903, 46.929607483], [-123.787963598, 46.929650188], [-123.788046674, 46.929684866], [-123.788266887, 46.929764914], [-123.788463903, 46.929991483], [-123.788479903, 46.930178483], [-123.788583903, 46.930304483], [-123.788703903, 46.930381483], [-123.788799903, 46.930414483], [-123.788911903, 46.930441483], [-123.789143903, 46.930474483], [-123.789327903, 46.930441483], [-123.789464903, 46.930469483], [-123.789624903, 46.930590483], [-123.789792903, 46.930661483], [-123.790040903, 46.930628483], [-123.790096903, 46.930529483], [-123.790112903, 46.930370483], [-123.790128903, 46.930272483], [-123.790208903, 46.930167483], [-123.790258634, 46.930161336], [-123.790283795, 46.930163292], [-123.790296685, 46.930163594], [-123.790434643, 46.93020871], [-123.790456676, 46.930217125], [-123.790458185, 46.930217701], [-123.790583158, 46.93027208], [-123.790702665, 46.930337605], [-123.790890761, 46.93045218], [-123.79096772, 46.930499057], [-123.791084992, 46.930578393], [-123.791088652, 46.930583805], [-123.791065903, 46.930771483], [-123.791009904, 46.930963483], [-123.791121904, 46.931276483], [-123.791305904, 46.931457483], [-123.791449904, 46.931561483], [-123.791593904, 46.931588483], [-123.791777904, 46.931643483], [-123.791889904, 46.931704483], [-123.792050904, 46.931857483], [-123.792113904, 46.931934483], [-123.792274904, 46.931956483], [-123.792280533, 46.931957538], [-123.792287325, 46.931963541], [-123.792296476, 46.932106994], [-123.792430467, 46.941188558], [-123.792518303, 46.94714179], [-123.789160615, 46.947164647], [-123.789152117, 46.94715967], [-123.789146374, 46.947147954], [-123.789113102, 46.94516167], [-123.790283431, 46.945160427], [-123.790283432, 46.945160427], [-123.790283433, 46.945160427], [-123.790283434, 46.945160426]]], [[[-123.825899193, 46.951870686], [-123.825897621, 46.951869909], [-123.826082143, 46.948175816], [-123.826082143, 46.948175815], [-123.826082143, 46.948175814], [-123.826082143, 46.948175813], [-123.826082143, 46.948175812], [-123.826082142, 46.948175811], [-123.826082142, 46.94817581], [-123.826082141, 46.94817581], [-123.82608214, 46.948175809], [-123.82608214, 46.948175808], [-123.826082139, 46.948175807], [-123.826082138, 46.948175807], [-123.826082137, 46.948175806], [-123.826082136, 46.948175806], [-123.826082135, 46.948175806], [-123.826082134, 46.948175806], [-123.826082133, 46.948175806], [-123.82498468, 46.948161386], [-123.825010913, 46.94811548], [-123.825270913, 46.94766148], [-123.825486913, 46.94740948], [-123.825558913, 46.94728348], [-123.825718913, 46.94707448], [-123.825788021, 46.947006746], [-123.825893692, 46.946912683], [-123.826034948, 46.946904874], [-123.827746226, 46.946892514], [-123.827894341, 46.946898871], [-123.827917872, 46.946913105], [-123.828097913, 46.947096479], [-123.828321913, 46.947244479], [-123.828674913, 46.947397479], [-123.82947535, 46.947642538], [-123.829794503, 46.947740249], [-123.829957739, 46.9477954], [-123.830084913, 46.947842479], [-123.830444914, 46.948022479], [-123.830693914, 46.948138479], [-123.831037914, 46.948330479], [-123.831390914, 46.948445479], [-123.831502914, 46.948489479], [-123.831814914, 46.948532479], [-123.832583914, 46.948521479], [-123.832807914, 46.948488479], [-123.833024914, 46.948433479], [-123.833080914, 46.948390479], [-123.833136914, 46.948307479], [-123.833168914, 46.948093479], [-123.833224914, 46.948017479], [-123.833322714, 46.947954607], [-123.833328546, 46.947953462], [-123.833428227, 46.947938719], [-123.833496998, 46.947934739], [-123.833538399, 46.947935813], [-123.833889914, 46.947989479], [-123.834545914, 46.948142479], [-123.834746914, 46.948170479], [-123.835098914, 46.948126479], [-123.835475914, 46.947928479], [-123.836035914, 46.947610479], [-123.836558857, 46.947306863], [-123.836633789, 46.947272793], [-123.836746659, 46.947214458], [-123.836781286, 46.947198659], [-123.836935893, 46.947128119], [-123.837095974, 46.947065933], [-123.837262135, 46.947022531], [-123.837364712, 46.947001954], [-123.83752635, 46.946976266], [-123.837555378, 46.946977598], [-123.837861914, 46.947072478], [-123.838248915, 46.947414478], [-123.838384915, 46.947355478], [-123.839609148, 46.946818295], [-123.839638178, 46.94681362], [-123.839789666, 46.946804805], [-123.840146054, 46.946802183], [-123.840218589, 46.946801649], [-123.840350295, 46.94680714], [-123.838574245, 46.947565553], [-123.838574245, 46.947565554], [-123.838574244, 46.947565554], [-123.838574243, 46.947565555], [-123.838574242, 46.947565556], [-123.838574242, 46.947565556], [-123.838574241, 46.947565557], [-123.838574241, 46.947565558], [-123.83857424, 46.947565559], [-123.83857424, 46.94756556], [-123.83857424, 46.947565561], [-123.838574239, 46.947565562], [-123.838574239, 46.947565563], [-123.838574239, 46.947565564], [-123.83857424, 46.947565565], [-123.83857424, 46.947565566], [-123.83857424, 46.947565567], [-123.838574241, 46.947565568], [-123.838574241, 46.947565568], [-123.838574242, 46.947565569], [-123.83898024, 46.948036847], [-123.839113145, 46.94831091], [-123.839107337, 46.948529443], [-123.839052893, 46.948742768], [-123.838802267, 46.948908848], [-123.838532754, 46.949082094], [-123.838532753, 46.949082094], [-123.838256859, 46.949308463], [-123.838256858, 46.949308463], [-123.837946873, 46.949608608], [-123.837946872, 46.949608609], [-123.837946872, 46.94960861], [-123.837690014, 46.949986619], [-123.837507714, 46.950163951], [-123.837507713, 46.950163952], [-123.837507713, 46.950163952], [-123.837507712, 46.950163953], [-123.837429882, 46.950311787], [-123.837429881, 46.950311788], [-123.837429881, 46.950311789], [-123.837429881, 46.95031179], [-123.837429881, 46.950311791], [-123.837429881, 46.950311792], [-123.837429881, 46.950311793], [-123.837429881, 46.950311794], [-123.837429881, 46.950311795], [-123.837429881, 46.950311796], [-123.837498784, 46.950488462], [-123.837498785, 46.950488463], [-123.837498785, 46.950488464], [-123.837498786, 46.950488465], [-123.837498787, 46.950488465], [-123.837498787, 46.950488466], [-123.837498788, 46.950488467], [-123.837498789, 46.950488467], [-123.83749879, 46.950488468], [-123.837498791, 46.950488468], [-123.837676502, 46.950549488], [-123.837676503, 46.950549488], [-123.837676504, 46.950549488], [-123.837676505, 46.950549488], [-123.837676506, 46.950549488], [-123.837948383, 46.950532898], [-123.838279505, 46.950548851], [-123.838279507, 46.950548851], [-123.83860794, 46.950521315], [-123.839162197, 46.950572988], [-123.839162197, 46.950572988], [-123.839634576, 46.950580551], [-123.840123894, 46.950590996], [-123.840244538, 46.950666893], [-123.840163046, 46.950755273], [-123.840163045, 46.950755273], [-123.840163045, 46.950755274], [-123.840163044, 46.950755275], [-123.840163044, 46.950755276], [-123.840163044, 46.950755277], [-123.840163043, 46.950755278], [-123.840163043, 46.950755279], [-123.840163043, 46.950755279], [-123.840163043, 46.95075528], [-123.840163043, 46.950755281], [-123.840163044, 46.950755282], [-123.840163044, 46.950755283], [-123.840163044, 46.950755284], [-123.840217814, 46.95085957], [-123.840217814, 46.950859571], [-123.840217815, 46.950859571], [-123.840217815, 46.950859572], [-123.840217816, 46.950859573], [-123.840217817, 46.950859573], [-123.840491341, 46.951063387], [-123.840491342, 46.951063387], [-123.840491343, 46.951063388], [-123.840951511, 46.951283305], [-123.840951512, 46.951283305], [-123.840951512, 46.951283306], [-123.840951513, 46.951283306], [-123.840951514, 46.951283306], [-123.840951515, 46.951283306], [-123.841403562, 46.951281751], [-123.841767418, 46.951383681], [-123.842123676, 46.951518917], [-123.842351386, 46.951648554], [-123.841772282, 46.95176012], [-123.84168875, 46.951776213], [-123.840914733, 46.951925329], [-123.840770174, 46.95194592], [-123.840624296, 46.951952314], [-123.829404441, 46.951895876], [-123.826048705, 46.951878996], [-123.825899193, 46.951870686]]], [[[-123.794636129, 46.951730255], [-123.794576829, 46.947885127], [-123.794576829, 46.947885126], [-123.794576828, 46.947885125], [-123.794576828, 46.947885124], [-123.794576828, 46.947885123], [-123.794576827, 46.947885122], [-123.794576827, 46.947885122], [-123.794576826, 46.947885121], [-123.794576826, 46.94788512], [-123.794576825, 46.947885119], [-123.794576824, 46.947885119], [-123.794576823, 46.947885118], [-123.794576822, 46.947885118], [-123.794576821, 46.947885118], [-123.79457682, 46.947885117], [-123.79457682, 46.947885117], [-123.794576819, 46.947885117], [-123.792529297, 46.947886279], [-123.792529297, 46.947886279], [-123.792518303, 46.94714179], [-123.798472035, 46.947099893], [-123.806749708, 46.947041644], [-123.815147686, 46.946982548], [-123.815294142, 46.946988775], [-123.815296252, 46.946990034], [-123.815288321, 46.948085023], [-123.815288321, 46.948085024], [-123.815288321, 46.948085025], [-123.815288321, 46.948085026], [-123.815288321, 46.948085027], [-123.815288322, 46.948085028], [-123.815288322, 46.948085029], [-123.815288323, 46.94808503], [-123.815288324, 46.94808503], [-123.815288324, 46.948085031], [-123.815288325, 46.948085031], [-123.815288326, 46.948085032], [-123.815288327, 46.948085032], [-123.815288328, 46.948085033], [-123.815288329, 46.948085033], [-123.81528833, 46.948085033], [-123.815288331, 46.948085033], [-123.81794383, 46.948094594], [-123.818832694, 46.949318155], [-123.818832695, 46.949318156], [-123.818832695, 46.949318157], [-123.818832696, 46.949318157], [-123.818832697, 46.949318158], [-123.818832698, 46.949318158], [-123.818832699, 46.949318159], [-123.8188327, 46.949318159], [-123.8188327, 46.949318159], [-123.818832701, 46.949318159], [-123.818832702, 46.949318159], [-123.818832702, 46.949318167], [-123.820381931, 46.951450751], [-123.820396624, 46.951763874], [-123.820396624, 46.951763875], [-123.820396624, 46.951763876], [-123.820396625, 46.951763877], [-123.820396625, 46.951763878], [-123.820396625, 46.951763879], [-123.820396626, 46.951763879], [-123.820396627, 46.95176388], [-123.820396627, 46.951763881], [-123.820396628, 46.951763882], [-123.820396629, 46.951763882], [-123.82039663, 46.951763883], [-123.82039663, 46.951763883], [-123.820396631, 46.951763883], [-123.820396632, 46.951763884], [-123.820396633, 46.951763884], [-123.820396634, 46.951763884], [-123.820594781, 46.951763376], [-123.820593931, 46.95181365], [-123.820592078, 46.95181451], [-123.820447762, 46.951821031], [-123.818870806, 46.951815485], [-123.818870805, 46.951815485], [-123.818870805, 46.951815485], [-123.799892406, 46.951748741], [-123.794636129, 46.951730255]]], [[[-123.819446912, 46.94843548], [-123.819695912, 46.94841348], [-123.819976768, 46.948312779], [-123.820101722, 46.94831722], [-123.820174592, 46.948327429], [-123.820183661, 46.948329613], [-123.820231912, 46.94838648], [-123.820264912, 46.94868248], [-123.820318912, 46.94881448], [-123.820384912, 46.94897848], [-123.820488912, 46.94911048], [-123.820568912, 46.94917048], [-123.820632912, 46.94918748], [-123.820638253, 46.949188949], [-123.820638253, 46.94918895], [-123.820638253, 46.949188951], [-123.820638253, 46.949188952], [-123.820600171, 46.951443894], [-123.818827218, 46.948958145], [-123.818827217, 46.948958144], [-123.818827216, 46.948958144], [-123.818827216, 46.948958143], [-123.818827215, 46.948958142], [-123.818827214, 46.948958142], [-123.818827213, 46.948958142], [-123.818827212, 46.948958141], [-123.818827211, 46.948958141], [-123.81882721, 46.948958141], [-123.818827209, 46.948958141], [-123.818827209, 46.948958133], [-123.818211998, 46.948095583], [-123.818289518, 46.948095867], [-123.818336528, 46.948102891], [-123.8183517, 46.94810668], [-123.818365912, 46.948117481], [-123.818765912, 46.948216481], [-123.818816171, 46.948234667], [-123.819326912, 46.94841948], [-123.819446912, 46.94843548]]], [[[-123.792585732, 46.951707869], [-123.794636109, 46.951730275], [-123.794583218, 46.954906872], [-123.79457891, 46.954913873], [-123.794437067, 46.954920489], [-123.792787858, 46.954917156], [-123.792640193, 46.954909534], [-123.792630899, 46.954766487], [-123.792597433, 46.952500261], [-123.792585732, 46.951707869]]], [[[-123.723824, 46.973298], [-123.723181, 46.973302], [-123.72312, 46.968803], [-123.729693, 46.968762], [-123.729696, 46.96903], [-123.730339, 46.969025], [-123.7304, 46.973524], [-123.723827, 46.973566], [-123.723824, 46.973298]]], [[[-123.714824, 46.969466], [-123.721397, 46.969425], [-123.721457, 46.973924], [-123.721277, 46.973925], [-123.72128, 46.97418], [-123.717119, 46.974206], [-123.717123, 46.974466], [-123.71055, 46.974507], [-123.710547, 46.974299], [-123.709731, 46.974304], [-123.709672, 46.969805], [-123.714648, 46.969774], [-123.714647, 46.969722], [-123.714828, 46.969721], [-123.714824, 46.969466]]], [[[-123.746285, 46.974865], [-123.739712, 46.974908], [-123.73965, 46.970409], [-123.746222, 46.970366], [-123.746285, 46.974865]]], [[[-123.699609, 46.970892], [-123.699604, 46.970535], [-123.706177, 46.970494], [-123.706236, 46.974993], [-123.704946, 46.975001], [-123.70495, 46.975359], [-123.698377, 46.975399], [-123.698319, 46.9709], [-123.699609, 46.970892]]], [[[-123.688664, 46.975866], [-123.688327, 46.975868], [-123.68827, 46.971369], [-123.694842, 46.97133], [-123.694846, 46.971587], [-123.695182, 46.971585], [-123.69524, 46.976084], [-123.688667, 46.976124], [-123.688664, 46.975866]]], [[[-123.756103, 46.980343], [-123.749529, 46.980386], [-123.749466, 46.975887], [-123.756039, 46.975844], [-123.756103, 46.980343]]], [[[-123.772779, 46.979441], [-123.779352, 46.979397], [-123.779418, 46.983896], [-123.778637, 46.983901], [-123.77864, 46.984079], [-123.772066, 46.984123], [-123.772001, 46.979624], [-123.772781, 46.979619], [-123.772779, 46.979441]]], [[[-123.807310922, 47.000438484], [-123.806240416, 47.000371956], [-123.805489721, 47.000325303], [-123.805239222, 47.000299138], [-123.803863611, 47.000096743], [-123.803727745, 47.000070266], [-123.803685481, 47.000053483], [-123.803456921, 46.999923485], [-123.803279921, 46.999823485], [-123.803127921, 46.999734485], [-123.803044921, 46.999647485], [-123.803041921, 46.999608485], [-123.802825921, 46.999298485], [-123.802492921, 46.999007485], [-123.802123921, 46.998763485], [-123.801798921, 46.998665485], [-123.801148921, 46.998470485], [-123.800847921, 46.998436485], [-123.800822921, 46.998439485], [-123.800462921, 46.998475485], [-123.800316921, 46.998539485], [-123.800203921, 46.998693485], [-123.800066921, 46.998991485], [-123.799943921, 46.999153485], [-123.799807921, 46.999271485], [-123.799649921, 46.999362485], [-123.799456921, 46.999427485], [-123.799356921, 46.999437485], [-123.799129921, 46.999429485], [-123.79856592, 46.999388485], [-123.79813792, 46.999382485], [-123.79791192, 46.999429485], [-123.79781092, 46.999492485], [-123.79778792, 46.999600485], [-123.79778692, 46.999708485], [-123.79784992, 46.999820485], [-123.79797892, 46.999896485], [-123.798191921, 47.000012485], [-123.798248921, 47.000065485], [-123.798241921, 47.000182485], [-123.798224853, 47.00019324], [-123.798152156, 47.000229553], [-123.798011921, 47.000238485], [-123.797875921, 47.000212485], [-123.79765092, 47.000150485], [-123.79724492, 47.000144485], [-123.79720092, 47.000234485], [-123.79733492, 47.000431485], [-123.797298921, 47.000711486], [-123.797233048, 47.000776054], [-123.797230075, 47.000777966], [-123.797194743, 47.000803438], [-123.797063428, 47.000833162], [-123.796928963, 47.000849608], [-123.796790132, 47.000793392], [-123.796399115, 47.000611506], [-123.79639692, 47.000610486], [-123.795729061, 47.000300479], [-123.795729058, 47.000300478], [-123.794675121, 46.999810256], [-123.7944325, 46.999683629], [-123.794260791, 46.999583787], [-123.794198993, 46.999547854], [-123.793418184, 46.999092203], [-123.793292666, 46.999010031], [-123.793282743, 46.998860316], [-123.793226454, 46.995055708], [-123.793231411, 46.994913709], [-123.793373351, 46.994907295], [-123.79940787, 46.994934648], [-123.799410414, 46.994934659], [-123.809788958, 46.994972901], [-123.809788961, 46.994972901], [-123.80992547, 46.99498007], [-123.809923597, 46.994985443], [-123.809436374, 46.995483377], [-123.809378609, 46.995542357], [-123.809378608, 46.995542358], [-123.809337467, 46.995594705], [-123.809297498, 46.99564558], [-123.809297497, 46.995645581], [-123.809196534, 46.995806762], [-123.809196533, 46.995806764], [-123.809145692, 46.995919148], [-123.809121303, 46.995972997], [-123.809121303, 46.995972998], [-123.809098703, 46.996029377], [-123.808828183, 46.996704703], [-123.808828182, 46.996704703], [-123.808264224, 46.998357889], [-123.808243959, 46.998417331], [-123.808243958, 46.998417332], [-123.808228997, 46.998467868], [-123.808097759, 46.99893188], [-123.808080826, 46.998991797], [-123.808080826, 46.998991798], [-123.808070626, 46.999041687], [-123.808070626, 46.999041687], [-123.808061901, 46.999088022], [-123.808061901, 46.999088022], [-123.808061901, 46.999088023], [-123.808059107, 46.999171072], [-123.808059107, 46.999171072], [-123.808059107, 46.999171073], [-123.808068952, 46.999253827], [-123.808068952, 46.999253828], [-123.808068952, 46.999253829], [-123.808091439, 46.999335441], [-123.80809144, 46.999335442], [-123.808126248, 46.999415019], [-123.808126248, 46.99941502], [-123.808173019, 46.99949164], [-123.80817302, 46.999491641], [-123.808231237, 46.999564524], [-123.808231238, 46.999564525], [-123.808300305, 46.999632836], [-123.808300306, 46.999632836], [-123.808379393, 46.999695828], [-123.808379393, 46.999695829], [-123.808467708, 46.999752809], [-123.808467709, 46.999752809], [-123.808501803, 46.999770603], [-123.808521792, 46.999781021], [-123.808665919, 46.999869126], [-123.809137587, 47.00015735], [-123.809217143, 47.000205967], [-123.809217143, 47.000205967], [-123.809301449, 47.000250143], [-123.809366406, 47.000283995], [-123.809366407, 47.000283996], [-123.809448503, 47.000318141], [-123.809542518, 47.00035725], [-123.809611289, 47.000387117], [-123.810208999, 47.000646562], [-123.810285259, 47.000679656], [-123.810372165, 47.000723939], [-123.810910579, 47.000998285], [-123.810911508, 47.000999493], [-123.810777732, 47.00100705], [-123.808776896, 47.001021276], [-123.808638557, 47.001015825], [-123.808572178, 47.000993949], [-123.808526588, 47.000975333], [-123.80829208, 47.000871772], [-123.807310922, 47.000438484]]], [[[-123.875872, 47.159688], [-123.876602, 47.159682], [-123.876591, 47.159031], [-123.883187, 47.158981], [-123.883261, 47.163479], [-123.882532, 47.163485], [-123.882543, 47.164136], [-123.875946, 47.164186], [-123.875872, 47.159688]]], [[[-123.914929, 47.187752], [-123.914852, 47.183253], [-123.92145, 47.1832], [-123.921458, 47.183635], [-123.9222, 47.183629], [-123.922278, 47.188128], [-123.915679, 47.188181], [-123.915672, 47.187746], [-123.914929, 47.187752]]], [[[-123.944672, 47.19775], [-123.944592, 47.193251], [-123.951192, 47.193196], [-123.951199, 47.193584], [-123.951689, 47.19358], [-123.951769, 47.198079], [-123.945169, 47.198134], [-123.945162, 47.197746], [-123.944672, 47.19775]]], [[[-123.891638, 47.400527], [-123.891714, 47.405026], [-123.885088, 47.405077], [-123.885012, 47.400578], [-123.891638, 47.400527]]], [[[-123.879331, 47.413564], [-123.879256, 47.409065], [-123.885883, 47.409014], [-123.885889, 47.409398], [-123.885986, 47.409397], [-123.886061, 47.413896], [-123.879434, 47.413947], [-123.879428, 47.413563], [-123.879331, 47.413564]]], [[[-123.887971, 47.461342], [-123.887896, 47.456843], [-123.894528, 47.456792], [-123.894528, 47.456796], [-123.894537, 47.456796], [-123.894613, 47.461294], [-123.88798, 47.461346], [-123.88798, 47.461342], [-123.887971, 47.461342]]], [[[-123.850377, 47.469358], [-123.843743, 47.469407], [-123.843671, 47.464908], [-123.850305, 47.464859], [-123.850377, 47.469358]]], [[[-123.920155, 47.466899], [-123.920482, 47.466897], [-123.920478, 47.466647], [-123.927112, 47.466594], [-123.927191, 47.471092], [-123.926863, 47.471095], [-123.926868, 47.471344], [-123.920233, 47.471398], [-123.920155, 47.466899]]], [[[-123.173487, 46.812484], [-123.174465, 46.812483], [-123.17448, 46.816982], [-123.167925, 46.816992], [-123.167916, 46.814038], [-123.166938, 46.814039], [-123.166924, 46.80954], [-123.173478, 46.80953], [-123.173487, 46.812484]]], [[[-123.687783, 46.976348], [-123.68121, 46.976387], [-123.681153, 46.971888], [-123.687726, 46.971849], [-123.687783, 46.976348]]], [[[-123.624342, 46.978959], [-123.617768, 46.978995], [-123.617766, 46.978817], [-123.617149, 46.97882], [-123.617097, 46.974321], [-123.618908, 46.974311], [-123.618886, 46.972351], [-123.625458, 46.972315], [-123.625511, 46.976815], [-123.624317, 46.976821], [-123.624342, 46.978959]]], [[[-123.665304, 46.978], [-123.658827, 46.978038], [-123.658836, 46.97876], [-123.652263, 46.978797], [-123.65226, 46.978594], [-123.650839, 46.978602], [-123.650784, 46.974103], [-123.657357, 46.974066], [-123.65736, 46.974269], [-123.658684, 46.974261], [-123.658675, 46.973539], [-123.665248, 46.973501], [-123.665304, 46.978]]], [[[-123.557375, 46.98881], [-123.5508, 46.988842], [-123.550754, 46.984343], [-123.550946, 46.984342], [-123.550945, 46.984191], [-123.556716, 46.984163], [-123.556703, 46.982902], [-123.561411, 46.982879], [-123.561401, 46.981913], [-123.563079, 46.981904], [-123.563076, 46.981562], [-123.56965, 46.981529], [-123.569698, 46.986028], [-123.568062, 46.986036], [-123.568067, 46.986482], [-123.563717, 46.986504], [-123.563727, 46.987437], [-123.557553, 46.987468], [-123.557566, 46.988658], [-123.557374, 46.988659], [-123.557375, 46.98881]]], [[[-123.540317, 46.991002], [-123.540233, 46.991002], [-123.540188, 46.986503], [-123.546763, 46.986472], [-123.546764, 46.986569], [-123.546847, 46.986569], [-123.546893, 46.991068], [-123.540318, 46.991099], [-123.540317, 46.991002]]], [[[-123.536258, 46.988871], [-123.536303, 46.99337], [-123.530981, 46.993395], [-123.530992, 46.994526], [-123.524417, 46.994557], [-123.524416, 46.994449], [-123.524151, 46.994451], [-123.524107, 46.989951], [-123.529534, 46.989926], [-123.529522, 46.988779], [-123.536097, 46.988748], [-123.536099, 46.988872], [-123.536258, 46.988871]]], [[[-123.520311, 46.992611], [-123.520312, 46.99271], [-123.520477, 46.99271], [-123.520521, 46.997209], [-123.51584, 46.99723], [-123.515859, 46.99925], [-123.515279, 46.999253], [-123.51528, 46.99932], [-123.508703, 46.999349], [-123.508661, 46.99485], [-123.509241, 46.994848], [-123.50924, 46.994781], [-123.513756, 46.99476], [-123.513735, 46.99264], [-123.520311, 46.992611]]], [[[-123.447482, 47.002918], [-123.440905, 47.002944], [-123.440868, 46.998445], [-123.447444, 46.998419], [-123.447482, 47.002918]]], [[[-123.482816, 47.000385], [-123.489046, 47.000358], [-123.489043, 47.000085], [-123.49562, 47.000057], [-123.495662, 47.004556], [-123.489431, 47.004583], [-123.489433, 47.004856], [-123.485152, 47.004874], [-123.485152, 47.004896], [-123.484381, 47.0049], [-123.484382, 47.005023], [-123.477805, 47.00505], [-123.477765, 47.000551], [-123.478536, 47.000548], [-123.478535, 47.000425], [-123.482816, 47.000407], [-123.482816, 47.000385]]], [[[-123.39032763, 47.003212242], [-123.390327631, 47.003212241], [-123.390327632, 47.00321224], [-123.390327632, 47.003212239], [-123.390327633, 47.003212238], [-123.390327633, 47.003212237], [-123.390327633, 47.003212236], [-123.390327633, 47.003212235], [-123.390327634, 47.003212234], [-123.390327634, 47.003212234], [-123.390327643, 47.003212234], [-123.392155739, 47.002087805], [-123.392292102, 47.00200393], [-123.392292127, 47.002003917], [-123.390327687, 47.003212234], [-123.389547298, 47.00369221], [-123.390327629, 47.003212243], [-123.39032763, 47.003212242], [-123.39032763, 47.003212242]]], [[[-123.397502204, 47.003187532], [-123.397502205, 47.003187532], [-123.397502204, 47.003187532], [-123.397515672, 47.003688866], [-123.397512274, 47.003837474], [-123.397512202, 47.003838061], [-123.395633044, 47.00385031], [-123.395031975, 47.003196074], [-123.395031971, 47.003196074], [-123.395031971, 47.003196074], [-123.395031971, 47.003196073], [-123.395031971, 47.003196072], [-123.39503197, 47.003196071], [-123.39503197, 47.00319607], [-123.39503197, 47.003196069], [-123.395031969, 47.003196068], [-123.395031968, 47.003196068], [-123.394939242, 47.003095139], [-123.394996859, 47.003077529], [-123.395190859, 47.003018529], [-123.395354859, 47.002971529], [-123.396350156, 47.00268582], [-123.396354304, 47.00268541], [-123.396390602, 47.002679907], [-123.396519084, 47.002671622], [-123.397341046, 47.002654056], [-123.397481122, 47.002657916], [-123.39749173, 47.002797644], [-123.397502204, 47.003187532]]], [[[-123.452551, 47.001053], [-123.459127, 47.001027], [-123.459166, 47.005526], [-123.459026, 47.005527], [-123.459027, 47.005644], [-123.452449, 47.00567], [-123.452411, 47.00117], [-123.452552, 47.00117], [-123.452551, 47.001053]]], [[[-123.417060538, 47.010326735], [-123.417060539, 47.010326735], [-123.41706054, 47.010326735], [-123.41706054, 47.010326734], [-123.417060541, 47.010326734], [-123.417060542, 47.010326733], [-123.417060543, 47.010326733], [-123.417060544, 47.010326732], [-123.417060544, 47.010326731], [-123.417060545, 47.01032673], [-123.417060545, 47.01032673], [-123.417060546, 47.010326729], [-123.417060546, 47.010326728], [-123.417060546, 47.010326727], [-123.417060546, 47.010326726], [-123.417060546, 47.010326725], [-123.417052824, 47.010064483], [-123.417387487, 47.010058396], [-123.41739762, 47.010318983], [-123.41739762, 47.010318984], [-123.417397621, 47.010318984], [-123.417397621, 47.010318985], [-123.417397621, 47.010318986], [-123.417397622, 47.010318987], [-123.417397622, 47.010318988], [-123.417397623, 47.010318989], [-123.417397624, 47.010318989], [-123.417397624, 47.01031899], [-123.417397625, 47.010318991], [-123.417397626, 47.010318991], [-123.417397627, 47.010318992], [-123.417397628, 47.010318992], [-123.417397629, 47.010318992], [-123.41739763, 47.010318992], [-123.417397631, 47.010318992], [-123.417714408, 47.01031129], [-123.417714409, 47.01031129], [-123.41771441, 47.01031129], [-123.417714411, 47.010311289], [-123.417714412, 47.010311289], [-123.417714413, 47.010311289], [-123.417714414, 47.010311288], [-123.417714415, 47.010311287], [-123.417714415, 47.010311287], [-123.417714416, 47.010311286], [-123.417714416, 47.010311285], [-123.417714417, 47.010311284], [-123.417714417, 47.010311284], [-123.417714418, 47.010311283], [-123.417714418, 47.010311282], [-123.417714418, 47.010311281], [-123.417714418, 47.01031128], [-123.417704003, 47.009812569], [-123.417704003, 47.009812568], [-123.417704003, 47.009812567], [-123.417704003, 47.009812566], [-123.417704003, 47.009812565], [-123.417704002, 47.009812565], [-123.417704002, 47.009812564], [-123.417704001, 47.009812563], [-123.417704, 47.009812562], [-123.417704, 47.009812562], [-123.417703999, 47.009812561], [-123.417703998, 47.009812561], [-123.417703997, 47.00981256], [-123.417703996, 47.00981256], [-123.417703995, 47.00981256], [-123.417703994, 47.00981256], [-123.417703993, 47.009812559], [-123.417038056, 47.009822245], [-123.417025605, 47.009593383], [-123.417691349, 47.009578841], [-123.41769135, 47.009578841], [-123.417691351, 47.009578841], [-123.417691352, 47.009578841], [-123.417691353, 47.00957884], [-123.417691354, 47.00957884], [-123.417691354, 47.009578839], [-123.417691355, 47.009578839], [-123.417691356, 47.009578838], [-123.417691357, 47.009578837], [-123.417691357, 47.009578837], [-123.417691358, 47.009578836], [-123.417691358, 47.009578835], [-123.417691358, 47.009578834], [-123.417691359, 47.009578833], [-123.417691359, 47.009578832], [-123.417691359, 47.009578831], [-123.417678841, 47.008981918], [-123.417678841, 47.008981917], [-123.417678841, 47.008981916], [-123.417678841, 47.008981915], [-123.41767884, 47.008981914], [-123.41767884, 47.008981913], [-123.417678839, 47.008981912], [-123.417678839, 47.008981912], [-123.417678838, 47.008981911], [-123.417678837, 47.00898191], [-123.417678837, 47.00898191], [-123.417678836, 47.008981909], [-123.417678835, 47.008981909], [-123.417678834, 47.008981908], [-123.417678833, 47.008981908], [-123.417678832, 47.008981908], [-123.417678831, 47.008981908], [-123.416998851, 47.008996708], [-123.416991744, 47.008735875], [-123.416991744, 47.008735874], [-123.416991743, 47.008735873], [-123.416991743, 47.008735872], [-123.416991743, 47.008735871], [-123.416991742, 47.00873587], [-123.416991742, 47.008735869], [-123.416991741, 47.008735868], [-123.416991741, 47.008735868], [-123.41699174, 47.008735867], [-123.416991739, 47.008735866], [-123.416991738, 47.008735866], [-123.416991737, 47.008735866], [-123.416991736, 47.008735865], [-123.416991735, 47.008735865], [-123.416991734, 47.008735865], [-123.416991733, 47.008735865], [-123.415683702, 47.008783898], [-123.415688248, 47.007364198], [-123.415688248, 47.007364197], [-123.415654222, 47.006949002], [-123.415657597, 47.006941952], [-123.41579717, 47.006932474], [-123.416001895, 47.006928425], [-123.416768992, 47.006913252], [-123.416919709, 47.006917875], [-123.41692093, 47.006918037], [-123.416932431, 47.007066644], [-123.416932431, 47.007066645], [-123.416932432, 47.007066646], [-123.416932432, 47.007066647], [-123.416932432, 47.007066648], [-123.416932433, 47.007066648], [-123.416932433, 47.007066649], [-123.416932434, 47.00706665], [-123.416932435, 47.007066651], [-123.416932436, 47.007066651], [-123.416932437, 47.007066652], [-123.416932437, 47.007066652], [-123.416932438, 47.007066653], [-123.416932439, 47.007066653], [-123.41693244, 47.007066653], [-123.416932441, 47.007066653], [-123.417649375, 47.007047278], [-123.418249487, 47.007033977], [-123.419877481, 47.006997896], [-123.419890893, 47.006997599], [-123.419904302, 47.006997242], [-123.419904475, 47.006997237], [-123.420291539, 47.006986927], [-123.420358908, 47.006985889], [-123.420798441, 47.006984056], [-123.421415988, 47.00698148], [-123.421553844, 47.006987536], [-123.421565289, 47.007122354], [-123.421566366, 47.007161214], [-123.421625106, 47.010281991], [-123.42162084, 47.010424051], [-123.421611056, 47.010428974], [-123.417869864, 47.010528527], [-123.417444864, 47.010538527], [-123.416792864, 47.010556527], [-123.416783408, 47.010335893], [-123.417060537, 47.010326735], [-123.417060538, 47.010326735]]], [[[-123.372602889, 47.03103416], [-123.372631936, 47.035208285], [-123.37262574, 47.035351063], [-123.372450804, 47.035336515], [-123.37222914, 47.035311009], [-123.372172862, 47.035304533], [-123.372116473, 47.035299121], [-123.371988576, 47.035286846], [-123.371851076, 47.035267172], [-123.371715995, 47.035234829], [-123.371648088, 47.035215195], [-123.371599829, 47.035201242], [-123.371349618, 47.035116796], [-123.371153178, 47.035040706], [-123.371004225, 47.034978349], [-123.370948751, 47.03495335], [-123.370824388, 47.034891522], [-123.37078979, 47.034876494], [-123.370602862, 47.034774533], [-123.370256929, 47.03464503], [-123.370212929, 47.034628559], [-123.370212929, 47.034628559], [-123.370212862, 47.034628533], [-123.370188926, 47.034619573], [-123.370188849, 47.034619545], [-123.37006557, 47.034565055], [-123.369954693, 47.034522008], [-123.369836862, 47.034461533], [-123.369552934, 47.034366024], [-123.369479906, 47.034341459], [-123.369399862, 47.034314533], [-123.368981862, 47.034184533], [-123.368597771, 47.034117548], [-123.368423482, 47.034087152], [-123.368356862, 47.034075534], [-123.368289996, 47.034065419], [-123.368137509, 47.034042354], [-123.367880861, 47.034003534], [-123.36762182, 47.033987022], [-123.36751718, 47.033980352], [-123.366235831, 47.033898679], [-123.366199906, 47.033896173], [-123.364208182, 47.033745194], [-123.363884513, 47.033720659], [-123.363882861, 47.033720534], [-123.363507799, 47.033692312], [-123.363507798, 47.033692312], [-123.363379266, 47.033677004], [-123.363259015, 47.0336291], [-123.363133999, 47.033572891], [-123.362995378, 47.033501631], [-123.362874578, 47.033403135], [-123.362806788, 47.03334169], [-123.362769228, 47.033307058], [-123.362687092, 47.033230022], [-123.362397707, 47.032958603], [-123.36227928, 47.032841171], [-123.362110005, 47.032663717], [-123.361862632, 47.032404392], [-123.361552986, 47.032079227], [-123.361379499, 47.031880187], [-123.360898717, 47.031276894], [-123.360892513, 47.031269109], [-123.360794983, 47.031131443], [-123.360713597, 47.030983657], [-123.360642961, 47.030836263], [-123.360463859, 47.030462534], [-123.360403859, 47.030136534], [-123.360358859, 47.028813534], [-123.360302859, 47.027192534], [-123.360336859, 47.026224534], [-123.360384858, 47.026044534], [-123.360174858, 47.026061534], [-123.359882858, 47.026142534], [-123.359636858, 47.026242534], [-123.359396858, 47.026333534], [-123.359188858, 47.026381534], [-123.358938858, 47.026411534], [-123.358607858, 47.026484534], [-123.358065858, 47.026585534], [-123.357351858, 47.026730534], [-123.356913858, 47.026829534], [-123.356400858, 47.026965534], [-123.354923858, 47.027313535], [-123.354108858, 47.027474535], [-123.353714858, 47.027573535], [-123.353270858, 47.027755535], [-123.353088834, 47.027825152], [-123.352783024, 47.027942113], [-123.352734858, 47.027960535], [-123.352687015, 47.027979782], [-123.352234339, 47.028161893], [-123.352038858, 47.028240535], [-123.351849375, 47.028332696], [-123.351829682, 47.028342274], [-123.351784221, 47.028364385], [-123.351781858, 47.028365535], [-123.350726708, 47.028879884], [-123.350323665, 47.029072328], [-123.349903858, 47.029272535], [-123.349576858, 47.029479535], [-123.349305578, 47.029688664], [-123.349200451, 47.029766118], [-123.349121328, 47.029821797], [-123.348790021, 47.030023193], [-123.348673156, 47.030076787], [-123.348534078, 47.030124671], [-123.348504771, 47.030133175], [-123.34848539, 47.030138798], [-123.348425215, 47.030152589], [-123.348441, 47.032602], [-123.348441, 47.032704], [-123.347215, 47.032708], [-123.347218, 47.03323], [-123.340638, 47.03325], [-123.340609, 47.028751], [-123.341835, 47.028747], [-123.341832, 47.028224], [-123.341833, 47.028224], [-123.341832, 47.028122], [-123.346261745, 47.028108536], [-123.346240481, 47.024820172], [-123.346222779, 47.022082489], [-123.34622873, 47.021940741], [-123.346341063, 47.021854084], [-123.346925855, 47.021446535], [-123.347065618, 47.021349038], [-123.347216855, 47.021243535], [-123.347793855, 47.020847535], [-123.348132855, 47.020558535], [-123.349533855, 47.019159535], [-123.349742855, 47.018950535], [-123.349814855, 47.018812535], [-123.349863855, 47.018655535], [-123.349840855, 47.018379535], [-123.349816855, 47.017925535], [-123.349738854, 47.015232535], [-123.349645854, 47.013226534], [-123.349577853, 47.011774534], [-123.349427853, 47.011771534], [-123.348116853, 47.011831535], [-123.346457853, 47.011935535], [-123.346210853, 47.011946535], [-123.346167805, 47.011949796], [-123.346164086, 47.01194698], [-123.34615636, 47.011805866], [-123.346102718, 47.003502044], [-123.346108734, 47.003361346], [-123.346249368, 47.00335398], [-123.354583681, 47.003327833], [-123.366386941, 47.003290803], [-123.37240981, 47.003271908], [-123.372367973, 46.997249155], [-123.372307844, 46.988593226], [-123.372313712, 46.988455897], [-123.37243701, 46.988516653], [-123.372710611, 46.98866879], [-123.373255782, 46.988971936], [-123.374006576, 46.98938982], [-123.374007852, 46.989390531], [-123.374778412, 46.989818925], [-123.374778419, 46.989818929], [-123.374915145, 46.989899753], [-123.375363219, 46.990180898], [-123.375407882, 46.990208921], [-123.375408853, 46.99020953], [-123.37614354, 46.990670119], [-123.376143545, 46.990670123], [-123.37636151, 46.990820573], [-123.376519383, 46.990940175], [-123.376583784, 46.990988963], [-123.376716878, 46.991095887], [-123.376861396, 46.991218918], [-123.377013599, 46.991348492], [-123.377121768, 46.991445186], [-123.377188514, 46.991507821], [-123.377299755, 46.99161221], [-123.377344853, 46.99165453], [-123.377390814, 46.991695912], [-123.377555824, 46.991844482], [-123.377672887, 46.991955732], [-123.377912638, 46.992196188], [-123.377997265, 46.9922846], [-123.378222979, 46.99253025], [-123.378320002, 46.992641195], [-123.378354979, 46.992683232], [-123.37846325, 46.992814431], [-123.378530762, 46.992899573], [-123.378581119, 46.992963081], [-123.378583854, 46.99296653], [-123.378586593, 46.992969975], [-123.378799707, 46.993237935], [-123.378907656, 46.993382372], [-123.379333848, 46.993989889], [-123.379405854, 46.99409253], [-123.379482085, 46.994192074], [-123.379922651, 46.994767372], [-123.380374443, 46.995368314], [-123.381096424, 46.996328986], [-123.381229855, 46.99650653], [-123.381376046, 46.996673724], [-123.381506884, 46.996823358], [-123.38165555, 46.997007575], [-123.382007004, 46.997480085], [-123.382032287, 46.997514078], [-123.382034855, 46.99751753], [-123.382037428, 46.997520979], [-123.382126282, 46.997640081], [-123.382956026, 46.998755626], [-123.383638636, 46.99968615], [-123.383723445, 46.999811303], [-123.383728865, 46.999821163], [-123.383726265, 47.000114173], [-123.381370381, 46.997007704], [-123.38119092, 46.996769386], [-123.38119092, 46.996769385], [-123.381190919, 46.996769384], [-123.381190918, 46.996769384], [-123.381190917, 46.996769383], [-123.381190916, 46.996769383], [-123.381190915, 46.996769382], [-123.381190914, 46.996769382], [-123.381190913, 46.996769382], [-123.381190912, 46.996769382], [-123.38082292, 46.99676709], [-123.378454916, 46.996752318], [-123.373499237, 46.996762607], [-123.373499236, 46.996762607], [-123.373499235, 46.996762607], [-123.373499234, 46.996762607], [-123.373499233, 46.996762608], [-123.373499232, 46.996762608], [-123.373499231, 46.996762609], [-123.37349923, 46.996762609], [-123.37349923, 46.99676261], [-123.373499229, 46.996762611], [-123.373499228, 46.996762611], [-123.373499228, 46.996762612], [-123.373499228, 46.996762613], [-123.373499227, 46.996762614], [-123.373499227, 46.996762615], [-123.373499227, 46.996762616], [-123.373499227, 46.996762617], [-123.373436674, 47.000253518], [-123.373436675, 47.000253519], [-123.373436675, 47.00025352], [-123.373436675, 47.000253521], [-123.373436675, 47.000253522], [-123.373436676, 47.000253523], [-123.373436676, 47.000253524], [-123.373436677, 47.000253524], [-123.373436677, 47.000253525], [-123.373436678, 47.000253526], [-123.373436679, 47.000253526], [-123.37343668, 47.000253527], [-123.373436681, 47.000253527], [-123.373436682, 47.000253528], [-123.373436683, 47.000253528], [-123.373436684, 47.000253528], [-123.373436685, 47.000253528], [-123.378521783, 47.000241219], [-123.378586002, 47.001573983], [-123.378586002, 47.001573984], [-123.378586002, 47.001573985], [-123.378586003, 47.001573986], [-123.378586003, 47.001573987], [-123.378586003, 47.001573988], [-123.378586004, 47.001573989], [-123.378586005, 47.00157399], [-123.378586005, 47.00157399], [-123.378586006, 47.001573991], [-123.378586007, 47.001573991], [-123.378586008, 47.001573992], [-123.378586008, 47.001573992], [-123.378586009, 47.001573993], [-123.37858601, 47.001573993], [-123.378586011, 47.001573993], [-123.378586012, 47.001573993], [-123.378586013, 47.001573993], [-123.378586014, 47.001573993], [-123.378586015, 47.001573992], [-123.378586016, 47.001573992], [-123.378586017, 47.001573992], [-123.379008145, 47.001346756], [-123.379008146, 47.001346755], [-123.379206339, 47.001218416], [-123.37920634, 47.001218416], [-123.37920634, 47.001218415], [-123.379206341, 47.001218414], [-123.379316995, 47.001089447], [-123.379316995, 47.001089446], [-123.379447631, 47.000918695], [-123.379648455, 47.000781901], [-123.379843433, 47.000755132], [-123.380037809, 47.000812708], [-123.380186253, 47.000925336], [-123.380393342, 47.001112734], [-123.380393343, 47.001112735], [-123.380946391, 47.001556335], [-123.380946392, 47.001556336], [-123.381114487, 47.001663908], [-123.381114487, 47.001663908], [-123.381114488, 47.001663909], [-123.38132316, 47.001754587], [-123.381323161, 47.001754587], [-123.381323162, 47.001754587], [-123.381536109, 47.001799694], [-123.381536111, 47.001799695], [-123.381965601, 47.001841529], [-123.38205081, 47.001852313], [-123.382284315, 47.001881862], [-123.382536049, 47.001961307], [-123.383054153, 47.002175715], [-123.383054154, 47.002175716], [-123.383253229, 47.002240034], [-123.38325323, 47.002240034], [-123.383253231, 47.002240035], [-123.383411887, 47.002252131], [-123.383411888, 47.002252131], [-123.383411889, 47.002252131], [-123.383411889, 47.002252131], [-123.38341189, 47.002252131], [-123.383411891, 47.002252131], [-123.383503956, 47.0022159], [-123.383503957, 47.0022159], [-123.383503958, 47.002215899], [-123.383503959, 47.002215898], [-123.383503959, 47.002215898], [-123.38350396, 47.002215897], [-123.383503961, 47.002215896], [-123.383554705, 47.002138279], [-123.383554706, 47.002138279], [-123.383554706, 47.002138278], [-123.383554706, 47.002138277], [-123.383554706, 47.002138276], [-123.383554707, 47.002138275], [-123.383554707, 47.002138274], [-123.383554707, 47.002138273], [-123.383554706, 47.002138272], [-123.383542611, 47.00208104], [-123.383542611, 47.002081039], [-123.38354261, 47.002081038], [-123.38354261, 47.002081037], [-123.383483812, 47.001983082], [-123.383483812, 47.001983082], [-123.383483811, 47.001983081], [-123.383402089, 47.001887137], [-123.383340284, 47.001705719], [-123.383371693, 47.001570321], [-123.383371694, 47.001570321], [-123.383378162, 47.001527666], [-123.383378162, 47.001527666], [-123.383387492, 47.001423186], [-123.383387492, 47.001423185], [-123.383387492, 47.001423184], [-123.383387492, 47.001423183], [-123.383387491, 47.001423182], [-123.383387491, 47.001423182], [-123.383387491, 47.001423181], [-123.38338749, 47.00142318], [-123.383322948, 47.001322516], [-123.383572589, 47.001316618], [-123.383750544, 47.001315893], [-123.383788904, 47.001652016], [-123.383788904, 47.001652017], [-123.383788904, 47.001652018], [-123.383788905, 47.001652019], [-123.383788905, 47.001652019], [-123.383788906, 47.00165202], [-123.383915075, 47.00184589], [-123.383798611, 47.002030567], [-123.383798611, 47.002030567], [-123.38379861, 47.002030568], [-123.38379861, 47.002030569], [-123.38379861, 47.00203057], [-123.38379861, 47.002030571], [-123.38379861, 47.002030572], [-123.38384654, 47.003233819], [-123.38384654, 47.003233819], [-123.383887828, 47.004270306], [-123.382973049, 47.004303017], [-123.382973047, 47.004303017], [-123.382098086, 47.004451214], [-123.382098085, 47.004451214], [-123.382098084, 47.004451214], [-123.38074877, 47.004962096], [-123.38074877, 47.004962096], [-123.380748769, 47.004962096], [-123.379679823, 47.005605009], [-123.379679822, 47.005605009], [-123.379679822, 47.00560501], [-123.379679821, 47.005605011], [-123.378971648, 47.00636353], [-123.378971647, 47.006363531], [-123.378552743, 47.006962652], [-123.378450169, 47.006998344], [-123.378450168, 47.006998344], [-123.378450167, 47.006998345], [-123.378450166, 47.006998345], [-123.378450166, 47.006998346], [-123.378450165, 47.006998347], [-123.378450164, 47.006998347], [-123.378450164, 47.006998348], [-123.378450163, 47.006998349], [-123.378450163, 47.00699835], [-123.378450163, 47.006998351], [-123.378450162, 47.006998352], [-123.378450162, 47.006998353], [-123.378450162, 47.006998354], [-123.378469315, 47.008546335], [-123.378469316, 47.008546336], [-123.378469316, 47.008546337], [-123.378469316, 47.008546338], [-123.378469316, 47.008546339], [-123.378469317, 47.00854634], [-123.378469317, 47.008546341], [-123.378469318, 47.008546342], [-123.378469319, 47.008546342], [-123.378469319, 47.008546343], [-123.37846932, 47.008546344], [-123.378469321, 47.008546344], [-123.378469322, 47.008546344], [-123.378469323, 47.008546345], [-123.378469324, 47.008546345], [-123.378469325, 47.008546345], [-123.378469326, 47.008546345], [-123.378469327, 47.008546345], [-123.378469328, 47.008546345], [-123.378469329, 47.008546345], [-123.380906868, 47.00771418], [-123.383969425, 47.00764709], [-123.384025478, 47.009363593], [-123.380872157, 47.010109659], [-123.380872156, 47.010109659], [-123.380872156, 47.01010966], [-123.380872155, 47.01010966], [-123.380872154, 47.010109661], [-123.380872153, 47.010109661], [-123.380872152, 47.010109662], [-123.380872152, 47.010109663], [-123.380872151, 47.010109664], [-123.380872151, 47.010109664], [-123.38087215, 47.010109665], [-123.38087215, 47.010109666], [-123.38087215, 47.010109667], [-123.38087215, 47.010109668], [-123.38087215, 47.010109669], [-123.380920937, 47.011196822], [-123.380920937, 47.011196823], [-123.380920937, 47.011196824], [-123.380920938, 47.011196825], [-123.380920938, 47.011196826], [-123.380920938, 47.011196827], [-123.380920939, 47.011196828], [-123.38092094, 47.011196828], [-123.38092094, 47.011196829], [-123.380920941, 47.01119683], [-123.380920942, 47.01119683], [-123.380920943, 47.011196831], [-123.380920944, 47.011196831], [-123.380920944, 47.011196831], [-123.380920945, 47.011196832], [-123.380920946, 47.011196832], [-123.380920947, 47.011196832], [-123.384136931, 47.01113917], [-123.384191124, 47.012552054], [-123.384191124, 47.012552055], [-123.384191124, 47.012552056], [-123.384191124, 47.012552057], [-123.384191125, 47.012552058], [-123.384191125, 47.012552059], [-123.384191126, 47.012552059], [-123.384191126, 47.01255206], [-123.384191127, 47.012552061], [-123.384191128, 47.012552061], [-123.384191128, 47.012552062], [-123.384191129, 47.012552063], [-123.38419113, 47.012552063], [-123.384191131, 47.012552063], [-123.384191132, 47.012552063], [-123.384191133, 47.012552064], [-123.384191134, 47.012552064], [-123.384191135, 47.012552064], [-123.384191136, 47.012552063], [-123.384191137, 47.012552063], [-123.384191138, 47.012552063], [-123.386452688, 47.011595429], [-123.386452689, 47.011595428], [-123.38645269, 47.011595428], [-123.386452691, 47.011595427], [-123.386452692, 47.011595427], [-123.386452692, 47.011595426], [-123.386452693, 47.011595425], [-123.386452694, 47.011595424], [-123.386452694, 47.011595423], [-123.386452694, 47.011595422], [-123.386452694, 47.011595421], [-123.386452695, 47.01159542], [-123.386452695, 47.011595419], [-123.386433848, 47.011104547], [-123.386638931, 47.011099062], [-123.387212123, 47.011086362], [-123.387212124, 47.011086362], [-123.387212125, 47.011086362], [-123.387212126, 47.011086361], [-123.387212127, 47.011086361], [-123.387590353, 47.01090119], [-123.38934776, 47.010130166], [-123.389361826, 47.010363852], [-123.389361826, 47.010363855], [-123.389286859, 47.01039653], [-123.389298859, 47.01060653], [-123.38932686, 47.01107453], [-123.38939086, 47.01271853], [-123.38946986, 47.01477653], [-123.389501861, 47.01561753], [-123.389628861, 47.01748353], [-123.389776862, 47.01964453], [-123.389891862, 47.01983053], [-123.390019862, 47.02000753], [-123.390145862, 47.02015753], [-123.390233862, 47.02031753], [-123.390323862, 47.02052253], [-123.390554862, 47.02090353], [-123.390628973, 47.021085881], [-123.390638029, 47.021201625], [-123.390496435, 47.021209165], [-123.379824102, 47.021244727], [-123.378556702, 47.02124895], [-123.372534937, 47.021269016], [-123.37257684, 47.027290668], [-123.372602889, 47.03103416]]], [[[-123.417592045, 47.014856598], [-123.417592045, 47.014856597], [-123.417568787, 47.014496748], [-123.417568787, 47.014496747], [-123.417568787, 47.014496746], [-123.417568786, 47.014496745], [-123.417568786, 47.014496744], [-123.417568786, 47.014496743], [-123.417568785, 47.014496743], [-123.417568784, 47.014496742], [-123.417568784, 47.014496741], [-123.417568783, 47.014496741], [-123.417568782, 47.01449674], [-123.417568781, 47.01449674], [-123.41756878, 47.014496739], [-123.41756878, 47.014496739], [-123.417568779, 47.014496739], [-123.417568778, 47.014496739], [-123.417568777, 47.014496739], [-123.417158146, 47.014510952], [-123.417145409, 47.014183449], [-123.417549939, 47.014169456], [-123.41754994, 47.014169456], [-123.417549941, 47.014169456], [-123.417549942, 47.014169455], [-123.417549943, 47.014169455], [-123.417549944, 47.014169454], [-123.417549945, 47.014169454], [-123.417549946, 47.014169453], [-123.417549946, 47.014169453], [-123.417549947, 47.014169452], [-123.417549947, 47.014169451], [-123.417549948, 47.01416945], [-123.417549948, 47.014169449], [-123.417549949, 47.014169448], [-123.417549949, 47.014169447], [-123.417549949, 47.014169446], [-123.417549949, 47.014169445], [-123.417498427, 47.013274846], [-123.417498426, 47.013274845], [-123.417498426, 47.013274844], [-123.417498426, 47.013274843], [-123.417498426, 47.013274842], [-123.417498425, 47.013274842], [-123.417498425, 47.013274841], [-123.417498424, 47.01327484], [-123.417498423, 47.013274839], [-123.417498423, 47.013274839], [-123.417498422, 47.013274838], [-123.417498421, 47.013274838], [-123.41749842, 47.013274837], [-123.417498419, 47.013274837], [-123.417498418, 47.013274837], [-123.417498417, 47.013274837], [-123.417498416, 47.013274837], [-123.415385419, 47.013347936], [-123.415301461, 47.011073256], [-123.415299673, 47.011018013], [-123.415382425, 47.011048122], [-123.415549049, 47.011108738], [-123.41554905, 47.011108739], [-123.415741792, 47.011162409], [-123.415821859, 47.011184709], [-123.415821859, 47.011184709], [-123.415903098, 47.01120431], [-123.416183974, 47.011272105], [-123.416183975, 47.011272105], [-123.416183976, 47.011272105], [-123.416183977, 47.011272105], [-123.416183978, 47.011272105], [-123.416183979, 47.011272105], [-123.41618398, 47.011272105], [-123.41618398, 47.011272104], [-123.416183981, 47.011272104], [-123.416183982, 47.011272103], [-123.416183983, 47.011272102], [-123.416183984, 47.011272102], [-123.416183984, 47.011272101], [-123.416183985, 47.0112721], [-123.416183985, 47.011272099], [-123.416183986, 47.011272098], [-123.416183986, 47.011272097], [-123.416183986, 47.011272096], [-123.416183986, 47.011272095], [-123.416183989, 47.011173421], [-123.416789864, 47.011290527], [-123.417783864, 47.011462527], [-123.417875864, 47.011499527], [-123.417913864, 47.011567527], [-123.417910864, 47.011666527], [-123.417833864, 47.012756527], [-123.417835865, 47.013261527], [-123.417837865, 47.013772527], [-123.417845865, 47.013885527], [-123.417856865, 47.014046527], [-123.417863865, 47.014158527], [-123.417877865, 47.014357527], [-123.417887865, 47.014498527], [-123.417917865, 47.014949527], [-123.417923865, 47.015032527], [-123.417946262, 47.01568054], [-123.417941493, 47.015722932], [-123.417802087, 47.015735625], [-123.417759793, 47.015737406], [-123.417615044, 47.015736394], [-123.417613196, 47.015735616], [-123.417607554, 47.015615576], [-123.417592045, 47.014856598]]], [[[-123.406477637, 47.016193268], [-123.406477636, 47.016193269], [-123.406477635, 47.016193269], [-123.406477634, 47.01619327], [-123.406477634, 47.016193271], [-123.406477633, 47.016193272], [-123.406477633, 47.016193272], [-123.406477632, 47.016193273], [-123.406477632, 47.016193274], [-123.406477632, 47.016193275], [-123.406477631, 47.016193276], [-123.406477631, 47.016193277], [-123.406477299, 47.016219624], [-123.406477299, 47.016219624], [-123.405400863, 47.016220529], [-123.405178863, 47.016217529], [-123.405080863, 47.016289529], [-123.405072863, 47.016437529], [-123.405074863, 47.016688529], [-123.405075863, 47.016771529], [-123.405081788, 47.017470579], [-123.405078946, 47.017472742], [-123.404936111, 47.017496029], [-123.404914297, 47.017498499], [-123.404816863, 47.017509529], [-123.404732417, 47.017521895], [-123.404441618, 47.017549122], [-123.404336118, 47.017548914], [-123.404244773, 47.01754081], [-123.404096639, 47.017511773], [-123.403977225, 47.017492906], [-123.403860863, 47.017462529], [-123.403564863, 47.017416529], [-123.403344321, 47.017414826], [-123.403192205, 47.017396042], [-123.403139863, 47.017387529], [-123.403074521, 47.017381348], [-123.402919498, 47.017358433], [-123.402789104, 47.017324911], [-123.402681679, 47.017285609], [-123.402642399, 47.017262207], [-123.402581863, 47.017213529], [-123.402518863, 47.017143529], [-123.402455863, 47.017029529], [-123.402377863, 47.016922529], [-123.402255863, 47.016837529], [-123.402125863, 47.016816529], [-123.401890863, 47.016806529], [-123.401701863, 47.016764529], [-123.401675429, 47.01675409], [-123.401541891, 47.016695303], [-123.401459152, 47.016650346], [-123.401343737, 47.016573015], [-123.401250466, 47.016495342], [-123.401170078, 47.016413959], [-123.401130863, 47.016335529], [-123.401068863, 47.016129529], [-123.401088863, 47.016007529], [-123.401128863, 47.015943529], [-123.401167862, 47.015789529], [-123.401159862, 47.015686529], [-123.401039862, 47.015584529], [-123.400882862, 47.015516529], [-123.400670862, 47.015489529], [-123.400308862, 47.015418529], [-123.400148862, 47.015382529], [-123.400003862, 47.015301529], [-123.399662862, 47.015064529], [-123.399296862, 47.014810529], [-123.398801428, 47.014428833], [-123.398782862, 47.014414529], [-123.398502862, 47.014212529], [-123.398030862, 47.013793529], [-123.397755861, 47.013575529], [-123.397521861, 47.013383529], [-123.397284861, 47.013137529], [-123.397112861, 47.012862529], [-123.396994861, 47.012640529], [-123.396918861, 47.012444529], [-123.396939861, 47.012092529], [-123.397026861, 47.012000529], [-123.397271861, 47.011913529], [-123.397467861, 47.011881529], [-123.397759861, 47.011777529], [-123.398085861, 47.011662529], [-123.398715861, 47.011337529], [-123.398778126, 47.011298482], [-123.398951861, 47.011189529], [-123.399183861, 47.010963529], [-123.399211861, 47.010928529], [-123.399218082, 47.0109209], [-123.399217475, 47.010961492], [-123.399217475, 47.010961493], [-123.399217475, 47.010961494], [-123.399217476, 47.010961495], [-123.399217476, 47.010961496], [-123.399217476, 47.010961497], [-123.399217477, 47.010961498], [-123.399217478, 47.010961498], [-123.399217478, 47.010961499], [-123.399217479, 47.0109615], [-123.39921748, 47.0109615], [-123.399217481, 47.010961501], [-123.399217481, 47.010961501], [-123.399217482, 47.010961502], [-123.399217483, 47.010961502], [-123.399217484, 47.010961502], [-123.399217485, 47.010961502], [-123.402414301, 47.010932559], [-123.40242539, 47.010934752], [-123.402563857, 47.014517137], [-123.402563857, 47.014517138], [-123.402563857, 47.014517139], [-123.402563857, 47.01451714], [-123.402563858, 47.014517141], [-123.402563858, 47.014517142], [-123.402563858, 47.014517143], [-123.402563859, 47.014517143], [-123.40256386, 47.014517144], [-123.402563861, 47.014517145], [-123.402563861, 47.014517145], [-123.402563862, 47.014517146], [-123.402563863, 47.014517146], [-123.402563864, 47.014517147], [-123.402563865, 47.014517147], [-123.402563866, 47.014517147], [-123.402563867, 47.014517147], [-123.405066435, 47.014471879], [-123.405066436, 47.014471879], [-123.405066437, 47.014471878], [-123.405066438, 47.014471878], [-123.405066439, 47.014471878], [-123.40506644, 47.014471877], [-123.40506644, 47.014471877], [-123.405066441, 47.014471876], [-123.405066442, 47.014471876], [-123.405066443, 47.014471875], [-123.405066443, 47.014471874], [-123.405066444, 47.014471873], [-123.405066444, 47.014471872], [-123.405066444, 47.014471871], [-123.405066444, 47.01447187], [-123.405066445, 47.014471869], [-123.405066445, 47.014471868], [-123.404928903, 47.010917119], [-123.404929545, 47.010917005], [-123.405076847, 47.010905571], [-123.410234414, 47.010760879], [-123.410253, 47.010760357], [-123.410362582, 47.014794705], [-123.410115659, 47.014808856], [-123.409665442, 47.014816409], [-123.409008074, 47.014827435], [-123.408527948, 47.014836674], [-123.408527947, 47.014836674], [-123.408527946, 47.014836674], [-123.408527945, 47.014836674], [-123.408527944, 47.014836674], [-123.408527943, 47.014836675], [-123.408527943, 47.014836675], [-123.408527942, 47.014836676], [-123.408527941, 47.014836677], [-123.40852794, 47.014836677], [-123.40852794, 47.014836678], [-123.408527939, 47.014836679], [-123.408527939, 47.01483668], [-123.408527939, 47.014836681], [-123.408527938, 47.014836682], [-123.408527938, 47.014836683], [-123.408527938, 47.014836684], [-123.408537661, 47.015382614], [-123.408537661, 47.015382615], [-123.408537661, 47.015382616], [-123.408537662, 47.015382617], [-123.408537662, 47.015382618], [-123.408537662, 47.015382619], [-123.408537663, 47.01538262], [-123.408537664, 47.01538262], [-123.408537664, 47.015382621], [-123.408537665, 47.015382622], [-123.408537666, 47.015382622], [-123.408537667, 47.015382623], [-123.408537667, 47.015382623], [-123.408537668, 47.015382623], [-123.408537669, 47.015382624], [-123.40853767, 47.015382624], [-123.408537671, 47.015382624], [-123.408993672, 47.01537623], [-123.409649449, 47.01536523], [-123.41010249, 47.01535763], [-123.410351063, 47.015352864], [-123.410341718, 47.016156503], [-123.409586594, 47.016163688], [-123.408755383, 47.016171596], [-123.406477641, 47.016193267], [-123.40647764, 47.016193267], [-123.406477639, 47.016193267], [-123.406477638, 47.016193268], [-123.406477637, 47.016193268], [-123.406477637, 47.016193268]]], [[[-123.410957982, 47.016189269], [-123.410896528, 47.016191504], [-123.410895864, 47.016191528], [-123.410668212, 47.016199857], [-123.41066821, 47.016199857], [-123.410565549, 47.016202984], [-123.410546864, 47.016203528], [-123.410524191, 47.01620436], [-123.410497233, 47.016205349], [-123.410340716, 47.016202991], [-123.410341737, 47.016156523], [-123.411423621, 47.016111163], [-123.411411682, 47.016162697], [-123.411406588, 47.01616609], [-123.411258135, 47.016178591], [-123.411186703, 47.016180995], [-123.411178972, 47.016181255], [-123.411170864, 47.016181528], [-123.411162757, 47.016181823], [-123.410957982, 47.016189269]]], [[[-123.330332, 47.041814], [-123.330304, 47.037315], [-123.336885, 47.037296], [-123.336885, 47.037342], [-123.337051, 47.037342], [-123.33708, 47.041841], [-123.330498, 47.04186], [-123.330498, 47.041814], [-123.330332, 47.041814]]], [[[-123.29839, 47.05432], [-123.298218, 47.05432], [-123.298193, 47.049821], [-123.304776, 47.049804], [-123.304776, 47.049833], [-123.304947, 47.049833], [-123.304973, 47.054332], [-123.29839, 47.05435], [-123.29839, 47.05432]]]]}, "properties": {}}]}