{"type": "FeatureCollection", "features": [{"type": "Feature", "geometry": {"type": "MultiPolygon", "coordinates": [[[[-121.176374, 45.619731], [-121.17652, 45.615233], [-121.182929, 45.615335], [-121.182784, 45.619833], [-121.176374, 45.619731]]], [[[-121.176444, 45.629817], [-121.17659, 45.625319], [-121.183001, 45.625421], [-121.182855, 45.629919], [-121.176444, 45.629817]]], [[[-121.179303, 45.650618], [-121.179449, 45.64612], [-121.185862, 45.646222], [-121.185717, 45.65072], [-121.179303, 45.650618]]], [[[-121.456096, 45.703738], [-121.462517, 45.703824], [-121.462394, 45.708323], [-121.455972, 45.708236], [-121.456096, 45.703738]]], [[[-121.455329097, 45.70821096], [-121.454685238, 45.709491444], [-121.451337066, 45.708230456], [-121.453004038, 45.706021475], [-121.45495296, 45.707118972], [-121.454301952, 45.707575508], [-121.455329097, 45.70821096]]], [[[-121.466460896, 45.713034506], [-121.466472539, 45.71298016], [-121.466477139, 45.712924907], [-121.466509446, 45.712536632], [-121.467081778, 45.703594486], [-121.481629078, 45.711440969], [-121.481608758, 45.713662022], [-121.481671269, 45.713628655], [-121.482434269, 45.713219655], [-121.483027269, 45.712900655], [-121.483078269, 45.712874655], [-121.483683863, 45.712548949], [-121.48683678, 45.714248908], [-121.487850157, 45.714795236], [-121.487820296, 45.715902142], [-121.489955865, 45.715930394], [-121.493117097, 45.717634413], [-121.494686539, 45.718453865], [-121.499086816, 45.720745532], [-121.499097585, 45.720747361], [-121.499104288, 45.720748503], [-121.499112274, 45.720752654], [-121.507288275, 45.722144653], [-121.509107276, 45.722454653], [-121.509373276, 45.722499653], [-121.509653276, 45.722547653], [-121.511106276, 45.722794652], [-121.511975276, 45.722942652], [-121.512974276, 45.723112652], [-121.51332547, 45.723172435], [-121.520583278, 45.724407652], [-121.520601278, 45.724409652], [-121.522375278, 45.724711651], [-121.523695279, 45.724935651], [-121.523222279, 45.726335651], [-121.522544279, 45.727970652], [-121.522500279, 45.728077652], [-121.522420279, 45.728271652], [-121.522336279, 45.728472652], [-121.522331279, 45.728485652], [-121.522251279, 45.728678652], [-121.522199279, 45.728804652], [-121.522071279, 45.729113652], [-121.521836279, 45.730578652], [-121.52161528, 45.731349652], [-121.52152428, 45.731949652], [-121.52163628, 45.732492652], [-121.522397139, 45.734356355], [-121.52247728, 45.734552652], [-121.522776281, 45.735494652], [-121.522858281, 45.738002652], [-121.523016281, 45.738914652], [-121.523047281, 45.739097652], [-121.523696282, 45.740187652], [-121.524133282, 45.740858652], [-121.523823282, 45.740990652], [-121.523721282, 45.741029652], [-121.523687282, 45.741042652], [-121.523436282, 45.741148652], [-121.523418282, 45.741156652], [-121.522865282, 45.741356652], [-121.522663282, 45.741404652], [-121.522546282, 45.741432652], [-121.522436282, 45.741494652], [-121.522417282, 45.741510652], [-121.522266282, 45.741553652], [-121.522250282, 45.741559652], [-121.522051282, 45.741718653], [-121.521678282, 45.742150653], [-121.521348282, 45.742306653], [-121.521112282, 45.742418653], [-121.520316282, 45.742449653], [-121.519759281, 45.742208653], [-121.519721281, 45.742199653], [-121.519723281, 45.742226653], [-121.519726281, 45.742346653], [-121.519713281, 45.742413653], [-121.519693281, 45.742467653], [-121.519651282, 45.742512653], [-121.519581281, 45.742525653], [-121.519485281, 45.742527653], [-121.519382281, 45.742521653], [-121.519205281, 45.742518653], [-121.519139281, 45.742517653], [-121.519072281, 45.742517653], [-121.519005281, 45.742517653], [-121.518940281, 45.742516653], [-121.518875281, 45.742516653], [-121.518688281, 45.742521653], [-121.518569281, 45.742522653], [-121.518452281, 45.742522653], [-121.518348281, 45.742520653], [-121.518258281, 45.742520653], [-121.518183281, 45.742518653], [-121.518104281, 45.742514653], [-121.518001281, 45.742516653], [-121.517837281, 45.742518653], [-121.517757281, 45.742519653], [-121.517686281, 45.742521653], [-121.517619281, 45.742545653], [-121.517571281, 45.742551653], [-121.517475281, 45.742551653], [-121.517361281, 45.742549653], [-121.517294281, 45.742545653], [-121.517228281, 45.742538653], [-121.517156281, 45.742537653], [-121.517076281, 45.742536653], [-121.516997281, 45.742528653], [-121.516919281, 45.742519653], [-121.516841281, 45.742522653], [-121.516768281, 45.742523653], [-121.516612281, 45.742514653], [-121.516533281, 45.742511653], [-121.516460281, 45.742514653], [-121.516382281, 45.742515653], [-121.516304281, 45.742511653], [-121.516228281, 45.742514653], [-121.516080281, 45.742522653], [-121.515996281, 45.742527653], [-121.515913281, 45.742531653], [-121.515653281, 45.742546653], [-121.515560281, 45.742547653], [-121.515462281, 45.742548653], [-121.515354281, 45.742556653], [-121.515257281, 45.742557653], [-121.515166281, 45.742563653], [-121.515112281, 45.742568653], [-121.515017281, 45.742579653], [-121.514940281, 45.742603653], [-121.514851281, 45.742631653], [-121.514769281, 45.742655653], [-121.514691281, 45.742683653], [-121.514608281, 45.742719653], [-121.514534281, 45.742749653], [-121.514396281, 45.742812653], [-121.514325281, 45.742841653], [-121.514260281, 45.742868653], [-121.514196281, 45.742893653], [-121.514041281, 45.742952653], [-121.513922281, 45.742968653], [-121.51339328, 45.741978653], [-121.51295628, 45.741479653], [-121.51284409, 45.741308726], [-121.51276528, 45.741188653], [-121.51249228, 45.740495653], [-121.51248428, 45.740463653], [-121.51243028, 45.740232653], [-121.51242928, 45.740195653], [-121.51242028, 45.739374653], [-121.51241728, 45.739101653], [-121.51230528, 45.739102653], [-121.51189628, 45.739088653], [-121.511513279, 45.739084653], [-121.510781279, 45.739079654], [-121.509641279, 45.739092654], [-121.509387279, 45.739088654], [-121.508804279, 45.739088654], [-121.508662279, 45.739088654], [-121.508572279, 45.739088654], [-121.507901279, 45.739087654], [-121.507748279, 45.739086654], [-121.507290279, 45.739083654], [-121.507138279, 45.739083654], [-121.507037279, 45.739081654], [-121.506734279, 45.739078654], [-121.506633279, 45.739077654], [-121.505701278, 45.739065654], [-121.503782278, 45.739043654], [-121.503418278, 45.739055654], [-121.503294278, 45.739062654], [-121.503011278, 45.739103654], [-121.502978278, 45.739110654], [-121.502911278, 45.739124654], [-121.502657278, 45.739179654], [-121.502203278, 45.739299654], [-121.502008278, 45.739352654], [-121.501812278, 45.739401654], [-121.501361278, 45.739505654], [-121.500701278, 45.739659655], [-121.499956278, 45.739846655], [-121.499419278, 45.739959655], [-121.499124278, 45.740022655], [-121.498763278, 45.740057655], [-121.498633278, 45.740069655], [-121.498404277, 45.740080655], [-121.498046277, 45.740062655], [-121.498012277, 45.740057655], [-121.497455277, 45.739985655], [-121.496826277, 45.739867655], [-121.495794277, 45.739655655], [-121.495398277, 45.739574655], [-121.495056277, 45.739516655], [-121.494811277, 45.739468655], [-121.494640277, 45.739437655], [-121.494032277, 45.739328655], [-121.493391276, 45.739221655], [-121.493219276, 45.739193655], [-121.492974276, 45.739154655], [-121.492735276, 45.739117655], [-121.492332276, 45.739055655], [-121.492019276, 45.739020655], [-121.491943276, 45.739012655], [-121.491779276, 45.739000655], [-121.491751276, 45.738998655], [-121.491574276, 45.738983655], [-121.491461276, 45.738975655], [-121.491287276, 45.738965655], [-121.490959276, 45.738946656], [-121.490897276, 45.738943656], [-121.490754276, 45.738943656], [-121.490673276, 45.738942656], [-121.490433276, 45.738941656], [-121.490354276, 45.738940656], [-121.490278276, 45.738939656], [-121.490051276, 45.738938656], [-121.489976276, 45.738938656], [-121.489803276, 45.738936656], [-121.489778276, 45.738936656], [-121.489586276, 45.738935656], [-121.489420276, 45.738938656], [-121.489284276, 45.738940656], [-121.489148276, 45.738942656], [-121.489112276, 45.738943656], [-121.488988276, 45.738944656], [-121.488618276, 45.738951656], [-121.488495276, 45.738953656], [-121.488354276, 45.738957656], [-121.488164276, 45.738957656], [-121.488010276, 45.738957656], [-121.487702275, 45.738958656], [-121.487197768, 45.738963389], [-121.487169275, 45.738963656], [-121.486933275, 45.738942656], [-121.486877275, 45.738932656], [-121.486485275, 45.739132656], [-121.486487275, 45.739167656], [-121.486506275, 45.739672656], [-121.486508276, 45.740182656], [-121.486510276, 45.740583656], [-121.486337276, 45.740777656], [-121.486300276, 45.740809656], [-121.486250276, 45.740836656], [-121.486195276, 45.740859656], [-121.485763276, 45.740958656], [-121.485267276, 45.741034656], [-121.485017275, 45.741076656], [-121.484555275, 45.741154656], [-121.484644275, 45.741080656], [-121.484929275, 45.740814656], [-121.484963275, 45.740760656], [-121.485217275, 45.740457656], [-121.485295275, 45.740324656], [-121.485371275, 45.740154656], [-121.485374275, 45.740103656], [-121.485382275, 45.739911656], [-121.485321275, 45.739685656], [-121.485183275, 45.739503656], [-121.484986275, 45.739293656], [-121.484908275, 45.739229656], [-121.484831275, 45.739147656], [-121.484688275, 45.739028656], [-121.484506087, 45.738911474], [-121.481517207, 45.73890982], [-121.476137013, 45.738890066], [-121.476139566, 45.738774357], [-121.476137274, 45.738777657], [-121.476118274, 45.738807657], [-121.475946274, 45.738977657], [-121.475814274, 45.739078657], [-121.475722274, 45.739113657], [-121.475482274, 45.739181657], [-121.475462274, 45.739188657], [-121.475304274, 45.739240657], [-121.475145273, 45.739275657], [-121.475043273, 45.739298657], [-121.474896273, 45.739347657], [-121.474834273, 45.739430657], [-121.474777273, 45.739541657], [-121.474794274, 45.739620657], [-121.474838274, 45.739766657], [-121.474917274, 45.739925657], [-121.474933274, 45.740011657], [-121.474901274, 45.740102657], [-121.474800274, 45.740311657], [-121.474783274, 45.740255657], [-121.474754274, 45.740129657], [-121.474717274, 45.740054657], [-121.474617274, 45.739848657], [-121.474584273, 45.739749657], [-121.474585273, 45.739542657], [-121.474629273, 45.739398657], [-121.474710273, 45.739307657], [-121.474772273, 45.739238657], [-121.474915273, 45.739132657], [-121.475006273, 45.739083657], [-121.475081273, 45.739044657], [-121.475292273, 45.738967657], [-121.475390273, 45.738933657], [-121.475489273, 45.738897657], [-121.475649273, 45.738796657], [-121.475786273, 45.738712657], [-121.475908273, 45.738606657], [-121.476007273, 45.738490657], [-121.476148327, 45.738377223], [-121.476210307, 45.735567458], [-121.476207273, 45.735564657], [-121.476140273, 45.735494657], [-121.476128273, 45.735485657], [-121.475909273, 45.735311657], [-121.475909273, 45.735259657], [-121.475908273, 45.735149657], [-121.476008273, 45.735024657], [-121.476163273, 45.734883657], [-121.476218273, 45.734712657], [-121.476197273, 45.734307657], [-121.476262273, 45.734190657], [-121.476568273, 45.733898657], [-121.476604273, 45.733831657], [-121.476646507, 45.733755382], [-121.476671273, 45.733710657], [-121.476847273, 45.733568657], [-121.476923273, 45.733461657], [-121.476974273, 45.733331657], [-121.476975197, 45.733329519], [-121.476962355, 45.731608017], [-121.476297618, 45.731608868], [-121.476375817, 45.728449313], [-121.476333271, 45.728437656], [-121.476141271, 45.728384656], [-121.475826271, 45.728298656], [-121.475574271, 45.728209656], [-121.475428271, 45.728158656], [-121.475385271, 45.728157656], [-121.475346271, 45.728156656], [-121.475278271, 45.728156656], [-121.475231271, 45.728156656], [-121.475193271, 45.728160656], [-121.475122271, 45.728168656], [-121.474900271, 45.728169656], [-121.474837271, 45.728142656], [-121.474719271, 45.728092656], [-121.474594271, 45.728073656], [-121.474472271, 45.728052657], [-121.474323271, 45.728056657], [-121.474195271, 45.728051657], [-121.474041271, 45.728040657], [-121.473971443, 45.728017244], [-121.471213187, 45.728015536], [-121.471248587, 45.725014031], [-121.47120127, 45.724961657], [-121.47113427, 45.724887657], [-121.47096927, 45.724741657], [-121.47086027, 45.724586657], [-121.47086027, 45.724440657], [-121.47086027, 45.72440993], [-121.470473786, 45.724407689], [-121.469671981, 45.723909421], [-121.469674569, 45.723994008], [-121.469204348, 45.723861059], [-121.469073216, 45.723902783], [-121.468639441, 45.723749649], [-121.46812125, 45.723577673], [-121.467693288, 45.723452759], [-121.467203294, 45.723293638], [-121.466862926, 45.723219064], [-121.466718355, 45.723145137], [-121.466395191, 45.723040399], [-121.465993848, 45.722943532], [-121.465481825, 45.722710345], [-121.465302378, 45.722661953], [-121.46492251, 45.722453312], [-121.464598095, 45.722613536], [-121.464127274, 45.722801782], [-121.463691835, 45.722913536], [-121.463234177, 45.722610618], [-121.463008678, 45.722779134], [-121.462730233, 45.722931135], [-121.462292295, 45.723077161], [-121.461921535, 45.72321714], [-121.461926719, 45.723028266], [-121.462186016, 45.722930369], [-121.462600482, 45.722792172], [-121.462999474, 45.722549982], [-121.463048093, 45.722487449], [-121.461961306, 45.721768087], [-121.462131684, 45.715559172], [-121.46060135, 45.715538558], [-121.460594339, 45.715533053], [-121.455580729, 45.71356872], [-121.455557942, 45.711467372], [-121.454287859, 45.711077593], [-121.454628796, 45.710459348], [-121.454244145, 45.709843759], [-121.454685238, 45.709491444], [-121.455606915, 45.70982526], [-121.455950471, 45.709820594], [-121.458266339, 45.710688642], [-121.459578985, 45.711181645], [-121.459657374, 45.71121108], [-121.459735762, 45.711240488], [-121.462224554, 45.712173909], [-121.466041095, 45.713605136], [-121.466101771, 45.713627893], [-121.46613707, 45.713579705], [-121.466366701, 45.713266058], [-121.466420487, 45.713158871], [-121.466457949, 45.713048346], [-121.466460896, 45.713034506]], [[-121.466600647, 45.71919983], [-121.466808441, 45.71940499], [-121.467045712, 45.719593803], [-121.467309901, 45.719764198], [-121.467567299, 45.719898306], [-121.467614966, 45.719921301], [-121.467724057, 45.719950593], [-121.468605678, 45.720187248], [-121.469636202, 45.720511936], [-121.469742467, 45.720314595], [-121.469585474, 45.720265038], [-121.469677237, 45.720107299], [-121.46970913, 45.720052438], [-121.469630763, 45.720028132], [-121.46847236, 45.719669226], [-121.468458135, 45.719701974], [-121.467894922, 45.719548324], [-121.467684978, 45.719402682], [-121.467753582, 45.719353936], [-121.467343355, 45.719057549], [-121.467273682, 45.719115062], [-121.466497899, 45.717892489], [-121.466020571, 45.71789667], [-121.46594243, 45.717897334], [-121.465943154, 45.717948458], [-121.465951295, 45.718517872], [-121.466001161, 45.718493977], [-121.466100099, 45.71848253], [-121.466255171, 45.718711541], [-121.466294849, 45.718770167], [-121.466326102, 45.718820826], [-121.466424571, 45.718980564], [-121.466600647, 45.71919983]], [[-121.464239075, 45.718934562], [-121.464439501, 45.718780902], [-121.46478596, 45.718908587], [-121.46496339, 45.718772556], [-121.465204871, 45.718586058], [-121.464678052, 45.718401417], [-121.464013711, 45.718109849], [-121.464023986, 45.718560072], [-121.464239075, 45.718934562]], [[-121.476621273, 45.734976657], [-121.476583273, 45.735053657], [-121.476561273, 45.735184657], [-121.476567273, 45.735235657], [-121.476568644, 45.735245258], [-121.47772405, 45.735246018], [-121.477725871, 45.734721398], [-121.477696273, 45.734719657], [-121.477585273, 45.734710657], [-121.477360273, 45.734680657], [-121.477163273, 45.734686657], [-121.476943273, 45.734706657], [-121.476820273, 45.734762657], [-121.476709273, 45.734865657], [-121.476621273, 45.734976657]]], [[[-120.956466, 45.658433], [-120.96288, 45.658548], [-120.962717, 45.663046], [-120.956302, 45.662931], [-120.956466, 45.658433]]], [[[-120.972506, 45.665671], [-120.972668, 45.661173], [-120.979083, 45.661287], [-120.978921, 45.665785], [-120.972506, 45.665671]]], [[[-120.822984488, 45.80838678], [-120.822945624, 45.809876496], [-120.838491527, 45.80988209], [-120.838497008, 45.813469783], [-120.838497115, 45.813539706], [-120.838859705, 45.813538768], [-120.838835654, 45.816893454], [-120.836446864, 45.816931037], [-120.836443307, 45.817321146], [-120.83439202, 45.818011177], [-120.834353935, 45.819463935], [-120.83356687, 45.819462928], [-120.833266866, 45.820010098], [-120.833008091, 45.820009765], [-120.832990121, 45.820694185], [-120.833185901, 45.820694437], [-120.833117446, 45.823303253], [-120.833115734, 45.823368797], [-120.833194271, 45.823376972], [-120.833304783, 45.823388507], [-120.83432758, 45.823540969], [-120.835252874, 45.823751611], [-120.835324958, 45.823768041], [-120.835252829, 45.82376842], [-120.83477545, 45.823771021], [-120.834764638, 45.824448077], [-120.832113888, 45.82446422], [-120.832123503, 45.826744942], [-120.831823561, 45.826779843], [-120.831669642, 45.826803596], [-120.831489004, 45.826844427], [-120.831429356, 45.826861304], [-120.831385078, 45.826876027], [-120.831340505, 45.826893518], [-120.831304627, 45.826909923], [-120.831271683, 45.826927698], [-120.83122955, 45.826956205], [-120.831193283, 45.826986659], [-120.831110183, 45.827063477], [-120.830895602, 45.827272941], [-120.830724922, 45.827458575], [-120.830701819, 45.827484752], [-120.83088744, 45.827693446], [-120.831390681, 45.828164821], [-120.831444682, 45.828215375], [-120.831370931, 45.828214293], [-120.830762595, 45.828205236], [-120.830684355, 45.828204068], [-120.830747568, 45.828258897], [-120.831283116, 45.828706776], [-120.831348688, 45.828761618], [-120.831270798, 45.828760451], [-120.828684112, 45.828721907], [-120.828690757, 45.828174371], [-120.828321685, 45.82816887], [-120.828313266, 45.8312782], [-120.828309918, 45.832513565], [-120.82787544, 45.83251299], [-120.827887407, 45.833469718], [-120.824084389, 45.833464619], [-120.824399822, 45.833844515], [-120.822837475, 45.834452377], [-120.82282991, 45.835069606], [-120.822829212, 45.835124283], [-120.822757779, 45.835123199], [-120.822525693, 45.835119731], [-120.822477022, 45.838837506], [-120.814866525, 45.838931766], [-120.812240049, 45.838964179], [-120.812161708, 45.838965131], [-120.810383763, 45.838985186], [-120.81028698, 45.83867303], [-120.810312655, 45.838386518], [-120.810377933, 45.838080519], [-120.810763308, 45.837523254], [-120.81112835, 45.836863568], [-120.811077732, 45.836563364], [-120.810970336, 45.836238408], [-120.810746151, 45.835870321], [-120.810461556, 45.835470154], [-120.810410327, 45.835391786], [-120.810366861, 45.835351612], [-120.810142044, 45.835143955], [-120.809820206, 45.83490366], [-120.809464177, 45.834688184], [-120.809276274, 45.834593647], [-120.809202128, 45.834556331], [-120.809119855, 45.834511367], [-120.809041893, 45.83446873], [-120.808899346, 45.834372375], [-120.808771989, 45.834266186], [-120.808661231, 45.834151229], [-120.808597494, 45.834067313], [-120.808552064, 45.83400334], [-120.80852854, 45.833957699], [-120.808219976, 45.833358707], [-120.808173296, 45.833268099], [-120.808163825, 45.833249111], [-120.808089746, 45.833100455], [-120.807958524, 45.832905503], [-120.807798892, 45.832721239], [-120.807761561, 45.832685155], [-120.807706315, 45.83263174], [-120.807654865, 45.832575484], [-120.807599753, 45.832515197], [-120.807512266, 45.832393029], [-120.807443532, 45.832265125], [-120.807394317, 45.832132898], [-120.807390799, 45.832119079], [-120.807376088, 45.832060981], [-120.80736747, 45.832009531], [-120.807332854, 45.831803025], [-120.807328396, 45.831544118], [-120.807362705, 45.831286298], [-120.807435372, 45.831032405], [-120.807471587, 45.830944331], [-120.807493258, 45.830891637], [-120.807499006, 45.830880524], [-120.807522609, 45.830834894], [-120.807984598, 45.829941521], [-120.808018676, 45.82987568], [-120.808042196, 45.829832105], [-120.808092879, 45.829738142], [-120.808155638, 45.829650789], [-120.808195247, 45.829596036], [-120.808310065, 45.829469367], [-120.808648745, 45.829203709], [-120.809011253, 45.829025216], [-120.809397079, 45.828906805], [-120.809869128, 45.828828161], [-120.8099137, 45.828824278], [-120.810378265, 45.828732557], [-120.810774136, 45.828622074], [-120.810849109, 45.828600283], [-120.810930933, 45.828567658], [-120.81097736, 45.828549155], [-120.811094085, 45.828490576], [-120.811201385, 45.828423798], [-120.811298136, 45.828349524], [-120.81138323, 45.828268584], [-120.811455782, 45.828181872], [-120.809699189, 45.828194503], [-120.809704408, 45.826770776], [-120.807119799, 45.82678635], [-120.807114523, 45.828210075], [-120.80383773, 45.82820924], [-120.805365823, 45.821819513], [-120.80520423, 45.821846543], [-120.805623554, 45.81796307], [-120.806286264, 45.818044753], [-120.80743895, 45.812877757], [-120.808095983, 45.809932092], [-120.808235579, 45.809341555], [-120.812170749, 45.809324413], [-120.812157703, 45.809923112], [-120.814308889, 45.809911899], [-120.814311169, 45.809226466], [-120.812456055, 45.809214792], [-120.812536591, 45.804671374], [-120.816205369, 45.804713738], [-120.817714216, 45.804731126], [-120.819737402, 45.80473978], [-120.819773, 45.803825], [-120.826203, 45.803947], [-120.826028, 45.808445], [-120.822984488, 45.80838678]], [[-120.823748814, 45.831599729], [-120.825200353, 45.831601692], [-120.825250585, 45.83160176], [-120.825249523, 45.831219902], [-120.825248249, 45.830761359], [-120.824233733, 45.830763993], [-120.824228712, 45.831174664], [-120.823641379, 45.831165849], [-120.823641094, 45.831189264], [-120.823636098, 45.831599575], [-120.823748814, 45.831599729]], [[-120.808794534, 45.822140114], [-120.808798312, 45.821488097], [-120.807130615, 45.82155298], [-120.807035668, 45.821562774], [-120.807022237, 45.822903961], [-120.808490645, 45.822905968], [-120.808498323, 45.822137165], [-120.808794534, 45.822140114]]], [[[-120.739683, 45.880531], [-120.746122, 45.880658], [-120.74594, 45.885155], [-120.739501, 45.885028], [-120.739683, 45.880531]]]]}, "properties": {}}]}