{"type": "FeatureCollection", "features": [{"type": "Feature", "geometry": {"type": "MultiPolygon", "coordinates": [[[[-119.332988, 47.180748], [-119.339573, 47.180959], [-119.339264, 47.185449], [-119.332678, 47.185238], [-119.332988, 47.180748]]], [[[-119.850409, 47.184172], [-119.856998, 47.184353], [-119.856733, 47.188845], [-119.850143, 47.188664], [-119.850409, 47.184172]]], [[[-119.407339, 47.216262], [-119.413929, 47.216469], [-119.413626, 47.220959], [-119.407035, 47.220752], [-119.407339, 47.216262]]], [[[-119.713546, 47.246901], [-119.720143, 47.24709], [-119.719865, 47.251582], [-119.713268, 47.251393], [-119.713546, 47.246901]]], [[[-119.67403, 47.24715], [-119.680626, 47.247341], [-119.680345, 47.251833], [-119.673748, 47.251641], [-119.67403, 47.24715]]], [[[-119.614736, 47.252604], [-119.60814, 47.252409], [-119.608156, 47.252156], [-119.608099, 47.252154], [-119.608386, 47.247663], [-119.614982, 47.247858], [-119.614966, 47.248111], [-119.615022, 47.248113], [-119.614736, 47.252604]]], [[[-119.516129, 47.349383], [-119.522737, 47.349584], [-119.522441, 47.354075], [-119.515833, 47.353874], [-119.516129, 47.349383]]], [[[-119.516265, 47.354982], [-119.515969, 47.359472], [-119.50936, 47.359271], [-119.509656, 47.35478], [-119.516265, 47.354982]]], [[[-119.501342, 47.367471], [-119.501045, 47.371961], [-119.500961, 47.371959], [-119.500934, 47.372367], [-119.497432, 47.37226], [-119.49724, 47.375146], [-119.497238, 47.375146], [-119.497216, 47.375474], [-119.490605, 47.375272], [-119.490904, 47.370781], [-119.490906, 47.370781], [-119.490928, 47.370453], [-119.49443, 47.37056], [-119.494622, 47.367675], [-119.494705, 47.367677], [-119.494732, 47.367268], [-119.501342, 47.367471]]], [[[-119.113162, 46.9677], [-119.11972, 46.967923], [-119.119394, 46.972412], [-119.112836, 46.972189], [-119.113162, 46.9677]]], [[[-119.217267, 47.073154], [-119.223838, 47.073371], [-119.223521, 47.07786], [-119.216949, 47.077643], [-119.217267, 47.073154]]], [[[-119.310576361, 47.082937982], [-119.31057636, 47.082937982], [-119.310576359, 47.082937982], [-119.310576358, 47.082937983], [-119.310576357, 47.082937983], [-119.310576356, 47.082937983], [-119.310576356, 47.082937984], [-119.310576355, 47.082937984], [-119.310576354, 47.082937985], [-119.310576353, 47.082937986], [-119.310576353, 47.082937987], [-119.310576352, 47.082937987], [-119.310576352, 47.082937988], [-119.310576352, 47.082937989], [-119.310576351, 47.08293799], [-119.310576351, 47.082937991], [-119.310576351, 47.082937992], [-119.310513756, 47.087341174], [-119.310507793, 47.087363278], [-119.310465787, 47.087369562], [-119.305200151, 47.087374492], [-119.30520015, 47.087374492], [-119.305200149, 47.087374492], [-119.305200148, 47.087374492], [-119.305200147, 47.087374493], [-119.305200146, 47.087374493], [-119.305200145, 47.087374494], [-119.305200144, 47.087374494], [-119.305200144, 47.087374495], [-119.305200143, 47.087374496], [-119.305200142, 47.087374496], [-119.305200142, 47.087374497], [-119.305200141, 47.087374498], [-119.305200141, 47.087374499], [-119.305200141, 47.0873745], [-119.305200141, 47.087374501], [-119.305200141, 47.087374502], [-119.305197834, 47.088224713], [-119.305197834, 47.088224714], [-119.305184028, 47.093312603], [-119.305181982, 47.094066527], [-119.305180946, 47.094448684], [-119.305173628, 47.094594775], [-119.305131339, 47.094601079], [-119.299906916, 47.094605793], [-119.299906915, 47.094605793], [-119.299906914, 47.094605793], [-119.299906913, 47.094605793], [-119.299906912, 47.094605793], [-119.299906911, 47.094605794], [-119.29990691, 47.094605794], [-119.299906909, 47.094605795], [-119.299906909, 47.094605795], [-119.299906908, 47.094605796], [-119.299906907, 47.094605797], [-119.299906907, 47.094605798], [-119.299906906, 47.094605799], [-119.299906906, 47.0946058], [-119.299906906, 47.0946058], [-119.299906906, 47.094605801], [-119.299906906, 47.094605802], [-119.299739302, 47.100835064], [-119.29972871, 47.10097488], [-119.299589694, 47.100993219], [-119.299162092, 47.101028554], [-119.29878688, 47.10105956], [-119.29197699, 47.101583564], [-119.291920372, 47.101587381], [-119.2915616, 47.10160816], [-119.287563665, 47.101839706], [-119.287563663, 47.101839707], [-119.287563663, 47.101839707], [-119.287563662, 47.101839707], [-119.286460607, 47.101903592], [-119.286075871, 47.101925874], [-119.286075792, 47.101925879], [-119.285706693, 47.101947246], [-119.281239261, 47.10219374], [-119.281209178, 47.102195248], [-119.280155056, 47.102242789], [-119.27888555, 47.102300044], [-119.278741964, 47.102299588], [-119.278741102, 47.102299328], [-119.278751106, 47.101892373], [-119.278751412, 47.101879937], [-119.278751412, 47.101879936], [-119.278751412, 47.101879935], [-119.278751412, 47.101879934], [-119.278751411, 47.101879933], [-119.278751411, 47.101879932], [-119.27875141, 47.101879932], [-119.27875141, 47.101879931], [-119.278751409, 47.10187993], [-119.278751408, 47.101879929], [-119.278751408, 47.101879929], [-119.278751407, 47.101879928], [-119.278751406, 47.101879928], [-119.278751405, 47.101879927], [-119.278751404, 47.101879927], [-119.278751403, 47.101879927], [-119.278751402, 47.101879927], [-119.277906311, 47.101879939], [-119.276536566, 47.101879913], [-119.271229695, 47.101879812], [-119.270866411, 47.101857696], [-119.269411691, 47.101679991], [-119.261446562, 47.100676757], [-119.261446548, 47.100676755], [-119.261436885, 47.100675538], [-119.261427188, 47.100674349], [-119.261285448, 47.100656964], [-119.261285447, 47.100656964], [-119.261285447, 47.100656964], [-119.257681044, 47.100214879], [-119.257680425, 47.100214803], [-119.257611714, 47.100206375], [-119.257611714, 47.100206375], [-119.257542827, 47.100199535], [-119.25733871, 47.100179268], [-119.257172917, 47.100154924], [-119.257172565, 47.100152389], [-119.257167234, 47.100093292], [-119.257224419, 47.094465333], [-119.257225004, 47.094407802], [-119.257225004, 47.094407801], [-119.257225004, 47.0944078], [-119.257225003, 47.094407799], [-119.257225003, 47.094407798], [-119.257225003, 47.094407797], [-119.257225002, 47.094407796], [-119.257225002, 47.094407796], [-119.257225001, 47.094407795], [-119.257225, 47.094407794], [-119.257224999, 47.094407794], [-119.257224999, 47.094407793], [-119.257224998, 47.094407793], [-119.257224997, 47.094407792], [-119.257224996, 47.094407792], [-119.257224995, 47.094407792], [-119.257224994, 47.094407792], [-119.238164958, 47.094275921], [-119.238074125, 47.094267948], [-119.237966813, 47.094196323], [-119.237777955, 47.094050776], [-119.237744854, 47.094025265], [-119.237596069, 47.093910433], [-119.237596051, 47.093910419], [-119.237594181, 47.093908976], [-119.23637254, 47.092967663], [-119.236278916, 47.092895055], [-119.23625169, 47.092873353], [-119.235944924, 47.092626574], [-119.235516149, 47.092281197], [-119.235516147, 47.092281195], [-119.235516145, 47.092281194], [-119.235516124, 47.092281176], [-119.235466603, 47.092241287], [-119.235404435, 47.092189815], [-119.23521251, 47.092026511], [-119.235207181, 47.092021976], [-119.23520184, 47.092017454], [-119.234665223, 47.091563013], [-119.23466518, 47.091562976], [-119.232966063, 47.090124112], [-119.232962278, 47.090120906], [-119.23296118, 47.090119976], [-119.230858164, 47.08834081], [-119.230858147, 47.088340795], [-119.230098386, 47.087697481], [-119.230025014, 47.087633279], [-119.229782374, 47.087413898], [-119.229602178, 47.087250977], [-119.229409402, 47.087103156], [-119.22940613, 47.087100647], [-119.229294381, 47.087010633], [-119.228566241, 47.086394826], [-119.227854441, 47.085792837], [-119.227759416, 47.085704053], [-119.227889445, 47.085701905], [-119.235961131, 47.085967838], [-119.235961584, 47.085967853], [-119.262253811, 47.086830107], [-119.262254502, 47.08683013], [-119.282768883, 47.087498168], [-119.288548632, 47.087686382], [-119.288949716, 47.081917495], [-119.289747534, 47.070442298], [-119.289787299, 47.069870355], [-119.28980341, 47.069733685], [-119.28994101, 47.069731536], [-119.311652429, 47.070433345], [-119.315933162, 47.070571717], [-119.31607611, 47.070583544], [-119.316073429, 47.070726955], [-119.315239391, 47.082808604], [-119.315222124, 47.082952851], [-119.315198575, 47.082958778], [-119.310576361, 47.082937982]]], [[[-119.338975205, 47.116783967], [-119.338174204, 47.116783967], [-119.337244204, 47.116798967], [-119.336639204, 47.116783967], [-119.336120204, 47.116798967], [-119.335428204, 47.116769967], [-119.334995204, 47.116754967], [-119.334433204, 47.116725968], [-119.333849204, 47.116651968], [-119.333778204, 47.116640968], [-119.333438204, 47.116592968], [-119.332941203, 47.116445968], [-119.332466203, 47.116300968], [-119.332143203, 47.116201968], [-119.331524203, 47.116011968], [-119.336994205, 47.120508968], [-119.338886121, 47.122065127], [-119.338889798, 47.122074915], [-119.338886827, 47.122216103], [-119.338779095, 47.123784221], [-119.338674868, 47.125301315], [-119.338674846, 47.125301553], [-119.338674838, 47.125301666], [-119.337440275, 47.143261376], [-119.337440237, 47.14326178], [-119.336204467, 47.161221695], [-119.336204435, 47.161222036], [-119.335371462, 47.173318113], [-119.335354458, 47.173460625], [-119.335211128, 47.173468096], [-119.334291355, 47.173470007], [-119.333827234, 47.173470971], [-119.333827216, 47.173470971], [-119.332906311, 47.17347289], [-119.332886824, 47.173472931], [-119.33284761, 47.173472756], [-119.332810391, 47.173472347], [-119.332784928, 47.173472067], [-119.332275356, 47.173464987], [-119.332275205, 47.173464985], [-119.332274216, 47.173464972], [-119.330498285, 47.173440973], [-119.330498216, 47.173440972], [-119.330058286, 47.173435017], [-119.329911882, 47.173425651], [-119.329841562, 47.173296898], [-119.329769781, 47.173148127], [-119.329659926, 47.172920444], [-119.32891757, 47.171379708], [-119.328671628, 47.170868907], [-119.328670215, 47.170865972], [-119.328668797, 47.170863036], [-119.328440024, 47.170389209], [-119.328403917, 47.170314425], [-119.327795489, 47.16905254], [-119.327795482, 47.169052528], [-119.327795214, 47.169051972], [-119.327604691, 47.168657033], [-119.327604687, 47.168657024], [-119.327345104, 47.168117374], [-119.327329516, 47.168084458], [-119.326840309, 47.167034977], [-119.326779607, 47.166904754], [-119.326745214, 47.166830972], [-119.326716104, 47.166772752], [-119.32604697, 47.165421894], [-119.326004892, 47.165333333], [-119.325805232, 47.164894754], [-119.325694508, 47.164651536], [-119.325652272, 47.164553516], [-119.325648374, 47.164544767], [-119.325634213, 47.164509972], [-119.32559243, 47.164419192], [-119.325570214, 47.164370927], [-119.325552305, 47.164332018], [-119.325466213, 47.164144972], [-119.3253675, 47.163964268], [-119.325365429, 47.163960477], [-119.325283213, 47.163809972], [-119.325192534, 47.163664408], [-119.325192153, 47.163663796], [-119.325055213, 47.163443972], [-119.324880213, 47.163196972], [-119.324675688, 47.16295578], [-119.324634383, 47.162907069], [-119.324629212, 47.162900972], [-119.324624026, 47.162894888], [-119.32450158, 47.162751267], [-119.324363212, 47.162588972], [-119.324213671, 47.16243691], [-119.32417775, 47.162400384], [-119.324007212, 47.162226972], [-119.323600212, 47.161854972], [-119.323259212, 47.161584972], [-119.323001212, 47.161380972], [-119.322367212, 47.160942972], [-119.322188212, 47.160844972], [-119.3220482, 47.160767966], [-119.321808211, 47.160635972], [-119.321734211, 47.160600972], [-119.319878819, 47.160607462], [-119.318896542, 47.160610897], [-119.316947353, 47.160603856], [-119.316947097, 47.160603853], [-119.31244807, 47.160587121], [-119.312368366, 47.160585765], [-119.312366614, 47.160585712], [-119.31234221, 47.160584973], [-119.3123178, 47.160584432], [-119.312279976, 47.160583594], [-119.312217524, 47.16058221], [-119.312067825, 47.160571177], [-119.311984526, 47.160441749], [-119.311923485, 47.160349553], [-119.311923485, 47.160349553], [-119.311394283, 47.159498111], [-119.311374363, 47.159466061], [-119.311374363, 47.159466061], [-119.311354036, 47.159434256], [-119.311078263, 47.159002764], [-119.311012679, 47.158889522], [-119.31095724, 47.158770982], [-119.310867946, 47.158556031], [-119.310855613, 47.158526344], [-119.310842963, 47.15849679], [-119.310842314, 47.158495273], [-119.310768475, 47.158322768], [-119.310743694, 47.158237276], [-119.310696452, 47.157873818], [-119.310719867, 47.157587237], [-119.310840038, 47.157264003], [-119.311472127, 47.156270866], [-119.311472127, 47.156270865], [-119.311472127, 47.156270864], [-119.311472128, 47.156270863], [-119.311472128, 47.156270862], [-119.311472128, 47.156270861], [-119.311472128, 47.15627086], [-119.311472128, 47.15627086], [-119.311472128, 47.156270859], [-119.311472128, 47.156270858], [-119.311472127, 47.156270857], [-119.311472127, 47.156270856], [-119.311472126, 47.156270855], [-119.311472126, 47.156270854], [-119.311472125, 47.156270854], [-119.311472124, 47.156270853], [-119.311472124, 47.156270852], [-119.311472123, 47.156270852], [-119.311472122, 47.156270851], [-119.310192314, 47.15576288], [-119.310192313, 47.15576288], [-119.310192312, 47.15576288], [-119.310192311, 47.15576288], [-119.310192311, 47.155762879], [-119.309008207, 47.155292894], [-119.30896833, 47.153322474], [-119.310360753, 47.153332311], [-119.310360753, 47.153332311], [-119.312319001, 47.153346145], [-119.312319002, 47.153346145], [-119.312319003, 47.153346145], [-119.312319004, 47.153346144], [-119.312319005, 47.153346144], [-119.312319006, 47.153346144], [-119.312319007, 47.153346143], [-119.312319007, 47.153346143], [-119.312319008, 47.153346142], [-119.312319009, 47.153346141], [-119.312319009, 47.153346141], [-119.31231901, 47.15334614], [-119.31231901, 47.153346139], [-119.312319011, 47.153346138], [-119.312319011, 47.153346137], [-119.312319011, 47.153346136], [-119.312319011, 47.153346135], [-119.312326495, 47.15319263], [-119.312326495, 47.153192629], [-119.312339202, 47.151172127], [-119.312339202, 47.151172126], [-119.312339202, 47.151172125], [-119.312339202, 47.151172124], [-119.312339202, 47.151172123], [-119.312339201, 47.151172122], [-119.312339201, 47.151172121], [-119.3123392, 47.151172121], [-119.3123392, 47.15117212], [-119.312339199, 47.151172119], [-119.312339198, 47.151172119], [-119.312339197, 47.151172118], [-119.312339196, 47.151172118], [-119.312339195, 47.151172117], [-119.312339195, 47.151172117], [-119.312339194, 47.151172117], [-119.312339193, 47.151172117], [-119.310511072, 47.151163247], [-119.310511072, 47.151163247], [-119.307455527, 47.151148421], [-119.307455526, 47.151148421], [-119.307455525, 47.151148421], [-119.307455524, 47.151148421], [-119.307455523, 47.151148422], [-119.307455522, 47.151148422], [-119.307455522, 47.151148422], [-119.307455521, 47.151148423], [-119.30745552, 47.151148424], [-119.307455519, 47.151148424], [-119.307455519, 47.151148425], [-119.307455518, 47.151148426], [-119.307455518, 47.151148427], [-119.307455518, 47.151148428], [-119.307455517, 47.151148429], [-119.307455517, 47.15114843], [-119.307455517, 47.151148431], [-119.307440234, 47.153133103], [-119.307440234, 47.153133104], [-119.307440234, 47.153133105], [-119.307440234, 47.153133106], [-119.307440235, 47.153133107], [-119.307440235, 47.153133107], [-119.307440235, 47.153133108], [-119.307440236, 47.153133109], [-119.307440237, 47.15313311], [-119.307440237, 47.15313311], [-119.307440238, 47.153133111], [-119.307440239, 47.153133112], [-119.30744024, 47.153133112], [-119.307440241, 47.153133112], [-119.307440242, 47.153133113], [-119.307440243, 47.153133113], [-119.307440244, 47.153133113], [-119.307592814, 47.153134224], [-119.307585072, 47.153296712], [-119.307585072, 47.153296712], [-119.307563028, 47.154718701], [-119.299330902, 47.151388283], [-119.299388971, 47.148289144], [-119.299507538, 47.148290334], [-119.299508741, 47.148290347], [-119.299508972, 47.148290349], [-119.299508973, 47.148290349], [-119.299508974, 47.148290349], [-119.299508974, 47.148290349], [-119.299508975, 47.148290348], [-119.299508976, 47.148290348], [-119.299508977, 47.148290347], [-119.299508978, 47.148290347], [-119.299508979, 47.148290346], [-119.299508979, 47.148290345], [-119.29950898, 47.148290345], [-119.29950898, 47.148290344], [-119.299508981, 47.148290343], [-119.299508981, 47.148290342], [-119.299508981, 47.148290341], [-119.299508982, 47.14829034], [-119.299508982, 47.148290339], [-119.299509272, 47.148254747], [-119.299555958, 47.142042042], [-119.299555958, 47.142042042], [-119.299582597, 47.138497203], [-119.299590681, 47.138354829], [-119.299605212, 47.138349801], [-119.304855014, 47.138409264], [-119.30873344, 47.138429129], [-119.30873344, 47.138429129], [-119.308993581, 47.138425479], [-119.308986163, 47.138512691], [-119.308986163, 47.138512691], [-119.308985227, 47.138597829], [-119.30898455, 47.138741487], [-119.30898455, 47.138741488], [-119.308993445, 47.138847487], [-119.308993445, 47.138847488], [-119.309030894, 47.139015874], [-119.309030894, 47.139015876], [-119.309080457, 47.139146312], [-119.309080457, 47.139146313], [-119.309162585, 47.139298018], [-119.309162585, 47.139298019], [-119.309252338, 47.139423033], [-119.309252338, 47.139423034], [-119.309362042, 47.139544896], [-119.309488542, 47.139688004], [-119.30959879, 47.139854404], [-119.309673939, 47.140017161], [-119.309715762, 47.140158893], [-119.309774622, 47.140425337], [-119.309817786, 47.140634736], [-119.309817786, 47.140634737], [-119.309817786, 47.140634738], [-119.309817787, 47.140634739], [-119.309817787, 47.14063474], [-119.309817788, 47.14063474], [-119.309817788, 47.140634741], [-119.309817789, 47.140634742], [-119.30981779, 47.140634742], [-119.309817791, 47.140634743], [-119.309817792, 47.140634743], [-119.309817793, 47.140634744], [-119.309817794, 47.140634744], [-119.309817795, 47.140634744], [-119.309817796, 47.140634744], [-119.310173226, 47.140630729], [-119.310173227, 47.140630729], [-119.310173228, 47.140630729], [-119.310173229, 47.140630729], [-119.31017323, 47.140630729], [-119.310173231, 47.140630728], [-119.310173232, 47.140630728], [-119.310173233, 47.140630727], [-119.310173233, 47.140630726], [-119.310173234, 47.140630726], [-119.310173235, 47.140630725], [-119.310173235, 47.140630724], [-119.310173236, 47.140630723], [-119.310173236, 47.140630722], [-119.310173236, 47.140630721], [-119.310173236, 47.14063072], [-119.310173236, 47.140630719], [-119.310174572, 47.139767107], [-119.310190122, 47.139379062], [-119.311214385, 47.141013174], [-119.311214386, 47.141013174], [-119.311214387, 47.141013175], [-119.311214387, 47.141013176], [-119.311214388, 47.141013176], [-119.311214389, 47.141013177], [-119.31121439, 47.141013177], [-119.311214391, 47.141013178], [-119.311214391, 47.141013178], [-119.311214392, 47.141013178], [-119.311214393, 47.141013178], [-119.311214393, 47.141013185], [-119.312045529, 47.142339182], [-119.312045529, 47.142339183], [-119.31204553, 47.142339184], [-119.312045531, 47.142339185], [-119.312045532, 47.142339185], [-119.312045532, 47.142339186], [-119.312045533, 47.142339186], [-119.312045534, 47.142339186], [-119.312045535, 47.142339187], [-119.312045536, 47.142339187], [-119.312045537, 47.142339187], [-119.315534196, 47.142355516], [-119.315534197, 47.142355516], [-119.315534198, 47.142355516], [-119.315534199, 47.142355516], [-119.3155342, 47.142355515], [-119.315534201, 47.142355515], [-119.315534202, 47.142355514], [-119.315534203, 47.142355514], [-119.315534204, 47.142355513], [-119.315534204, 47.142355512], [-119.315534205, 47.142355511], [-119.315534205, 47.14235551], [-119.315534206, 47.14235551], [-119.315534206, 47.142355509], [-119.315534206, 47.142355508], [-119.315534206, 47.142355507], [-119.315534206, 47.142355506], [-119.315451768, 47.139747845], [-119.315424703, 47.138800863], [-119.315419801, 47.138629326], [-119.315419801, 47.138629325], [-119.315419801, 47.138629324], [-119.3154198, 47.138629323], [-119.3154198, 47.138629322], [-119.3154198, 47.138629321], [-119.315419799, 47.13862932], [-119.315419799, 47.13862932], [-119.315419798, 47.138629319], [-119.315419797, 47.138629318], [-119.315419797, 47.138629318], [-119.315066925, 47.138390974], [-119.313403836, 47.137267613], [-119.313403835, 47.137267613], [-119.313403834, 47.137267612], [-119.313403833, 47.137267612], [-119.313403832, 47.137267612], [-119.311501084, 47.13687233], [-119.311501083, 47.13687233], [-119.311501082, 47.13687233], [-119.310774439, 47.136721375], [-119.310655773, 47.13669673], [-119.310654043, 47.136694309], [-119.310559478, 47.136562964], [-119.310559478, 47.136562963], [-119.310156109, 47.136102103], [-119.310156108, 47.136102103], [-119.309556198, 47.135515941], [-119.308863923, 47.134797611], [-119.308863923, 47.134797611], [-119.307888438, 47.133906478], [-119.306916111, 47.132900757], [-119.306916111, 47.132900757], [-119.30627348, 47.132270367], [-119.30627348, 47.132270367], [-119.305501328, 47.131550996], [-119.305179175, 47.131047485], [-119.305045183, 47.130682817], [-119.305045182, 47.130682816], [-119.305045182, 47.130682815], [-119.304689894, 47.130075174], [-119.304523553, 47.129723739], [-119.304523552, 47.129723738], [-119.304523552, 47.129723737], [-119.304176461, 47.129255379], [-119.304031456, 47.128855091], [-119.304031456, 47.128855091], [-119.303855218, 47.128427113], [-119.303677897, 47.127892687], [-119.303677897, 47.127892686], [-119.303677897, 47.127892686], [-119.303677896, 47.127892685], [-119.303462329, 47.127587013], [-119.303340493, 47.127217038], [-119.303340493, 47.127217037], [-119.303340493, 47.127217036], [-119.303340492, 47.127217035], [-119.303340492, 47.127217035], [-119.302961073, 47.126761904], [-119.302763071, 47.126399143], [-119.30260015, 47.126069577], [-119.302600149, 47.126069576], [-119.302600149, 47.126069575], [-119.302600148, 47.126069574], [-119.302600147, 47.126069574], [-119.302600147, 47.126069573], [-119.302600146, 47.126069572], [-119.302600145, 47.126069572], [-119.302600144, 47.126069572], [-119.302600143, 47.126069571], [-119.302600142, 47.126069571], [-119.302600141, 47.126069571], [-119.302133132, 47.126039055], [-119.302133131, 47.126039055], [-119.30213313, 47.126039055], [-119.302133129, 47.126039056], [-119.301228061, 47.126234923], [-119.30122806, 47.126234923], [-119.300703402, 47.126411077], [-119.299533477, 47.126777624], [-119.299529035, 47.126776018], [-119.299525758, 47.126631213], [-119.29957116, 47.124975812], [-119.299573882, 47.124876567], [-119.299573882, 47.124876566], [-119.299573319, 47.124777285], [-119.299572827, 47.124690691], [-119.299569151, 47.124042571], [-119.299569151, 47.124042571], [-119.299569151, 47.124042571], [-119.299568706, 47.123963945], [-119.299567825, 47.123808741], [-119.299574473, 47.123661515], [-119.299709738, 47.123603007], [-119.304975978, 47.121636117], [-119.308798375, 47.120208488], [-119.308798376, 47.120208487], [-119.308798377, 47.120208487], [-119.308798378, 47.120208486], [-119.308798378, 47.120208486], [-119.308798379, 47.120208485], [-119.30879838, 47.120208484], [-119.30879838, 47.120208483], [-119.308798381, 47.120208482], [-119.308798381, 47.120208481], [-119.308798381, 47.12020848], [-119.308798382, 47.120208479], [-119.308798382, 47.120208478], [-119.30884121, 47.116707506], [-119.30885081, 47.116645863], [-119.308851748, 47.116644853], [-119.30896449, 47.11664621], [-119.310427881, 47.116663645], [-119.310429943, 47.11666367], [-119.310429944, 47.11666367], [-119.310429945, 47.11666367], [-119.310429946, 47.11666367], [-119.310429947, 47.116663669], [-119.310429948, 47.116663669], [-119.310429949, 47.116663668], [-119.310429949, 47.116663668], [-119.31042995, 47.116663667], [-119.310429951, 47.116663666], [-119.310429951, 47.116663666], [-119.310429952, 47.116663665], [-119.310429952, 47.116663664], [-119.310429953, 47.116663663], [-119.310429953, 47.116663662], [-119.310429953, 47.116663661], [-119.310429953, 47.11666366], [-119.310429954, 47.116663578], [-119.310434988, 47.116157715], [-119.310469212, 47.112718307], [-119.310470339, 47.112604995], [-119.310491228, 47.110505467], [-119.310502957, 47.109326594], [-119.310511133, 47.109187299], [-119.310650481, 47.109180083], [-119.313020522, 47.109172833], [-119.313417899, 47.109171618], [-119.3134179, 47.109171618], [-119.3134179, 47.109171618], [-119.316353534, 47.109162638], [-119.321142002, 47.109147991], [-119.321142591, 47.109147988], [-119.321142592, 47.109147988], [-119.321142593, 47.109147988], [-119.321142594, 47.109147988], [-119.321142595, 47.109147988], [-119.321142596, 47.109147987], [-119.321142597, 47.109147987], [-119.321142598, 47.109147986], [-119.321142598, 47.109147986], [-119.321142599, 47.109147985], [-119.321142599, 47.109147984], [-119.3211426, 47.109147983], [-119.3211426, 47.109147982], [-119.321142601, 47.109147981], [-119.321142601, 47.10914798], [-119.321142601, 47.109147979], [-119.321142601, 47.109147978], [-119.321142608, 47.109138764], [-119.321144242, 47.106751124], [-119.321148021, 47.106746171], [-119.321294388, 47.106743542], [-119.325241689, 47.106870299], [-119.327458096, 47.106941474], [-119.327597199, 47.106952583], [-119.327657039, 47.107033901], [-119.327981736, 47.107650472], [-119.328021265, 47.107726321], [-119.328028786, 47.107743883], [-119.328028787, 47.107743884], [-119.328028787, 47.107743884], [-119.328028788, 47.107743885], [-119.328028788, 47.107743886], [-119.328584432, 47.108303309], [-119.328584433, 47.10830331], [-119.328584434, 47.108303311], [-119.328584435, 47.108303311], [-119.328584436, 47.108303311], [-119.328978301, 47.108451933], [-119.329084094, 47.108539239], [-119.329098042, 47.108550427], [-119.329118616, 47.108569098], [-119.329118616, 47.108569099], [-119.329214452, 47.108643799], [-119.329480192, 47.108850936], [-119.329480192, 47.108850936], [-119.32951933, 47.10888197], [-119.329841763, 47.109142042], [-119.32989403, 47.109185183], [-119.330012633, 47.109285352], [-119.330061111, 47.109326296], [-119.330061112, 47.109326297], [-119.330110445, 47.109366206], [-119.3301535, 47.109401036], [-119.330284131, 47.109513063], [-119.330777015, 47.109960918], [-119.330879068, 47.110053648], [-119.331577624, 47.110904713], [-119.331577624, 47.110904714], [-119.331577625, 47.110904714], [-119.331577626, 47.110904715], [-119.331577627, 47.110904716], [-119.331577628, 47.110904716], [-119.331577629, 47.110904716], [-119.33157763, 47.110904717], [-119.331577631, 47.110904717], [-119.331875134, 47.110921163], [-119.332674964, 47.1111292], [-119.332741679, 47.11115672], [-119.333281631, 47.111541517], [-119.333281632, 47.111541517], [-119.333281633, 47.111541518], [-119.333281634, 47.111541518], [-119.333281635, 47.111541518], [-119.333298908, 47.111544753], [-119.334190102, 47.111711646], [-119.334190103, 47.111711646], [-119.334914232, 47.111774876], [-119.335077114, 47.111789098], [-119.335077114, 47.111789098], [-119.3351944, 47.111804026], [-119.335310142, 47.111828163], [-119.335477065, 47.111869913], [-119.335858009, 47.111965194], [-119.336003235, 47.11200953], [-119.336017968, 47.112022092], [-119.336448517, 47.112798607], [-119.336448517, 47.112798608], [-119.336448518, 47.112798609], [-119.336448518, 47.11279861], [-119.336448519, 47.11279861], [-119.33644852, 47.112798611], [-119.336448521, 47.112798611], [-119.336448522, 47.112798612], [-119.337300535, 47.113144451], [-119.337300536, 47.113144451], [-119.337300536, 47.113144451], [-119.338481106, 47.113425202], [-119.338522242, 47.113439203], [-119.338544844, 47.113445573], [-119.338656252, 47.113497953], [-119.339282644, 47.11382462], [-119.339449663, 47.113919595], [-119.339446858, 47.114061559], [-119.339270892, 47.116624466], [-119.339254148, 47.11676704], [-119.339252711, 47.116769648], [-119.338975205, 47.116783967]], [[-119.320953791, 47.123935856], [-119.320953791, 47.123935855], [-119.32095379, 47.123935854], [-119.32095379, 47.123935854], [-119.320953789, 47.123935853], [-119.320953788, 47.123935852], [-119.320953788, 47.123935851], [-119.320953787, 47.123935851], [-119.320953786, 47.12393585], [-119.320953785, 47.12393585], [-119.320953784, 47.12393585], [-119.320953783, 47.123935849], [-119.320953782, 47.123935849], [-119.320953781, 47.123935849], [-119.312605816, 47.123839234], [-119.312590959, 47.123382345], [-119.312590959, 47.123382344], [-119.312590959, 47.123382343], [-119.312590959, 47.123382342], [-119.312590958, 47.123382341], [-119.312590958, 47.12338234], [-119.312590957, 47.123382339], [-119.312590957, 47.123382339], [-119.312590956, 47.123382338], [-119.312590955, 47.123382337], [-119.312590955, 47.123382337], [-119.312590954, 47.123382336], [-119.312590953, 47.123382336], [-119.312590952, 47.123382336], [-119.312590951, 47.123382335], [-119.31259095, 47.123382335], [-119.312590949, 47.123382335], [-119.312435118, 47.123380367], [-119.312435117, 47.123380366], [-119.310874884, 47.123360656], [-119.310874883, 47.123360656], [-119.310874882, 47.123360656], [-119.310874881, 47.123360657], [-119.31087488, 47.123360657], [-119.310874879, 47.123360657], [-119.310874878, 47.123360658], [-119.310874877, 47.123360658], [-119.310874877, 47.123360659], [-119.310874876, 47.12336066], [-119.310874875, 47.12336066], [-119.310874875, 47.123360661], [-119.310874874, 47.123360662], [-119.310874874, 47.123360663], [-119.310874874, 47.123360664], [-119.310874874, 47.123360665], [-119.310874873, 47.123360666], [-119.310858244, 47.123742097], [-119.310706294, 47.123938038], [-119.31061178, 47.124053706], [-119.310611779, 47.124053707], [-119.310611779, 47.124053708], [-119.310611778, 47.124053709], [-119.310611778, 47.12405371], [-119.310572352, 47.124211096], [-119.310572352, 47.124211097], [-119.310572352, 47.124211098], [-119.310572352, 47.1242111], [-119.310585043, 47.12438522], [-119.310585043, 47.124385221], [-119.310587458, 47.124399041], [-119.310587458, 47.124399041], [-119.310587458, 47.124399042], [-119.310587458, 47.124399043], [-119.310605206, 47.124500633], [-119.310601273, 47.124677941], [-119.310601273, 47.124677942], [-119.310601273, 47.124677943], [-119.310645332, 47.124896392], [-119.310660606, 47.125064819], [-119.310661018, 47.125152827], [-119.310661018, 47.125152827], [-119.310661018, 47.125152828], [-119.310661018, 47.125152829], [-119.310661019, 47.12515283], [-119.310661019, 47.125152831], [-119.31066102, 47.125152832], [-119.310752086, 47.125300749], [-119.310752086, 47.125300749], [-119.310925066, 47.125535144], [-119.31098868, 47.12567656], [-119.310950032, 47.125824305], [-119.310823879, 47.125884171], [-119.310677358, 47.125865279], [-119.310677357, 47.125865279], [-119.310469331, 47.125866631], [-119.31046933, 47.125866631], [-119.310469329, 47.125866632], [-119.310469328, 47.125866632], [-119.310469327, 47.125866632], [-119.310469326, 47.125866633], [-119.310469325, 47.125866633], [-119.310310199, 47.125978996], [-119.310310198, 47.125978997], [-119.310310197, 47.125978997], [-119.310310197, 47.125978998], [-119.310310196, 47.125978999], [-119.310310195, 47.125979], [-119.310310195, 47.125979001], [-119.310237146, 47.126196027], [-119.310237146, 47.126196028], [-119.310237145, 47.126196029], [-119.310203973, 47.126449912], [-119.310088795, 47.126703229], [-119.310033565, 47.126799785], [-119.310033564, 47.126799786], [-119.310033564, 47.126799787], [-119.310033564, 47.126799788], [-119.310033563, 47.126799789], [-119.310033563, 47.12679979], [-119.310033563, 47.126799791], [-119.310046163, 47.126970186], [-119.310014802, 47.127214288], [-119.309927763, 47.127398183], [-119.309803198, 47.127598368], [-119.309803198, 47.127598369], [-119.309661708, 47.12786898], [-119.309661707, 47.127868981], [-119.309661707, 47.127868982], [-119.309617364, 47.1280169], [-119.309617364, 47.128016901], [-119.309617364, 47.128016902], [-119.309617364, 47.128016903], [-119.309617364, 47.128016904], [-119.309617364, 47.128016905], [-119.309617364, 47.128016906], [-119.309617365, 47.128016907], [-119.309617365, 47.128016908], [-119.309707563, 47.128186486], [-119.309827429, 47.128534185], [-119.30982743, 47.128534187], [-119.309938144, 47.128752139], [-119.309938144, 47.12875214], [-119.309938145, 47.12875214], [-119.309938145, 47.128752141], [-119.310083002, 47.128909125], [-119.310113861, 47.129060933], [-119.309981041, 47.129085136], [-119.309896696, 47.129034354], [-119.309896695, 47.129034354], [-119.309811521, 47.128993924], [-119.30981152, 47.128993924], [-119.309811519, 47.128993923], [-119.309811518, 47.128993923], [-119.309811517, 47.128993923], [-119.309811516, 47.128993923], [-119.309811515, 47.128993923], [-119.309811514, 47.128993923], [-119.309811513, 47.128993924], [-119.309811512, 47.128993924], [-119.309811512, 47.128993925], [-119.309811511, 47.128993925], [-119.30981151, 47.128993926], [-119.309811509, 47.128993926], [-119.309738459, 47.129074328], [-119.309738458, 47.129074329], [-119.309738458, 47.12907433], [-119.309738457, 47.129074331], [-119.309738457, 47.129074332], [-119.309738457, 47.129074333], [-119.309738457, 47.129074334], [-119.309721483, 47.129182703], [-119.309721483, 47.129182704], [-119.309721483, 47.129182705], [-119.309721483, 47.129182706], [-119.309721484, 47.129182707], [-119.309721484, 47.129182708], [-119.309795967, 47.129371468], [-119.30978393, 47.129630822], [-119.309617581, 47.130114905], [-119.309617581, 47.130114906], [-119.309617581, 47.130114907], [-119.309617581, 47.130114908], [-119.309605289, 47.130305331], [-119.309605289, 47.130305332], [-119.309615096, 47.130449254], [-119.309615096, 47.130449255], [-119.309615096, 47.130449256], [-119.309615097, 47.130449257], [-119.309615097, 47.130449258], [-119.309688067, 47.130579981], [-119.30971948, 47.130696315], [-119.30971948, 47.130696316], [-119.309719481, 47.130696317], [-119.309719481, 47.130696318], [-119.309719482, 47.130696318], [-119.309719482, 47.130696319], [-119.309984199, 47.130964566], [-119.309984199, 47.130964567], [-119.3099842, 47.130964567], [-119.310141566, 47.131068642], [-119.310141567, 47.131068643], [-119.310141567, 47.131068643], [-119.310141568, 47.131068644], [-119.310141569, 47.131068644], [-119.310362371, 47.131113833], [-119.310655518, 47.131401059], [-119.310655519, 47.13140106], [-119.31065552, 47.13140106], [-119.310655521, 47.131401061], [-119.310655522, 47.131401061], [-119.310655522, 47.131401062], [-119.310655523, 47.131401062], [-119.310655524, 47.131401062], [-119.310655525, 47.131401062], [-119.311879393, 47.131408133], [-119.311879393, 47.131408133], [-119.316162486, 47.131432878], [-119.316161713, 47.132417907], [-119.316161713, 47.132417908], [-119.316161713, 47.132417909], [-119.316161713, 47.13241791], [-119.316161713, 47.132417911], [-119.316161714, 47.132417912], [-119.316161714, 47.132417913], [-119.316161715, 47.132417913], [-119.316161715, 47.132417914], [-119.316161716, 47.132417915], [-119.316161717, 47.132417915], [-119.316161718, 47.132417916], [-119.316161719, 47.132417916], [-119.31616172, 47.132417917], [-119.31616172, 47.132417917], [-119.316161721, 47.132417917], [-119.316161722, 47.132417917], [-119.317108619, 47.1324357], [-119.317068813, 47.133779555], [-119.317068813, 47.133779556], [-119.317068813, 47.133779557], [-119.317068813, 47.133779558], [-119.317068814, 47.133779559], [-119.317068814, 47.13377956], [-119.317068815, 47.133779561], [-119.317068815, 47.133779562], [-119.317068816, 47.133779563], [-119.317068816, 47.133779563], [-119.317068817, 47.133779564], [-119.317068818, 47.133779564], [-119.317068819, 47.133779565], [-119.31706882, 47.133779565], [-119.317068821, 47.133779565], [-119.317068822, 47.133779566], [-119.317068823, 47.133779566], [-119.320332025, 47.133847825], [-119.320317127, 47.134217897], [-119.320317127, 47.134217898], [-119.320317127, 47.134217899], [-119.320317127, 47.1342179], [-119.320317127, 47.134217901], [-119.320317128, 47.134217902], [-119.320317128, 47.134217903], [-119.320317129, 47.134217904], [-119.32031713, 47.134217904], [-119.32031713, 47.134217905], [-119.320317131, 47.134217906], [-119.320317132, 47.134217906], [-119.320317133, 47.134217907], [-119.320317134, 47.134217907], [-119.320317135, 47.134217907], [-119.320317136, 47.134217908], [-119.320317137, 47.134217908], [-119.321197889, 47.134232543], [-119.321188005, 47.134650576], [-119.321188005, 47.134650577], [-119.321188005, 47.134650578], [-119.321188005, 47.134650579], [-119.321188006, 47.13465058], [-119.321188006, 47.134650581], [-119.321188007, 47.134650581], [-119.321188007, 47.134650582], [-119.321188008, 47.134650583], [-119.321188008, 47.134650584], [-119.321188009, 47.134650584], [-119.32118801, 47.134650585], [-119.321188011, 47.134650585], [-119.321188012, 47.134650586], [-119.321188013, 47.134650586], [-119.321188014, 47.134650586], [-119.321188015, 47.134650586], [-119.321188015, 47.134650586], [-119.321188016, 47.134650586], [-119.322502162, 47.134462378], [-119.322502162, 47.134462378], [-119.323106209, 47.134365813], [-119.323106209, 47.134365813], [-119.323441984, 47.134298225], [-119.323441985, 47.134298225], [-119.324092373, 47.134116451], [-119.324092374, 47.134116451], [-119.324718646, 47.133869203], [-119.324718647, 47.133869203], [-119.325821749, 47.13341124], [-119.32582175, 47.133411239], [-119.32582175, 47.133411239], [-119.325821751, 47.133411238], [-119.325821752, 47.133411238], [-119.325821753, 47.133411237], [-119.325821753, 47.133411236], [-119.325821754, 47.133411235], [-119.325821754, 47.133411234], [-119.325821754, 47.133411233], [-119.325821755, 47.133411232], [-119.325821755, 47.133411231], [-119.325821755, 47.13341123], [-119.325821755, 47.133411229], [-119.325821755, 47.133411228], [-119.325821754, 47.133411227], [-119.325821754, 47.133411227], [-119.325821754, 47.133411226], [-119.325821753, 47.133411225], [-119.325821752, 47.133411224], [-119.325378269, 47.132896502], [-119.325269917, 47.132706828], [-119.325196531, 47.132512804], [-119.325170006, 47.132395459], [-119.325154641, 47.132240625], [-119.325162591, 47.131745981], [-119.32516259, 47.131745981], [-119.325124997, 47.130530186], [-119.325124997, 47.130530185], [-119.325111811, 47.130263231], [-119.325111811, 47.13026323], [-119.325056318, 47.129868968], [-119.325056318, 47.129868967], [-119.325056318, 47.129868967], [-119.325056317, 47.129868966], [-119.325056317, 47.129868965], [-119.324871227, 47.129539], [-119.324871227, 47.129538999], [-119.324871226, 47.129538998], [-119.324871225, 47.129538998], [-119.324871225, 47.129538997], [-119.324241619, 47.1290186], [-119.324241619, 47.129018599], [-119.324241618, 47.129018599], [-119.324241617, 47.129018599], [-119.324241616, 47.129018598], [-119.323716758, 47.128838281], [-119.323716757, 47.12883828], [-119.323061987, 47.128667524], [-119.321882255, 47.12834997], [-119.321247427, 47.128054265], [-119.321007483, 47.127810828], [-119.320939456, 47.127639028], [-119.320953492, 47.125887176], [-119.320953669, 47.124732431], [-119.320953669, 47.124732431], [-119.320953791, 47.123935859], [-119.320953791, 47.123935858], [-119.320953791, 47.123935857], [-119.320953791, 47.123935856]], [[-119.304396477, 47.125886949], [-119.304396478, 47.12588695], [-119.304396479, 47.12588695], [-119.304679649, 47.125974067], [-119.30467965, 47.125974067], [-119.304679651, 47.125974067], [-119.304866435, 47.125992765], [-119.304866436, 47.125992765], [-119.304866437, 47.125992765], [-119.304866438, 47.125992764], [-119.305193185, 47.125938533], [-119.305193186, 47.125938533], [-119.305193186, 47.125938533], [-119.305193187, 47.125938532], [-119.305193188, 47.125938532], [-119.305193189, 47.125938531], [-119.305298663, 47.125861211], [-119.305689045, 47.125940096], [-119.305689046, 47.125940097], [-119.306034542, 47.125960297], [-119.3063189, 47.126026826], [-119.306318901, 47.126026826], [-119.306318902, 47.126026826], [-119.306318903, 47.126026826], [-119.306318904, 47.126026826], [-119.306318905, 47.126026826], [-119.306413543, 47.126002842], [-119.306413545, 47.126002842], [-119.306635794, 47.125915965], [-119.306956531, 47.125875775], [-119.307150285, 47.125901642], [-119.307150286, 47.125901642], [-119.307150287, 47.125901642], [-119.307413135, 47.125888589], [-119.307632308, 47.125886762], [-119.307632309, 47.125886762], [-119.30763231, 47.125886762], [-119.307632311, 47.125886761], [-119.307632312, 47.125886761], [-119.307632313, 47.125886761], [-119.307953737, 47.125714013], [-119.308114658, 47.125627799], [-119.308114659, 47.125627799], [-119.30811466, 47.125627799], [-119.30811466, 47.125627798], [-119.308114661, 47.125627797], [-119.308114661, 47.125627797], [-119.308284973, 47.125395042], [-119.308284974, 47.125395041], [-119.308284974, 47.12539504], [-119.308284974, 47.125395039], [-119.308284975, 47.125395038], [-119.308284975, 47.125395037], [-119.308284975, 47.125395036], [-119.308284533, 47.125084719], [-119.308317087, 47.124886815], [-119.308446547, 47.124845087], [-119.308446548, 47.124845087], [-119.308446549, 47.124845087], [-119.308446549, 47.124845086], [-119.30844655, 47.124845086], [-119.308446551, 47.124845085], [-119.308446552, 47.124845084], [-119.308446552, 47.124845083], [-119.308446553, 47.124845082], [-119.308446553, 47.124845081], [-119.308479259, 47.124757722], [-119.308479259, 47.124757721], [-119.30847926, 47.12475772], [-119.30847926, 47.124757719], [-119.30847926, 47.124757718], [-119.30847926, 47.124757717], [-119.308479259, 47.124757716], [-119.308479259, 47.124757715], [-119.308479259, 47.124757714], [-119.308479258, 47.124757714], [-119.308479258, 47.124757713], [-119.308383719, 47.124624854], [-119.308383718, 47.124624854], [-119.308383717, 47.124624853], [-119.308383716, 47.124624852], [-119.308383716, 47.124624852], [-119.308383715, 47.124624851], [-119.308383714, 47.124624851], [-119.308255663, 47.124579443], [-119.308255662, 47.124579442], [-119.308255662, 47.124579442], [-119.308127546, 47.124555993], [-119.308127545, 47.124555992], [-119.308127544, 47.124555992], [-119.308127543, 47.124555993], [-119.308127542, 47.124555993], [-119.308127541, 47.124555993], [-119.30812754, 47.124555993], [-119.308127539, 47.124555994], [-119.307933568, 47.124662728], [-119.30774056, 47.124704018], [-119.30774056, 47.124704018], [-119.307740559, 47.124704018], [-119.307418168, 47.124831043], [-119.307096944, 47.124892716], [-119.306808592, 47.124911228], [-119.30680859, 47.124911228], [-119.30680859, 47.124911228], [-119.306808589, 47.124911228], [-119.306808588, 47.124911229], [-119.306389328, 47.125124522], [-119.305952784, 47.12525149], [-119.305522582, 47.125376612], [-119.304405351, 47.1256742], [-119.30440535, 47.1256742], [-119.304405349, 47.125674201], [-119.304405348, 47.125674201], [-119.304405347, 47.125674202], [-119.304405346, 47.125674203], [-119.304405346, 47.125674203], [-119.304405345, 47.125674204], [-119.304405345, 47.125674205], [-119.304405344, 47.125674206], [-119.304369261, 47.125758393], [-119.304369261, 47.125758394], [-119.30436926, 47.125758395], [-119.30436926, 47.125758396], [-119.30436926, 47.125758397], [-119.30436926, 47.125758398], [-119.304369261, 47.125758399], [-119.304396472, 47.125886943], [-119.304396472, 47.125886944], [-119.304396472, 47.125886944], [-119.304396473, 47.125886945], [-119.304396473, 47.125886946], [-119.304396474, 47.125886947], [-119.304396475, 47.125886948], [-119.304396475, 47.125886948], [-119.304396476, 47.125886949], [-119.304396477, 47.125886949]]], [[[-119.275061, 47.145926], [-119.281641, 47.14614], [-119.281328, 47.15063], [-119.274746, 47.150416], [-119.275061, 47.145926]]], [[[-119.276385, 47.155332], [-119.276699, 47.150842], [-119.283281, 47.151056], [-119.282967, 47.155546], [-119.276385, 47.155332]]], [[[-119.295242166, 47.159824855], [-119.294891962, 47.159581596], [-119.294743828, 47.159471798], [-119.294276723, 47.159102799], [-119.294178964, 47.159025573], [-119.294178206, 47.159024975], [-119.292264518, 47.157514221], [-119.292264485, 47.157514195], [-119.292264205, 47.157513975], [-119.291703491, 47.157071213], [-119.291703476, 47.157071201], [-119.291627205, 47.157010975], [-119.291549024, 47.15695325], [-119.29057696, 47.156235532], [-119.290576205, 47.156234975], [-119.28742634, 47.153910813], [-119.287426327, 47.153910803], [-119.287425204, 47.153909975], [-119.28640749, 47.153159775], [-119.286375203, 47.153135975], [-119.286342601, 47.153112609], [-119.285328857, 47.152386051], [-119.284225928, 47.151595573], [-119.284109563, 47.151502854], [-119.28411235, 47.151354092], [-119.284208496, 47.14997626], [-119.284232681, 47.149629669], [-119.284249965, 47.149486325], [-119.284394223, 47.149480345], [-119.284394224, 47.149480345], [-119.288748538, 47.149519117], [-119.288893365, 47.149527533], [-119.288895885, 47.14952944], [-119.28888626, 47.150439188], [-119.28888626, 47.150439189], [-119.28888626, 47.15043919], [-119.288910942, 47.150566233], [-119.288910943, 47.150566234], [-119.288910943, 47.150566234], [-119.288910943, 47.150566235], [-119.288910944, 47.150566236], [-119.288910944, 47.150566237], [-119.288910945, 47.150566238], [-119.288910946, 47.150566238], [-119.288910947, 47.150566239], [-119.288910947, 47.150566239], [-119.288910948, 47.15056624], [-119.288910949, 47.15056624], [-119.28891095, 47.15056624], [-119.288910951, 47.150566241], [-119.288910952, 47.150566241], [-119.290177099, 47.150580632], [-119.290164916, 47.150931852], [-119.290164916, 47.150931853], [-119.290164916, 47.150931854], [-119.290164916, 47.150931855], [-119.290164917, 47.150931856], [-119.290164917, 47.150931857], [-119.290164918, 47.150931858], [-119.290164918, 47.150931859], [-119.290164919, 47.150931859], [-119.290164919, 47.15093186], [-119.29016492, 47.150931861], [-119.290164921, 47.150931861], [-119.290164922, 47.150931862], [-119.290164923, 47.150931862], [-119.290164924, 47.150931862], [-119.290164925, 47.150931862], [-119.290164926, 47.150931862], [-119.290451562, 47.150935283], [-119.290451563, 47.150935283], [-119.290451564, 47.150935282], [-119.290451565, 47.150935282], [-119.290451566, 47.150935282], [-119.290451567, 47.150935282], [-119.290451567, 47.150935281], [-119.290451568, 47.15093528], [-119.290451569, 47.15093528], [-119.29045157, 47.150935279], [-119.29045157, 47.150935278], [-119.290451571, 47.150935278], [-119.290451571, 47.150935277], [-119.290451572, 47.150935276], [-119.290451572, 47.150935275], [-119.290451572, 47.150935274], [-119.290451572, 47.150935273], [-119.290463757, 47.150583888], [-119.290983919, 47.150595742], [-119.291005197, 47.150602721], [-119.290999163, 47.150790974], [-119.290999163, 47.150790975], [-119.290999163, 47.150790976], [-119.290999164, 47.150790977], [-119.290999164, 47.150790978], [-119.290999164, 47.150790979], [-119.290999165, 47.15079098], [-119.290999165, 47.15079098], [-119.290999166, 47.150790981], [-119.290999167, 47.150790982], [-119.290999167, 47.150790982], [-119.290999168, 47.150790983], [-119.290999169, 47.150790983], [-119.29099917, 47.150790984], [-119.290999171, 47.150790984], [-119.290999172, 47.150790984], [-119.290999173, 47.150790984], [-119.291484694, 47.150797444], [-119.291482275, 47.150869517], [-119.291455136, 47.150870559], [-119.291455135, 47.150870559], [-119.291455134, 47.15087056], [-119.291455133, 47.15087056], [-119.291455132, 47.15087056], [-119.291455132, 47.150870561], [-119.291455131, 47.150870561], [-119.29145513, 47.150870562], [-119.291455129, 47.150870562], [-119.291455129, 47.150870563], [-119.291455128, 47.150870564], [-119.291455128, 47.150870565], [-119.291455127, 47.150870565], [-119.291455127, 47.150870566], [-119.291455127, 47.150870567], [-119.291455127, 47.150870568], [-119.291455126, 47.150870569], [-119.291454413, 47.150946967], [-119.29142424, 47.150946942], [-119.291424239, 47.150946942], [-119.291424238, 47.150946943], [-119.291424237, 47.150946943], [-119.291424236, 47.150946943], [-119.291424235, 47.150946944], [-119.291424234, 47.150946944], [-119.291424233, 47.150946945], [-119.291424233, 47.150946945], [-119.291424232, 47.150946946], [-119.291424231, 47.150946947], [-119.291424231, 47.150946948], [-119.29142423, 47.150946949], [-119.29142423, 47.150946949], [-119.29142423, 47.15094695], [-119.29142423, 47.150946951], [-119.29142423, 47.150946952], [-119.291423973, 47.15097436], [-119.291401878, 47.150974342], [-119.291401877, 47.150974342], [-119.291401876, 47.150974342], [-119.291401875, 47.150974342], [-119.291401874, 47.150974342], [-119.291401873, 47.150974343], [-119.291401873, 47.150974343], [-119.291401872, 47.150974344], [-119.291401871, 47.150974345], [-119.29140187, 47.150974345], [-119.29140187, 47.150974346], [-119.291401869, 47.150974347], [-119.291401869, 47.150974348], [-119.291401869, 47.150974349], [-119.291401868, 47.15097435], [-119.291401868, 47.150974351], [-119.291401868, 47.150974352], [-119.291399211, 47.151248512], [-119.291117885, 47.151248281], [-119.291117884, 47.151248281], [-119.291117883, 47.151248281], [-119.291117882, 47.151248281], [-119.291117882, 47.151248282], [-119.291117881, 47.151248282], [-119.29111788, 47.151248283], [-119.291117879, 47.151248283], [-119.291117878, 47.151248284], [-119.291117878, 47.151248285], [-119.291117877, 47.151248285], [-119.291117877, 47.151248286], [-119.291117876, 47.151248287], [-119.291117876, 47.151248288], [-119.291117876, 47.151248289], [-119.291117875, 47.15124829], [-119.291117875, 47.151248291], [-119.29111708, 47.151330542], [-119.29111708, 47.151330543], [-119.29111708, 47.151330544], [-119.29111708, 47.151330545], [-119.29111708, 47.151330546], [-119.291117081, 47.151330547], [-119.291117081, 47.151330548], [-119.291117082, 47.151330548], [-119.291117083, 47.151330549], [-119.291117083, 47.15133055], [-119.291117084, 47.15133055], [-119.291117085, 47.151330551], [-119.291117086, 47.151330551], [-119.291117087, 47.151330552], [-119.291117088, 47.151330552], [-119.291117089, 47.151330552], [-119.29111709, 47.151330552], [-119.292750066, 47.151339095], [-119.292750067, 47.151339095], [-119.292750068, 47.151339095], [-119.292750069, 47.151339094], [-119.29275007, 47.151339094], [-119.29275007, 47.151339094], [-119.292750071, 47.151339093], [-119.292750072, 47.151339093], [-119.292750073, 47.151339092], [-119.292750073, 47.151339091], [-119.292750074, 47.151339091], [-119.292750075, 47.15133909], [-119.292750075, 47.151339089], [-119.292750075, 47.151339088], [-119.292750076, 47.151339087], [-119.292750076, 47.151339086], [-119.292750076, 47.151339085], [-119.29276348, 47.15093264], [-119.292922077, 47.150934147], [-119.293151102, 47.150936322], [-119.293476343, 47.150939411], [-119.294135609, 47.150945672], [-119.294109716, 47.151337084], [-119.294109716, 47.151337085], [-119.294109716, 47.151337086], [-119.294109716, 47.151337087], [-119.294109716, 47.151337088], [-119.294109717, 47.151337089], [-119.294109717, 47.15133709], [-119.294109718, 47.15133709], [-119.294109718, 47.151337091], [-119.294109719, 47.151337092], [-119.29410972, 47.151337092], [-119.29410972, 47.151337093], [-119.294109721, 47.151337093], [-119.294109722, 47.151337094], [-119.294109723, 47.151337094], [-119.294109724, 47.151337094], [-119.294109725, 47.151337095], [-119.294109726, 47.151337095], [-119.294316415, 47.151340159], [-119.294263578, 47.154392316], [-119.294263578, 47.154392317], [-119.294263579, 47.154392318], [-119.294263579, 47.154392319], [-119.294263579, 47.15439232], [-119.29426358, 47.154392321], [-119.29426358, 47.154392322], [-119.294263581, 47.154392323], [-119.294263581, 47.154392324], [-119.294263582, 47.154392324], [-119.294263583, 47.154392325], [-119.294263584, 47.154392325], [-119.294263585, 47.154392326], [-119.294263585, 47.154392326], [-119.294263586, 47.154392326], [-119.294263587, 47.154392326], [-119.294263588, 47.154392327], [-119.29637017, 47.154396135], [-119.296362486, 47.155519525], [-119.2942463, 47.155495086], [-119.294246299, 47.155495086], [-119.294246298, 47.155495087], [-119.294246297, 47.155495087], [-119.294246296, 47.155495087], [-119.294246295, 47.155495087], [-119.294246295, 47.155495088], [-119.294246294, 47.155495088], [-119.294246293, 47.155495089], [-119.294246292, 47.15549509], [-119.294246292, 47.155495091], [-119.294246291, 47.155495091], [-119.294246291, 47.155495092], [-119.294246291, 47.155495093], [-119.29424629, 47.155495094], [-119.29424629, 47.155495095], [-119.29424629, 47.155495096], [-119.294240251, 47.155609265], [-119.294240251, 47.155609266], [-119.294236235, 47.157102177], [-119.294236235, 47.157102178], [-119.294236235, 47.157102179], [-119.294236235, 47.15710218], [-119.294236236, 47.157102181], [-119.294236236, 47.157102182], [-119.294236237, 47.157102183], [-119.294236237, 47.157102183], [-119.294236238, 47.157102184], [-119.294236239, 47.157102185], [-119.294236239, 47.157102185], [-119.29423624, 47.157102186], [-119.294236241, 47.157102186], [-119.294236242, 47.157102187], [-119.294236243, 47.157102187], [-119.294236244, 47.157102187], [-119.294236245, 47.157102187], [-119.296892505, 47.157119197], [-119.297464475, 47.157147231], [-119.297464476, 47.157147231], [-119.299438615, 47.157163365], [-119.29938829, 47.159987302], [-119.299381158, 47.160029752], [-119.299238831, 47.160032205], [-119.295503861, 47.159911493], [-119.295362436, 47.159900125], [-119.295242166, 47.159824855]]], [[[-119.322415, 47.176962], [-119.31583, 47.17675], [-119.316057, 47.173481], [-119.31408, 47.173417], [-119.314121, 47.172835], [-119.314052, 47.172833], [-119.314205, 47.170624], [-119.312942, 47.170583], [-119.313007, 47.169631], [-119.312114, 47.169602], [-119.312383, 47.165727], [-119.310525, 47.165667], [-119.310836, 47.161177], [-119.317419, 47.161389], [-119.317151, 47.165265], [-119.319009, 47.165325], [-119.318943, 47.166276], [-119.319836, 47.166305], [-119.319683, 47.168514], [-119.320947, 47.168555], [-119.320907, 47.169137], [-119.320975, 47.169139], [-119.32075, 47.172397], [-119.323086, 47.172472], [-119.322776, 47.176962], [-119.322416, 47.17695], [-119.322415, 47.176962]]], [[[-119.331115, 47.181028], [-119.330805, 47.185518], [-119.324219, 47.185306], [-119.324529, 47.180816], [-119.331115, 47.181028]]]]}, "properties": {}}]}