{"type": "FeatureCollection", "features": [{"type": "Feature", "geometry": {"type": "MultiPolygon", "coordinates": [[[[-117.044602854, 48.166532587], [-117.047307157, 48.166506578], [-117.047221996, 48.170155557], [-117.044517437, 48.170174589], [-117.044602854, 48.166532587]]], [[[-117.297847, 48.178667], [-117.298345, 48.17419], [-117.305037, 48.174523], [-117.30454, 48.178999], [-117.297847, 48.178667]]], [[[-117.0745041, 48.166661483], [-117.074491186, 48.166871162], [-117.074695889, 48.166876694], [-117.074722628, 48.164855576], [-117.080219068, 48.16488809], [-117.081735364, 48.164966447], [-117.080152851, 48.166539397], [-117.079990433, 48.166700828], [-117.079849749, 48.166808038], [-117.077911811, 48.166753531], [-117.077221502, 48.167251473], [-117.076599009, 48.167592744], [-117.073669047, 48.169124764], [-117.072080648, 48.169853282], [-117.071156425, 48.170283893], [-117.072990247, 48.170293374], [-117.071942888, 48.170759374], [-117.070847246, 48.171229794], [-117.069901157, 48.171568026], [-117.069066257, 48.171801641], [-117.069070891, 48.171657228], [-117.067287814, 48.172011821], [-117.058029345, 48.173452825], [-117.057748672, 48.173499697], [-117.055659628, 48.173848535], [-117.050790049, 48.174658687], [-117.049259653, 48.174968588], [-117.048723321, 48.175140612], [-117.048170357, 48.1752948], [-117.047521209, 48.175479137], [-117.047502034, 48.175487628], [-117.047169579, 48.175634854], [-117.047157046, 48.176528605], [-117.047170057, 48.176522915], [-117.048006244, 48.176157267], [-117.048150758, 48.176109365], [-117.048302931, 48.176058924], [-117.048465207, 48.176011118], [-117.048771877, 48.175920774], [-117.048774754, 48.175920178], [-117.049163183, 48.17583972], [-117.049457871, 48.175795851], [-117.049858028, 48.175756411], [-117.050128284, 48.175747688], [-117.05051234, 48.175756787], [-117.0532453, 48.175872124], [-117.054809552, 48.17593811], [-117.056084971, 48.175993093], [-117.057452684, 48.17605204], [-117.057855739, 48.176069408], [-117.058583699, 48.176080322], [-117.058583859, 48.176080311], [-117.058633874, 48.176076537], [-117.058635579, 48.176076409], [-117.059450744, 48.176014922], [-117.060349761, 48.175893374], [-117.060350277, 48.175893257], [-117.061091683, 48.17572539], [-117.061482542, 48.175619017], [-117.061683055, 48.175564446], [-117.062517293, 48.175263352], [-117.06301098, 48.175040251], [-117.063241337, 48.174934362], [-117.063538847, 48.174787257], [-117.063891954, 48.174607849], [-117.064244791, 48.17439982], [-117.064480238, 48.174261001], [-117.06477637, 48.174078327], [-117.064924416, 48.173959731], [-117.066952527, 48.172594697], [-117.067151772, 48.172465085], [-117.069267678, 48.17208533], [-117.069053499, 48.172199132], [-117.06645535, 48.173466933], [-117.066619188, 48.173633834], [-117.066654857, 48.173613515], [-117.06700751, 48.173739807], [-117.067482775, 48.173912118], [-117.067666351, 48.173903627], [-117.066311712, 48.1754258], [-117.06902175, 48.175424493], [-117.069005378, 48.176784414], [-117.066972329, 48.176759728], [-117.066972021, 48.176759724], [-117.06697899, 48.178069773], [-117.067617087, 48.178091527], [-117.067572167, 48.179489792], [-117.066420613, 48.179834931], [-117.066434114, 48.181156224], [-117.066898098, 48.181169581], [-117.066850522, 48.181916794], [-117.066413676, 48.181902754], [-117.064960826, 48.182074856], [-117.064983895, 48.181157861], [-117.064126646, 48.181171393], [-117.063535549, 48.181177944], [-117.063480553, 48.182026409], [-117.063419589, 48.182966904], [-117.060660005, 48.182922718], [-117.060635643, 48.183639731], [-117.05775523, 48.183622982], [-117.057757435, 48.183577818], [-117.056668049, 48.183578621], [-117.056746859, 48.183992236], [-117.057881605, 48.183990453], [-117.057883961, 48.184728093], [-117.057878465, 48.185729175], [-117.05787733, 48.185935612], [-117.05787705, 48.185986584], [-117.057874092, 48.186524595], [-117.057873311, 48.186666596], [-117.057931143, 48.186746597], [-117.057987519, 48.18686793], [-117.058158298, 48.187365897], [-117.058263898, 48.187546989], [-117.057868474, 48.187546343], [-117.057854991, 48.187903129], [-117.057845891, 48.188389835], [-117.056021557, 48.188387815], [-117.049717283, 48.188380614], [-117.04943089, 48.187898788], [-117.048164366, 48.185749795], [-117.048081344, 48.185605749], [-117.047903212, 48.18533352], [-117.047759641, 48.185113535], [-117.047337588, 48.18464713], [-117.046985776, 48.184392644], [-117.046972052, 48.184662945], [-117.047158629, 48.184840227], [-117.047395355, 48.185112609], [-117.047590408, 48.185378234], [-117.047768054, 48.185670173], [-117.047984919, 48.185814751], [-117.048961452, 48.187442114], [-117.049058738, 48.187610014], [-117.049492024, 48.188366521], [-117.046892376, 48.188362589], [-117.046868032, 48.19074758], [-117.046852037, 48.192315039], [-117.046560912, 48.191919546], [-117.046337969, 48.191571341], [-117.046052997, 48.191036944], [-117.045854043, 48.190622823], [-117.045756459, 48.190643784], [-117.044645212, 48.188330589], [-117.044084143, 48.188326944], [-117.043925447, 48.187846356], [-117.04374043, 48.188593815], [-117.043583863, 48.188867698], [-117.043445078, 48.189047664], [-117.04324799, 48.189303227], [-117.043447025, 48.18940181], [-117.042277445, 48.190518511], [-117.042202859, 48.190512118], [-117.041084207, 48.189900293], [-117.040997396, 48.189854439], [-117.040715152, 48.189705354], [-117.041333276, 48.189183891], [-117.041909428, 48.188697825], [-117.041909618, 48.188698013], [-117.041970408, 48.18875835], [-117.04197044, 48.188758381], [-117.041970493, 48.188758434], [-117.042009357, 48.188797008], [-117.042169724, 48.188896562], [-117.042756038, 48.188691906], [-117.043114255, 48.188566867], [-117.043129763, 48.188513558], [-117.04326479, 48.188049406], [-117.043291506, 48.187933815], [-117.043324383, 48.187791566], [-117.043324033, 48.187791563], [-117.043045176, 48.187789364], [-117.042142234, 48.187782236], [-117.042230961, 48.186129841], [-117.04223097, 48.186129676], [-117.040559677, 48.186098265], [-117.040559353, 48.186098258], [-117.040562901, 48.185885095], [-117.040567461, 48.185611113], [-117.040567044, 48.185611104], [-117.039381179, 48.18558655], [-117.039380809, 48.185586543], [-117.039438431, 48.183031335], [-117.039498774, 48.181289252], [-117.039511679, 48.181092659], [-117.039516832, 48.180781907], [-117.039593896, 48.1761334], [-117.039647459, 48.173755523], [-117.039676153, 48.172023391], [-117.041591908, 48.172012359], [-117.041770026, 48.172011332], [-117.041741423, 48.173224718], [-117.04172793, 48.173766135], [-117.041952414, 48.17376935], [-117.04197225, 48.173079355], [-117.042590112, 48.173084602], [-117.042570954, 48.173772294], [-117.042703623, 48.173779597], [-117.042692798, 48.173085473], [-117.043637398, 48.173093488], [-117.043621314, 48.173778246], [-117.044432804, 48.173782655], [-117.044474721, 48.171995721], [-117.04312243, 48.172003534], [-117.043165148, 48.170184407], [-117.044517433, 48.170174806], [-117.047221996, 48.170155557], [-117.048590322, 48.170163078], [-117.049958651, 48.170170584], [-117.04988921, 48.17301042], [-117.051255902, 48.173020188], [-117.05132698, 48.170178072], [-117.052695309, 48.170185545], [-117.052622711, 48.17302994], [-117.052602685, 48.173831123], [-117.055658635, 48.173845876], [-117.057749006, 48.173496817], [-117.05802938, 48.173449995], [-117.058135396, 48.170164385], [-117.058192047, 48.168408254], [-117.058338965, 48.16840845], [-117.060912431, 48.168411852], [-117.061010434, 48.166624098], [-117.06371235, 48.166624336], [-117.063654691, 48.168410506], [-117.069088022, 48.168411652], [-117.069053983, 48.166631099], [-117.0745041, 48.166661483]], [[-117.065594251, 48.178060067], [-117.065578708, 48.178646623], [-117.066460653, 48.178652438], [-117.0664805, 48.17806628], [-117.065594251, 48.178060067]]], [[[-117.075594319, 48.188571482], [-117.068726964, 48.188562821], [-117.068686408, 48.190099878], [-117.065623361, 48.190050665], [-117.065631047, 48.185141088], [-117.065685626, 48.185140735], [-117.065740069, 48.18529143], [-117.065765449, 48.18536848], [-117.065835674, 48.185472911], [-117.06589488, 48.185530603], [-117.06600567, 48.185592702], [-117.066136306, 48.185643204], [-117.0665396, 48.185686872], [-117.066789362, 48.185692823], [-117.067093713, 48.185690744], [-117.067442786, 48.185670137], [-117.06779886, 48.185623161], [-117.068069028, 48.185569231], [-117.068213337, 48.185534365], [-117.068336302, 48.185504654], [-117.068496803, 48.185452995], [-117.0686682, 48.185431736], [-117.06880644, 48.185435246], [-117.068724133, 48.18746823], [-117.075691193, 48.187551325], [-117.075594319, 48.188571482]]], [[[-117.041310081, 48.192693019], [-117.04129087, 48.192740349], [-117.04120961, 48.192954318], [-117.041208948, 48.192961351], [-117.041142986, 48.193026867], [-117.041143382, 48.193043268], [-117.0410781, 48.193107743], [-117.040905784, 48.193245604], [-117.040882305, 48.193264087], [-117.040775136, 48.193412639], [-117.040695806, 48.193518904], [-117.040690377, 48.193675212], [-117.04068688, 48.193735715], [-117.040637898, 48.193871151], [-117.040597467, 48.193985983], [-117.040552595, 48.194106483], [-117.040362176, 48.194271477], [-117.040243437, 48.194371365], [-117.040141941, 48.194474696], [-117.040002201, 48.194616854], [-117.039834213, 48.194789415], [-117.039733491, 48.195104339], [-117.039804988, 48.195455946], [-117.03971206, 48.195779374], [-117.039418571, 48.195808854], [-117.039068237, 48.195681654], [-117.039007361, 48.195487691], [-117.039020202, 48.195100241], [-117.039131497, 48.191889048], [-117.039131956, 48.191875803], [-117.039502386, 48.19167303], [-117.040010136, 48.191675356], [-117.040352853, 48.191899238], [-117.040606642, 48.192045043], [-117.040882502, 48.192141183], [-117.041067782, 48.192184353], [-117.041238161, 48.192428357], [-117.041265449, 48.19254007], [-117.041310081, 48.192693019]]], [[[-117.300730208, 48.341373239], [-117.300713133, 48.341495764], [-117.30069393, 48.34167986], [-117.300657444, 48.341737942], [-117.300619873, 48.341849217], [-117.300514221, 48.341931787], [-117.300405359, 48.342000094], [-117.299978887, 48.342203852], [-117.299973469, 48.342195651], [-117.299592974, 48.341423066], [-117.296644761, 48.341442835], [-117.296663965, 48.342109968], [-117.293448627, 48.342116314], [-117.293378097, 48.341474775], [-117.293223127, 48.340775864], [-117.293148569, 48.339905458], [-117.293123414, 48.339370859], [-117.293095625, 48.339116043], [-117.292982162, 48.338408596], [-117.29292871, 48.337863592], [-117.292902281, 48.337715609], [-117.292823664, 48.33727539], [-117.292774354, 48.336868806], [-117.292742891, 48.33665405], [-117.292802066, 48.335470487], [-117.292260432, 48.333762334], [-117.292078455, 48.332757094], [-117.292016461, 48.332430539], [-117.291977924, 48.331918093], [-117.291795813, 48.331269875], [-117.291868059, 48.330837612], [-117.29191089, 48.330295215], [-117.291557561, 48.329883612], [-117.291338455, 48.329465919], [-117.291256389, 48.329290025], [-117.290964927, 48.328773871], [-117.290808446, 48.328415813], [-117.2905994, 48.327734689], [-117.290382754, 48.327021164], [-117.29033729, 48.32675206], [-117.290295322, 48.326401226], [-117.29003228, 48.325815117], [-117.289847063, 48.325218254], [-117.289568709, 48.324507886], [-117.289313582, 48.323910693], [-117.28897048, 48.323180461], [-117.288662215, 48.322771536], [-117.288124112, 48.322346741], [-117.287538051, 48.32184907], [-117.287462597, 48.321801978], [-117.286440281, 48.320929841], [-117.287049712, 48.320813526], [-117.286683864, 48.320485774], [-117.28627883, 48.320592395], [-117.286267557, 48.319843056], [-117.288547626, 48.319853092], [-117.289224448, 48.320742635], [-117.28958308, 48.321301046], [-117.290132345, 48.32228923], [-117.290461152, 48.322953194], [-117.290804321, 48.323651288], [-117.291319037, 48.324708587], [-117.291884024, 48.325933508], [-117.292287254, 48.325842656], [-117.292615045, 48.325768801], [-117.296778015, 48.324888771], [-117.301323011, 48.331688134], [-117.303229977, 48.334561153], [-117.303253905, 48.334600471], [-117.303250669, 48.334599816], [-117.299832087, 48.333907609], [-117.299823078, 48.336012311], [-117.302567899, 48.336424153], [-117.303046892, 48.335404494], [-117.303730596, 48.335496553], [-117.303869515, 48.335835345], [-117.303977486, 48.336217322], [-117.30405985, 48.336651303], [-117.304079415, 48.336743398], [-117.304119961, 48.337040699], [-117.304146804, 48.337492329], [-117.304152654, 48.337887814], [-117.304150974, 48.338108479], [-117.304094477, 48.338108872], [-117.304000014, 48.338109249], [-117.303684811, 48.338134847], [-117.30259292, 48.338197585], [-117.302438323, 48.338206467], [-117.302209403, 48.338239301], [-117.301949973, 48.33841288], [-117.3017915, 48.338616055], [-117.301463118, 48.339174878], [-117.30118301, 48.339950295], [-117.301075674, 48.340365243], [-117.300966233, 48.340815288], [-117.300730208, 48.341373239]]], [[[-117.276012, 48.34646], [-117.269298, 48.346124], [-117.269801, 48.341649], [-117.276515, 48.341984], [-117.276012, 48.34646]]], [[[-117.415286664, 48.738663091], [-117.415354666, 48.738621524], [-117.415370879, 48.738588009], [-117.415355837, 48.738553678], [-117.415001636, 48.738203829], [-117.414373674, 48.737586222], [-117.414275237, 48.737450017], [-117.414191359, 48.737376201], [-117.414109527, 48.737315617], [-117.414021409, 48.73721718], [-117.413911987, 48.737093677], [-117.41387739, 48.737053184], [-117.41379659, 48.737022816], [-117.413659844, 48.736975878], [-117.413599091, 48.736944131], [-117.413547143, 48.736859844], [-117.413490456, 48.73680747], [-117.413349956, 48.736738044], [-117.413274146, 48.736709436], [-117.413236529, 48.736695466], [-117.413185021, 48.736684366], [-117.413131078, 48.736676192], [-117.413088958, 48.736678489], [-117.413042252, 48.736691536], [-117.412997072, 48.736707231], [-117.412956538, 48.736720819], [-117.412897781, 48.736736187], [-117.412881773, 48.736738024], [-117.412849338, 48.736739786], [-117.412519906, 48.736723523], [-117.412341132, 48.736715867], [-117.412210206, 48.736704949], [-117.412153575, 48.736701894], [-117.411068581, 48.736750964], [-117.410856239, 48.736681832], [-117.410854433, 48.735900357], [-117.412145083, 48.735905643], [-117.412142627, 48.735675451], [-117.415460061, 48.7357432], [-117.415593727, 48.735625515], [-117.416069415, 48.735206696], [-117.416256429, 48.735043671], [-117.416767201, 48.734591573], [-117.417114608, 48.73430681], [-117.417485166, 48.733993303], [-117.417647078, 48.733861225], [-117.417761167, 48.733777546], [-117.417761278, 48.733777465], [-117.417946495, 48.733643358], [-117.418143522, 48.733517575], [-117.418506981, 48.733323034], [-117.418818699, 48.73319201], [-117.418879093, 48.733166623], [-117.419107459, 48.733087713], [-117.419434695, 48.732981772], [-117.419608107, 48.732925629], [-117.419908645, 48.732830122], [-117.419966917, 48.732197935], [-117.421679144, 48.732231776], [-117.421679085, 48.732231904], [-117.421594942, 48.732412129], [-117.421522416, 48.732567467], [-117.421405203, 48.732795521], [-117.421350517, 48.732895474], [-117.421276652, 48.733030481], [-117.4210631, 48.733473302], [-117.420665011, 48.733775585], [-117.421220539, 48.733947442], [-117.421387824, 48.734039168], [-117.421387932, 48.734039227], [-117.421388021, 48.734039277], [-117.421455912, 48.734076502], [-117.421602453, 48.734154881], [-117.421734069, 48.734283875], [-117.42182102, 48.734364497], [-117.421821153, 48.734364618], [-117.422116867, 48.734674435], [-117.422116913, 48.734674483], [-117.422276901, 48.734725738], [-117.422295941, 48.73473089], [-117.422405258, 48.734760465], [-117.422476755, 48.734759264], [-117.422476853, 48.734759262], [-117.422497241, 48.73475892], [-117.422536155, 48.734738216], [-117.422592138, 48.734708431], [-117.422677695, 48.734613325], [-117.422679818, 48.734611114], [-117.422679883, 48.734611046], [-117.422918163, 48.734368317], [-117.422972595, 48.734308287], [-117.422988812, 48.734290403], [-117.423262623, 48.734156694], [-117.423837783, 48.734049848], [-117.424254506, 48.733993214], [-117.424255278, 48.733993109], [-117.424343055, 48.73398118], [-117.424343569, 48.733981084], [-117.424674049, 48.733919876], [-117.424972409, 48.733863674], [-117.425323842, 48.733797762], [-117.425324105, 48.733797707], [-117.425772303, 48.733701312], [-117.425772645, 48.733701239], [-117.42626219, 48.73366487], [-117.426440325, 48.733680063], [-117.426813609, 48.7337119], [-117.426817258, 48.734631448], [-117.426823114, 48.736107377], [-117.42698837, 48.736108935], [-117.427966796, 48.736118151], [-117.428676374, 48.73612483], [-117.42867679, 48.736124834], [-117.428719281, 48.739116169], [-117.429632502, 48.739126693], [-117.429654746, 48.740312884], [-117.429654749, 48.740313019], [-117.43172769, 48.740331689], [-117.432510293, 48.740338728], [-117.432510294, 48.740338779], [-117.432516266, 48.740651404], [-117.432566115, 48.743260828], [-117.432634812, 48.746856383], [-117.431655384, 48.746833811], [-117.431595364, 48.746745821], [-117.431489992, 48.746560165], [-117.431314866, 48.74632455], [-117.431121182, 48.746155838], [-117.430881077, 48.746034068], [-117.430560171, 48.745914195], [-117.429903519, 48.745725768], [-117.429463708, 48.745593536], [-117.429074616, 48.745508733], [-117.428783592, 48.745425362], [-117.428598643, 48.745317928], [-117.42837461, 48.745149864], [-117.428215089, 48.745047329], [-117.427985153, 48.744955136], [-117.427688221, 48.744875141], [-117.427446631, 48.744837315], [-117.427210369, 48.744780362], [-117.426972482, 48.744694075], [-117.42671456, 48.744590284], [-117.426414522, 48.744435456], [-117.426194, 48.744386056], [-117.426075459, 48.744398027], [-117.426068874, 48.744399353], [-117.425956616, 48.744421945], [-117.42581315, 48.744461988], [-117.425651664, 48.744533517], [-117.42553708, 48.744581865], [-117.425427037, 48.744611175], [-117.425305628, 48.744629891], [-117.425117794, 48.744642232], [-117.424941185, 48.744635763], [-117.424775483, 48.74461034], [-117.42464003, 48.74456883], [-117.42447473, 48.744477281], [-117.424375926, 48.744408819], [-117.424251624, 48.744329068], [-117.424094033, 48.744262635], [-117.423967106, 48.744231835], [-117.423766027, 48.744189921], [-117.423545478, 48.744107882], [-117.423322857, 48.743976472], [-117.423143456, 48.743880967], [-117.423007579, 48.743819038], [-117.422812593, 48.743729295], [-117.42263527, 48.743664493], [-117.422405548, 48.743603408], [-117.422197797, 48.74357629], [-117.421991655, 48.743564266], [-117.421865226, 48.743569317], [-117.421772018, 48.743589117], [-117.421410121, 48.744250573], [-117.421596471, 48.744288683], [-117.421440947, 48.744489076], [-117.421210946, 48.744738287], [-117.420926803, 48.745004564], [-117.41714738, 48.748444767], [-117.417338501, 48.747948864], [-117.414966, 48.747953058], [-117.414982593, 48.747002721], [-117.416542773, 48.746999959], [-117.416546562, 48.746782765], [-117.416218082, 48.746783357], [-117.416278415, 48.74320178], [-117.414123329, 48.743193961], [-117.413309455, 48.742363043], [-117.413649446, 48.741102015], [-117.413875787, 48.740077215], [-117.414111247, 48.739757896], [-117.414389414, 48.739380653], [-117.414422499, 48.739255082], [-117.41451913, 48.739163368], [-117.414539785, 48.739103585], [-117.414599821, 48.739052354], [-117.414709971, 48.738972297], [-117.415005369, 48.738842375], [-117.415161944, 48.738748447], [-117.415286664, 48.738663091]]], [[[-117.39388027, 48.850092697], [-117.394286782, 48.850746688], [-117.394299546, 48.850767123], [-117.394377069, 48.859224855], [-117.386000542, 48.859266424], [-117.382765338, 48.859282315], [-117.383067178, 48.859195906], [-117.383625432, 48.858928619], [-117.384151444, 48.858605481], [-117.384556889, 48.85820448], [-117.385149003, 48.857686092], [-117.385448969, 48.857501573], [-117.385728221, 48.85728033], [-117.385747491, 48.857136224], [-117.385614032, 48.856902984], [-117.385474843, 48.856691759], [-117.385105951, 48.856320549], [-117.384884016, 48.855928722], [-117.384605063, 48.85557739], [-117.384194277, 48.855206245], [-117.384107498, 48.855081573], [-117.383913961, 48.854805303], [-117.383902882, 48.854750145], [-117.383967785, 48.854575618], [-117.384085412, 48.854414101], [-117.384260292, 48.854270983], [-117.384429554, 48.85416778], [-117.384553876, 48.853962109], [-117.38479458, 48.853734177], [-117.384950335, 48.853643304], [-117.385279304, 48.853580201], [-117.385797922, 48.853568494], [-117.386056624, 48.853545729], [-117.386481497, 48.853445019], [-117.386654733, 48.853434543], [-117.386773476, 48.853427363], [-117.387006755, 48.853534771], [-117.387320555, 48.853473356], [-117.387401041, 48.853251784], [-117.387213606, 48.853179315], [-117.386772001, 48.853239495], [-117.386674004, 48.853262719], [-117.386194724, 48.853376299], [-117.385716024, 48.853412034], [-117.385521182, 48.85327608], [-117.385571048, 48.852999325], [-117.385913764, 48.852624184], [-117.385947464, 48.852555423], [-117.386131009, 48.852136012], [-117.386365286, 48.851577583], [-117.386504494, 48.851336417], [-117.386741609, 48.85106191], [-117.386945727, 48.850839831], [-117.38700677, 48.850773416], [-117.387341017, 48.850319954], [-117.387560115, 48.850026012], [-117.388082372, 48.84942341], [-117.388356889, 48.849111934], [-117.388621321, 48.848808612], [-117.389133461, 48.848505456], [-117.389552735, 48.848125979], [-117.39047978, 48.847462238], [-117.390969159, 48.84719224], [-117.391013002, 48.846795558], [-117.390953408, 48.846649723], [-117.390579738, 48.845735273], [-117.391435674, 48.846673259], [-117.391716264, 48.846980738], [-117.393095172, 48.848497537], [-117.394271935, 48.848492955], [-117.394286894, 48.849955332], [-117.39388027, 48.850092697]]], [[[-117.369886675, 48.858987731], [-117.369898801, 48.859466296], [-117.369909714, 48.859896976], [-117.369909716, 48.859897046], [-117.371974942, 48.859907283], [-117.372625165, 48.859910499], [-117.37250856, 48.856715769], [-117.372459336, 48.855367001], [-117.372459332, 48.855366901], [-117.372705958, 48.855363372], [-117.372996043, 48.855359221], [-117.37391365, 48.855841529], [-117.374197421, 48.856168021], [-117.374314626, 48.856264354], [-117.37465629, 48.856551136], [-117.374813098, 48.856684148], [-117.374972946, 48.856894163], [-117.375208689, 48.856982506], [-117.375520228, 48.857291798], [-117.376092829, 48.857513838], [-117.376203728, 48.857598133], [-117.376273382, 48.857727357], [-117.376392245, 48.859209628], [-117.376404752, 48.85970466], [-117.376311488, 48.860503623], [-117.376097861, 48.861510792], [-117.375662481, 48.862293771], [-117.375579986, 48.862470027], [-117.375542484, 48.862841646], [-117.375481166, 48.86306045], [-117.375113966, 48.863571454], [-117.374830099, 48.863865115], [-117.374709156, 48.863990229], [-117.374568222, 48.864171547], [-117.374194564, 48.864405327], [-117.373748032, 48.864570479], [-117.373337944, 48.864660564], [-117.372899528, 48.864685447], [-117.372115634, 48.864713727], [-117.371340207, 48.864579038], [-117.371058979, 48.864497018], [-117.370638744, 48.864390286], [-117.37033651, 48.864322052], [-117.369808382, 48.864174474], [-117.369438484, 48.864079521], [-117.369277249, 48.864052076], [-117.369013723, 48.864008844], [-117.368960206, 48.864008167], [-117.368922787, 48.864008132], [-117.368922608, 48.864018557], [-117.368745288, 48.864370001], [-117.368413348, 48.864376925], [-117.368413201, 48.864835676], [-117.368413153, 48.864985068], [-117.368413138, 48.865029752], [-117.367735165, 48.865026031], [-117.367735167, 48.865026059], [-117.367737238, 48.865089736], [-117.367749299, 48.865460475], [-117.364871035, 48.865483263], [-117.363721326, 48.865492346], [-117.363722585, 48.86332094], [-117.363723818, 48.861180107], [-117.363724098, 48.861180106], [-117.367813465, 48.86116709], [-117.367813544, 48.861167025], [-117.367860271, 48.861129216], [-117.368488538, 48.860620838], [-117.368450849, 48.859149768], [-117.368446232, 48.85896951], [-117.368446229, 48.858969376], [-117.369886673, 48.858987647], [-117.369886675, 48.858987731]]]]}, "properties": {}}]}