{"type": "FeatureCollection", "features": [{"type": "Feature", "geometry": {"type": "MultiPolygon", "coordinates": [[[[-117.545901961, 47.498103181], [-117.546789962, 47.497532181], [-117.547799962, 47.496944181], [-117.549186962, 47.49633818], [-117.549610962, 47.49615618], [-117.550104962, 47.49598718], [-117.551410962, 47.49558918], [-117.552749962, 47.49523818], [-117.555329962, 47.49457518], [-117.556252963, 47.49435518], [-117.556354775, 47.494323738], [-117.556360817, 47.492845922], [-117.546757222, 47.492897547], [-117.546765369, 47.489802458], [-117.550863006, 47.486120401], [-117.560887748, 47.486597777], [-117.559031866, 47.504512573], [-117.558731795, 47.507407516], [-117.555564965, 47.507401181], [-117.550783965, 47.507393181], [-117.550754964, 47.507010181], [-117.549794964, 47.507212181], [-117.547798964, 47.507586181], [-117.547058964, 47.507726181], [-117.545477964, 47.508020182], [-117.543527963, 47.508358182], [-117.541384963, 47.508778182], [-117.540897963, 47.508908182], [-117.540510963, 47.509094182], [-117.540376963, 47.509166182], [-117.540555963, 47.508931182], [-117.541643963, 47.508233182], [-117.542062963, 47.507930182], [-117.542573963, 47.507664182], [-117.542762963, 47.507435182], [-117.542795963, 47.507099182], [-117.542706963, 47.507011182], [-117.542724963, 47.506838182], [-117.542829963, 47.506663182], [-117.542907963, 47.506500182], [-117.543071963, 47.506249182], [-117.543158963, 47.506102182], [-117.543251963, 47.505859182], [-117.543302963, 47.505689182], [-117.543287963, 47.505506182], [-117.543108963, 47.505341182], [-117.542762963, 47.505167182], [-117.542404962, 47.505074182], [-117.541964962, 47.504993182], [-117.541683962, 47.504972182], [-117.541138962, 47.504995182], [-117.540670962, 47.504934182], [-117.540154962, 47.504998182], [-117.539753962, 47.505075182], [-117.538798962, 47.505167182], [-117.537995962, 47.505330182], [-117.536892962, 47.505629182], [-117.536367961, 47.505648182], [-117.535915961, 47.505578182], [-117.535474961, 47.505592183], [-117.534955961, 47.505886183], [-117.534357961, 47.506380183], [-117.533717961, 47.506613183], [-117.532832961, 47.506820183], [-117.532209825, 47.506945778], [-117.532484527, 47.504308489], [-117.53291396, 47.504221183], [-117.533435961, 47.504139183], [-117.536416961, 47.503564182], [-117.537203961, 47.503363182], [-117.538534961, 47.502978182], [-117.539612961, 47.502571182], [-117.540086961, 47.502348182], [-117.540869961, 47.501913182], [-117.541743961, 47.501282182], [-117.542519961, 47.500610181], [-117.543497961, 47.499907181], [-117.544974961, 47.498795181], [-117.545901961, 47.498103181]]], [[[-117.640676972, 47.466317169], [-117.64268173, 47.465843036], [-117.642398693, 47.46862032], [-117.641511973, 47.468908169], [-117.641138973, 47.468985169], [-117.640944973, 47.469051169], [-117.640653973, 47.469105169], [-117.640394973, 47.469209169], [-117.640184973, 47.469275169], [-117.639779973, 47.469363169], [-117.638663972, 47.469478169], [-117.638355972, 47.469554169], [-117.638193972, 47.469565169], [-117.637627972, 47.469658169], [-117.636000972, 47.47024417], [-117.635386972, 47.47028817], [-117.634237972, 47.47049017], [-117.633784972, 47.47069317], [-117.633387972, 47.47092317], [-117.633209972, 47.47107717], [-117.633030972, 47.47134017], [-117.632885972, 47.47168017], [-117.632747972, 47.47187717], [-117.632779972, 47.47207517], [-117.632941972, 47.47228317], [-117.633037972, 47.47248117], [-117.633070972, 47.47264617], [-117.633191972, 47.47290917], [-117.633239972, 47.47306217], [-117.633287972, 47.47332617], [-117.633255972, 47.47346817], [-117.633174972, 47.47361117], [-117.632939972, 47.47392917], [-117.632680972, 47.47416517], [-117.631878972, 47.47481217], [-117.631490972, 47.47504717], [-117.630996972, 47.47555217], [-117.630785972, 47.47587017], [-117.630623972, 47.47602317], [-117.630218972, 47.476325171], [-117.630202972, 47.476369171], [-117.630088972, 47.476456171], [-117.630048972, 47.476522171], [-117.629902972, 47.476632171], [-117.629611972, 47.476950171], [-117.629352972, 47.477147171], [-117.629044972, 47.477262171], [-117.628866972, 47.477372171], [-117.628437972, 47.477470171], [-117.628291972, 47.477591171], [-117.628048972, 47.477876171], [-117.627967972, 47.477931171], [-117.627757972, 47.478046171], [-117.627093972, 47.478331171], [-117.626891972, 47.478473171], [-117.626664972, 47.478714171], [-117.626485972, 47.478978171], [-117.626307972, 47.479180171], [-117.626178972, 47.479268171], [-117.626056972, 47.479323171], [-117.625662972, 47.479578171], [-117.625635972, 47.479580171], [-117.624875972, 47.480080171], [-117.624843972, 47.480080171], [-117.624374972, 47.480376171], [-117.624066972, 47.480552171], [-117.624018972, 47.480629171], [-117.624002972, 47.480892172], [-117.623937972, 47.481068172], [-117.623679972, 47.481304172], [-117.623275972, 47.481622172], [-117.622838972, 47.482006172], [-117.622410972, 47.482445172], [-117.622329972, 47.482621172], [-117.622329972, 47.482742172], [-117.622394972, 47.482917172], [-117.622378972, 47.483060172], [-117.622217973, 47.483235172], [-117.621974972, 47.483378172], [-117.621828972, 47.483433172], [-117.621618972, 47.483565172], [-117.621456972, 47.483696172], [-117.621360972, 47.483839172], [-117.621117972, 47.484026172], [-117.621020972, 47.484070172], [-117.620777972, 47.484125172], [-117.620551972, 47.484125172], [-117.619838972, 47.483889172], [-117.619547972, 47.483867172], [-117.619369972, 47.483966172], [-117.619304972, 47.484032172], [-117.619111972, 47.484383172], [-117.618488972, 47.485009172], [-117.617777972, 47.485602172], [-117.617761972, 47.485645172], [-117.617114972, 47.486392173], [-117.616923972, 47.486678173], [-117.616936972, 47.486694173], [-117.616872972, 47.486836173], [-117.616937972, 47.487066173], [-117.617415973, 47.487609173], [-117.617285973, 47.487735173], [-117.617107973, 47.487828173], [-117.618514973, 47.489302173], [-117.618535866, 47.489325791], [-117.613749781, 47.489100418], [-117.611911721, 47.507016775], [-117.63835432, 47.508259769], [-117.636523406, 47.526176791], [-117.639699094, 47.526325699], [-117.639676986, 47.528983173], [-117.639649986, 47.529292173], [-117.639538986, 47.529632173], [-117.639205986, 47.530403173], [-117.636560987, 47.536119174], [-117.636492987, 47.536268174], [-117.636216987, 47.536786174], [-117.635901987, 47.537253174], [-117.635611987, 47.537720174], [-117.635315987, 47.538143174], [-117.634919988, 47.538680174], [-117.634413988, 47.539129175], [-117.634151987, 47.539007175], [-117.631854987, 47.537974175], [-117.629742986, 47.536847175], [-117.629194986, 47.536588175], [-117.628907986, 47.536475175], [-117.628673986, 47.536435175], [-117.628397986, 47.536405175], [-117.627989986, 47.536388175], [-117.627597986, 47.536388175], [-117.627123986, 47.536397175], [-117.626069985, 47.536395175], [-117.625309985, 47.536398175], [-117.624975985, 47.536386175], [-117.624704985, 47.536350175], [-117.624539985, 47.536302175], [-117.624308985, 47.536218175], [-117.624133985, 47.536130175], [-117.624000985, 47.536032175], [-117.623885985, 47.535923175], [-117.623772985, 47.535765175], [-117.623692985, 47.535608175], [-117.623653985, 47.535444175], [-117.623647985, 47.535269175], [-117.623633984, 47.533712175], [-117.623596984, 47.533454175], [-117.623538984, 47.533322175], [-117.623452984, 47.533201175], [-117.623319984, 47.533097175], [-117.623225984, 47.533042175], [-117.622886984, 47.532911175], [-117.622706984, 47.532891175], [-117.622049984, 47.532850175], [-117.621771984, 47.532818175], [-117.621538984, 47.532779175], [-117.621301984, 47.532714175], [-117.620933984, 47.532582175], [-117.620743983, 47.532485175], [-117.618568983, 47.530800176], [-117.618220983, 47.530621176], [-117.618049982, 47.530539176], [-117.617857982, 47.530470176], [-117.617561982, 47.530416176], [-117.617315982, 47.530384176], [-117.617085982, 47.530374176], [-117.616905982, 47.530386176], [-117.612285981, 47.530449176], [-117.611779981, 47.530428176], [-117.611436981, 47.530428176], [-117.611257981, 47.530418176], [-117.610670981, 47.530341176], [-117.610508981, 47.530308176], [-117.610199981, 47.530231176], [-117.610036981, 47.530198176], [-117.609545938, 47.530051448], [-117.610071883, 47.524933022], [-117.600410551, 47.524477204], [-117.600317978, 47.524340177], [-117.600007978, 47.523806177], [-117.599465977, 47.522275177], [-117.599358977, 47.522017177], [-117.598228976, 47.520098177], [-117.597935976, 47.519686177], [-117.597587976, 47.519337177], [-117.596040976, 47.518122177], [-117.595038975, 47.517430177], [-117.594148975, 47.516901177], [-117.593751975, 47.516585177], [-117.593614975, 47.516460177], [-117.592241974, 47.514611177], [-117.591730974, 47.513900177], [-117.591264974, 47.513510177], [-117.590476973, 47.513045177], [-117.590194973, 47.512866177], [-117.589931973, 47.512747177], [-117.589676973, 47.512652177], [-117.589370973, 47.512582177], [-117.588488973, 47.512463177], [-117.588205973, 47.512405177], [-117.587924973, 47.512330177], [-117.587653973, 47.512223178], [-117.587392973, 47.512094178], [-117.587007972, 47.511845178], [-117.586829972, 47.511696178], [-117.586595972, 47.511391178], [-117.586477972, 47.511183178], [-117.586392972, 47.510996178], [-117.586346972, 47.510797178], [-117.586371971, 47.508325177], [-117.586356971, 47.508115177], [-117.586330971, 47.507983177], [-117.586280971, 47.507858177], [-117.586202971, 47.507740177], [-117.586089971, 47.507636177], [-117.585936971, 47.507527177], [-117.585650083, 47.50736578], [-117.585306017, 47.507366226], [-117.5854709, 47.50576771], [-117.587317872, 47.487852132], [-117.588495593, 47.476419166], [-117.589857965, 47.475651175], [-117.592555965, 47.474088174], [-117.595932965, 47.472129174], [-117.598930779, 47.470398322], [-117.611081477, 47.470971711], [-117.611079707, 47.471525125], [-117.608329972, 47.471909985], [-117.607954775, 47.471985873], [-117.607954249, 47.4722172], [-117.609128967, 47.472006172], [-117.611370968, 47.471654172], [-117.613556968, 47.471333172], [-117.61483449, 47.471148552], [-117.615586064, 47.471183951], [-117.615601036, 47.471037798], [-117.621476969, 47.470191171], [-117.62345697, 47.469906171], [-117.62584897, 47.469589171], [-117.62754097, 47.46931917], [-117.62781397, 47.46928617], [-117.62799997, 47.46926517], [-117.62853597, 47.46916317], [-117.628783971, 47.46912917], [-117.629020971, 47.46907717], [-117.640676972, 47.466317169]]], [[[-117.586293275, 47.511393766], [-117.586286039, 47.511995825], [-117.584827744, 47.512002214], [-117.585300432, 47.507420368], [-117.585739837, 47.50766594], [-117.585838639, 47.507733866], [-117.585976085, 47.507868024], [-117.586035465, 47.50798028], [-117.586067973, 47.508142832], [-117.586079564, 47.508578504], [-117.58604258, 47.510330253], [-117.586045703, 47.510692886], [-117.586089066, 47.510921347], [-117.586167539, 47.511160904], [-117.586293275, 47.511393766]]], [[[-117.590956, 47.562913], [-117.590983, 47.562656], [-117.590805, 47.562648], [-117.591268, 47.558169], [-117.597884, 47.558482], [-117.597858, 47.558738], [-117.598035, 47.558747], [-117.597574, 47.563226], [-117.590956, 47.562913]]], [[[-117.665365, 47.581974], [-117.664962, 47.581955], [-117.665418, 47.577476], [-117.672038, 47.577785], [-117.672035, 47.577819], [-117.672438, 47.577838], [-117.671982, 47.582317], [-117.665362, 47.582008], [-117.665365, 47.581974]]], [[[-117.568212, 47.5922], [-117.568203, 47.592199], [-117.568173, 47.592488], [-117.561552, 47.592173], [-117.561605, 47.591659], [-117.561258, 47.591643], [-117.561724, 47.587164], [-117.568344, 47.587479], [-117.56832, 47.587704], [-117.568677, 47.587721], [-117.568212, 47.5922]]], [[[-117.561324, 47.596805], [-117.561338, 47.596666], [-117.5603, 47.596617], [-117.560765, 47.592138], [-117.567386, 47.592453], [-117.567372, 47.592592], [-117.56841, 47.592641], [-117.567945, 47.59712], [-117.561324, 47.596805]]], [[[-117.54797, 47.597035], [-117.547974, 47.597004], [-117.554595, 47.597319], [-117.554129, 47.601798], [-117.553665, 47.601776], [-117.553662, 47.601807], [-117.54704, 47.601491], [-117.547507, 47.597013], [-117.54797, 47.597035]]], [[[-117.658052, 47.629788], [-117.657594, 47.634267], [-117.650967, 47.633958], [-117.651426, 47.629478], [-117.658052, 47.629788]]], [[[-117.655615, 47.641306], [-117.648987, 47.640996], [-117.649074, 47.640148], [-117.645044, 47.63996], [-117.645503, 47.63548], [-117.65213, 47.63579], [-117.652043, 47.636638], [-117.656073, 47.636826], [-117.655615, 47.641306]]], [[[-117.648461876, 47.643384059], [-117.648307, 47.644899], [-117.645278929, 47.644756938], [-117.642846014, 47.645819181], [-117.635365013, 47.649087182], [-117.633615013, 47.649859182], [-117.629109952, 47.651848997], [-117.623657266, 47.651592862], [-117.62550063, 47.633676611], [-117.625553311, 47.633679086], [-117.625570008, 47.634438182], [-117.625534008, 47.637178182], [-117.625491009, 47.639456182], [-117.625445009, 47.641899183], [-117.62542801, 47.642692183], [-117.62542401, 47.643012183], [-117.62677101, 47.643002183], [-117.62689201, 47.642999183], [-117.62931001, 47.642986182], [-117.633645011, 47.642967182], [-117.635842012, 47.642958182], [-117.64184763, 47.642936316], [-117.642138, 47.640109], [-117.648765, 47.640419], [-117.648506686, 47.642945743], [-117.649500014, 47.64294618], [-117.649043014, 47.64313818], [-117.648461876, 47.643384059]]], [[[-117.370202946, 47.575204205], [-117.370404946, 47.575166205], [-117.370737946, 47.575034205], [-117.371077946, 47.574957205], [-117.371887946, 47.574743205], [-117.372049946, 47.574655204], [-117.372211946, 47.574551204], [-117.372544946, 47.574441204], [-117.372892946, 47.574391204], [-117.373111946, 47.574314204], [-117.373362946, 47.574161204], [-117.373597946, 47.573908204], [-117.374026946, 47.573617204], [-117.374431946, 47.573491204], [-117.374650946, 47.573370204], [-117.374763946, 47.573282204], [-117.374949946, 47.573194204], [-117.375144946, 47.573052204], [-117.375289946, 47.572827204], [-117.375459946, 47.572706204], [-117.375630946, 47.572645204], [-117.375840946, 47.572514204], [-117.376051946, 47.572338204], [-117.376234946, 47.572212204], [-117.376444946, 47.572015204], [-117.376777946, 47.571768204], [-117.376972946, 47.571675204], [-117.377442946, 47.571544204], [-117.377726946, 47.571390204], [-117.378107946, 47.571232204], [-117.379080947, 47.570952203], [-117.379428947, 47.570821203], [-117.379615947, 47.570706203], [-117.379696947, 47.570585203], [-117.379785947, 47.570388203], [-117.379842947, 47.570300203], [-117.379956947, 47.570190203], [-117.380094947, 47.570103203], [-117.380313947, 47.570048203], [-117.380540947, 47.570026203], [-117.380702947, 47.570032203], [-117.380848947, 47.570059203], [-117.380937947, 47.570098203], [-117.381196947, 47.570284203], [-117.381415947, 47.570361203], [-117.381723947, 47.570367203], [-117.381909947, 47.570356203], [-117.382233947, 47.570285203], [-117.382501947, 47.570159203], [-117.382728947, 47.570071203], [-117.382987947, 47.570033203], [-117.383239947, 47.570022203], [-117.383708947, 47.570055203], [-117.384017947, 47.570121203], [-117.384324947, 47.570225203], [-117.384543947, 47.570341203], [-117.384810948, 47.570527203], [-117.385175948, 47.570867203], [-117.385361948, 47.570966203], [-117.385620948, 47.571038203], [-117.385944948, 47.571093203], [-117.386139948, 47.571104203], [-117.386390948, 47.571027203], [-117.386715948, 47.570846203], [-117.386853948, 47.570808203], [-117.386982948, 47.570802203], [-117.387582948, 47.570896203], [-117.387825948, 47.570901203], [-117.388198948, 47.570825203], [-117.388660948, 47.570622202], [-117.389171948, 47.570337202], [-117.389439948, 47.570162202], [-117.389552948, 47.570101202], [-117.389860948, 47.570019202], [-117.389937948, 47.570008202], [-117.390319949, 47.570366202], [-117.390501949, 47.570583202], [-117.390568949, 47.570751202], [-117.390611949, 47.571059202], [-117.390533949, 47.573345202], [-117.390517949, 47.574251203], [-117.39047095, 47.577045203], [-117.39046595, 47.577840203], [-117.39046995, 47.578241203], [-117.39052595, 47.578514203], [-117.39057695, 47.578628203], [-117.391171951, 47.579711203], [-117.391513252, 47.580319976], [-117.390861429, 47.586402707], [-117.364390539, 47.58510105], [-117.362461183, 47.603009572], [-117.335983216, 47.601701017], [-117.334043039, 47.619608607], [-117.332100984, 47.637516081], [-117.305606985, 47.636199802], [-117.279114876, 47.634877432], [-117.281074847, 47.616971603], [-117.288410503, 47.617338282], [-117.291613941, 47.619461216], [-117.293471942, 47.620691216], [-117.293883942, 47.620965216], [-117.296253943, 47.622499216], [-117.302317945, 47.628037216], [-117.304354946, 47.629899215], [-117.304354945, 47.627899215], [-117.304251945, 47.627887215], [-117.304253944, 47.620673215], [-117.304237944, 47.620407215], [-117.30426286, 47.618129054], [-117.307557999, 47.618293149], [-117.309507126, 47.600386379], [-117.310960122, 47.587026236], [-117.314401938, 47.587056211], [-117.319859939, 47.587105211], [-117.32525694, 47.58713021], [-117.330237941, 47.58723521], [-117.331903941, 47.58726921], [-117.333564942, 47.587305209], [-117.333585942, 47.587295209], [-117.333916942, 47.587328209], [-117.334214942, 47.587404209], [-117.335042942, 47.587694209], [-117.334432942, 47.587146209], [-117.334164942, 47.586924209], [-117.333760941, 47.586608209], [-117.333671941, 47.586518209], [-117.333417941, 47.586319209], [-117.333198941, 47.586173209], [-117.332882941, 47.585874209], [-117.332819941, 47.585670209], [-117.332872941, 47.585460209], [-117.332992941, 47.585262209], [-117.333184941, 47.585124209], [-117.333495941, 47.585051209], [-117.333764941, 47.585023209], [-117.334001941, 47.585014209], [-117.334163941, 47.584983209], [-117.334310941, 47.584934209], [-117.334462941, 47.584863209], [-117.334661941, 47.584740209], [-117.334805941, 47.584636209], [-117.334978941, 47.584559209], [-117.335158941, 47.584497209], [-117.335433941, 47.584529209], [-117.335717941, 47.584587209], [-117.336196942, 47.584731209], [-117.336703942, 47.584746209], [-117.337016942, 47.584795209], [-117.337449942, 47.584896209], [-117.337726942, 47.584977209], [-117.338130942, 47.585004209], [-117.338747942, 47.585006209], [-117.339073942, 47.585031209], [-117.339765942, 47.585124209], [-117.340303942, 47.585251209], [-117.340940943, 47.585465209], [-117.341568943, 47.585713208], [-117.342073943, 47.585840208], [-117.345982944, 47.586728208], [-117.346369944, 47.586749208], [-117.346604944, 47.586732208], [-117.348760944, 47.586503208], [-117.349246944, 47.586502208], [-117.349634944, 47.586555208], [-117.349901945, 47.586627208], [-117.350352945, 47.586761208], [-117.350598945, 47.586852208], [-117.351075945, 47.587048208], [-117.351283945, 47.587116208], [-117.351676945, 47.587172207], [-117.351669945, 47.586995207], [-117.351679945, 47.586819207], [-117.351714945, 47.586602207], [-117.351756945, 47.586448207], [-117.351858945, 47.586190207], [-117.352010945, 47.585900207], [-117.352594945, 47.584930207], [-117.353533945, 47.583375207], [-117.354169944, 47.582336207], [-117.354324944, 47.582065207], [-117.354411944, 47.581889207], [-117.354517944, 47.581622207], [-117.354624944, 47.580854207], [-117.354781943, 47.576999206], [-117.354781943, 47.576690206], [-117.354807943, 47.576501206], [-117.355037943, 47.576478206], [-117.355718943, 47.576379206], [-117.356545943, 47.576269206], [-117.356885944, 47.576269206], [-117.357201944, 47.576313206], [-117.357477944, 47.576384206], [-117.357826944, 47.576505206], [-117.358071944, 47.576600206], [-117.358255944, 47.576428206], [-117.358774944, 47.576263206], [-117.358847944, 47.576252206], [-117.359828944, 47.576197206], [-117.360622944, 47.576196206], [-117.360873944, 47.576245206], [-117.361084944, 47.576322206], [-117.361271944, 47.576415206], [-117.361490944, 47.576470206], [-117.361749944, 47.576475206], [-117.362106945, 47.576420206], [-117.362276945, 47.576387206], [-117.362616945, 47.576387206], [-117.362916945, 47.576447206], [-117.364067945, 47.576414205], [-117.364707945, 47.576293205], [-117.365040945, 47.576249205], [-117.365186945, 47.576238205], [-117.366118945, 47.576106205], [-117.366531945, 47.575985205], [-117.366758945, 47.575908205], [-117.367503945, 47.575623205], [-117.367998945, 47.575469205], [-117.368678946, 47.575309205], [-117.369164946, 47.575227205], [-117.369926946, 47.575226205], [-117.370202946, 47.575204205]]], [[[-117.184926915, 47.594333225], [-117.184876331, 47.594114994], [-117.203621705, 47.595067004], [-117.230090202, 47.596405969], [-117.22811424, 47.614310256], [-117.201636802, 47.612970457], [-117.199649977, 47.630873791], [-117.173165515, 47.62952707], [-117.173352127, 47.62785386], [-117.175014921, 47.627803229], [-117.176424921, 47.627789229], [-117.177180921, 47.627789229], [-117.180204922, 47.627792228], [-117.183248922, 47.627799228], [-117.186068923, 47.627807228], [-117.186009923, 47.627695228], [-117.185961923, 47.627555228], [-117.185910923, 47.627238228], [-117.185873922, 47.626723228], [-117.185881922, 47.626142228], [-117.185879922, 47.624097227], [-117.185899921, 47.621783227], [-117.185913921, 47.620388227], [-117.185929921, 47.618534227], [-117.18592292, 47.614295227], [-117.185922919, 47.613554227], [-117.185854919, 47.613471227], [-117.185725919, 47.613406227], [-117.184713919, 47.613392227], [-117.184697919, 47.613265227], [-117.184719919, 47.610512227], [-117.184726918, 47.609792227], [-117.184748918, 47.607129226], [-117.184813916, 47.599269226], [-117.184819916, 47.598510226], [-117.184871916, 47.597237226], [-117.184861915, 47.596271226], [-117.184864915, 47.595556226], [-117.184925915, 47.595024225], [-117.184952915, 47.594637225], [-117.184926915, 47.594333225]]], [[[-117.114166908, 47.622337235], [-117.113911908, 47.622162235], [-117.113311907, 47.621810235], [-117.112821907, 47.621632235], [-117.111998907, 47.621432235], [-117.111890907, 47.621169235], [-117.111773907, 47.620645235], [-117.111390907, 47.619847235], [-117.111322907, 47.619464235], [-117.111191906, 47.619106235], [-117.110980906, 47.618741235], [-117.110813906, 47.618575235], [-117.110732906, 47.617723235], [-117.110481906, 47.616884235], [-117.110190906, 47.616542235], [-117.108946905, 47.614747235], [-117.108834905, 47.613968235], [-117.108700905, 47.613224235], [-117.108555904, 47.612644235], [-117.108095904, 47.611352235], [-117.107744904, 47.611032235], [-117.106844904, 47.610798235], [-117.105244903, 47.610492235], [-117.105294903, 47.610152235], [-117.105352903, 47.610037235], [-117.105653903, 47.609721235], [-117.105824903, 47.609650235], [-117.106041903, 47.609676235], [-117.106728903, 47.609828235], [-117.107794904, 47.609916235], [-117.108228904, 47.609967235], [-117.108669904, 47.610081235], [-117.109293904, 47.610351234], [-117.110061904, 47.610843234], [-117.110827905, 47.611089234], [-117.111246905, 47.611151234], [-117.111670905, 47.611128234], [-117.112034905, 47.610995234], [-117.112596905, 47.610568234], [-117.113493905, 47.609602234], [-117.114000905, 47.609300234], [-117.114489905, 47.609057234], [-117.114940905, 47.609002234], [-117.115357905, 47.609122234], [-117.115550905, 47.609258234], [-117.115643905, 47.609511234], [-117.115699905, 47.609715234], [-117.115733905, 47.610017234], [-117.115827905, 47.610270234], [-117.115951905, 47.610442234], [-117.116132905, 47.610533234], [-117.116482906, 47.610593234], [-117.116748906, 47.610581234], [-117.117205906, 47.610531234], [-117.118001906, 47.610403234], [-117.118553906, 47.610373234], [-117.119024906, 47.610395233], [-117.119398906, 47.610510233], [-117.119737906, 47.610655233], [-117.120076906, 47.610724233], [-117.120316906, 47.610701233], [-117.120721906, 47.610488233], [-117.121447906, 47.609642233], [-117.122026948, 47.608904845], [-117.131719866, 47.609402843], [-117.131735908, 47.609630232], [-117.131887908, 47.609909232], [-117.132002908, 47.610070232], [-117.132242908, 47.610328232], [-117.133416909, 47.611313232], [-117.133889909, 47.611678232], [-117.134005909, 47.611781232], [-117.134278909, 47.611998232], [-117.134357909, 47.612165232], [-117.134367909, 47.612460232], [-117.13434191, 47.613184232], [-117.13422991, 47.613468232], [-117.13397191, 47.613823232], [-117.13385791, 47.614291232], [-117.13370591, 47.616801232], [-117.134112911, 47.618906233], [-117.134277911, 47.619581233], [-117.134525911, 47.620004233], [-117.134668911, 47.620186233], [-117.134922911, 47.620404233], [-117.135156911, 47.620567233], [-117.136334912, 47.620915232], [-117.136894912, 47.621043232], [-117.137222912, 47.621210232], [-117.137772912, 47.621713232], [-117.137853912, 47.621907232], [-117.137916912, 47.622112232], [-117.137871912, 47.622321232], [-117.137755912, 47.622607232], [-117.137582912, 47.622856232], [-117.137555912, 47.623201232], [-117.138044913, 47.623688232], [-117.138193913, 47.623897232], [-117.138246913, 47.624198232], [-117.138032913, 47.625126233], [-117.138001913, 47.625341233], [-117.138064913, 47.625481233], [-117.138348913, 47.625634233], [-117.138637913, 47.625710233], [-117.138812913, 47.625782233], [-117.138993913, 47.625888232], [-117.139214913, 47.626122232], [-117.139316913, 47.626297232], [-117.139377914, 47.626481233], [-117.139419914, 47.626914233], [-117.139459914, 47.627159233], [-117.139586914, 47.627329233], [-117.139877914, 47.627499233], [-117.140426914, 47.627727232], [-117.140879914, 47.627780232], [-117.142121914, 47.627776232], [-117.146728937, 47.627764114], [-117.144676328, 47.646075795], [-117.132149917, 47.645433572], [-117.132150916, 47.643987235], [-117.132141916, 47.643685234], [-117.131980916, 47.643480234], [-117.131626916, 47.643395235], [-117.130030916, 47.643202235], [-117.129610915, 47.643131235], [-117.128530915, 47.642854235], [-117.126638915, 47.642351235], [-117.125994915, 47.642147235], [-117.125812914, 47.641995235], [-117.125700914, 47.641741235], [-117.125865914, 47.639520235], [-117.125845914, 47.639263235], [-117.125735914, 47.639067235], [-117.125257914, 47.638781235], [-117.123488913, 47.637805235], [-117.123186913, 47.637628235], [-117.122924913, 47.637414235], [-117.122126913, 47.636714235], [-117.121934913, 47.636558235], [-117.121719912, 47.636477235], [-117.121195912, 47.636479235], [-117.120625912, 47.636596235], [-117.120334912, 47.636645235], [-117.120079912, 47.636618235], [-117.119868912, 47.636504235], [-117.119665912, 47.636306235], [-117.119180542, 47.635892679], [-117.119450585, 47.633494282], [-117.119629911, 47.633408235], [-117.120058911, 47.633162235], [-117.120522911, 47.632869235], [-117.120900911, 47.632674235], [-117.121269911, 47.632527235], [-117.121768912, 47.632415235], [-117.122045912, 47.632346235], [-117.122289912, 47.632216235], [-117.122480912, 47.632071235], [-117.122643912, 47.631936235], [-117.122710912, 47.631798235], [-117.122713912, 47.631594235], [-117.122504911, 47.631263235], [-117.122318911, 47.630913235], [-117.122220911, 47.630702235], [-117.122090911, 47.630458235], [-117.121947911, 47.630261235], [-117.121025911, 47.629217235], [-117.120933911, 47.629101235], [-117.12062691, 47.628884235], [-117.12037591, 47.628837235], [-117.119974406, 47.628841041], [-117.120202397, 47.626815374], [-117.113794726, 47.626485626], [-117.113752909, 47.626280235], [-117.113767908, 47.625738235], [-117.113815908, 47.625357235], [-117.113877908, 47.625019235], [-117.113958908, 47.624690235], [-117.114061908, 47.624339235], [-117.114379908, 47.623267235], [-117.114419908, 47.623036235], [-117.114425908, 47.622803235], [-117.114373908, 47.622570235], [-117.114166908, 47.622337235]]], [[[-117.040997439, 47.622713946], [-117.056203623, 47.623505651], [-117.056290897, 47.623779241], [-117.056387897, 47.623867241], [-117.056460897, 47.623999241], [-117.056663897, 47.624229241], [-117.057028897, 47.624569241], [-117.057077897, 47.624750241], [-117.057069897, 47.624905241], [-117.057125898, 47.625289241], [-117.057190898, 47.625431241], [-117.057328898, 47.625640241], [-117.057385898, 47.625876241], [-117.057482898, 47.625974241], [-117.057507898, 47.626024241], [-117.057531898, 47.626413241], [-117.057580898, 47.626528241], [-117.057580898, 47.626627241], [-117.057499898, 47.626792241], [-117.057474898, 47.626912241], [-117.057507898, 47.627044241], [-117.057636898, 47.627203241], [-117.057847898, 47.627390241], [-117.058172898, 47.627598241], [-117.058229898, 47.627735241], [-117.058310898, 47.628004241], [-117.058318898, 47.628179241], [-117.058342898, 47.628267241], [-117.058350899, 47.628854241], [-117.058277899, 47.629035241], [-117.058123899, 47.629304241], [-117.058042899, 47.629529241], [-117.058058899, 47.629721241], [-117.058050899, 47.629885241], [-117.058123899, 47.630000241], [-117.058245899, 47.630099241], [-117.058407899, 47.630269241], [-117.058756899, 47.630697241], [-117.058975899, 47.631108241], [-117.059040899, 47.631251241], [-117.059072899, 47.631388241], [-117.059178899, 47.631547241], [-117.059227899, 47.631690241], [-117.059283899, 47.631964241], [-117.0593009, 47.632436241], [-117.0592599, 47.632617241], [-117.0594629, 47.632864241], [-117.0596659, 47.633078241], [-117.0598119, 47.633270241], [-117.0599659, 47.633549241], [-117.0600709, 47.633906241], [-117.0602009, 47.634197241], [-117.0603389, 47.634361241], [-117.0604609, 47.634476241], [-117.0606959, 47.634608241], [-117.0608989, 47.634745241], [-117.0610529, 47.634871241], [-117.061215901, 47.635091241], [-117.061572901, 47.635277241], [-117.061864901, 47.635518241], [-117.062132901, 47.635727241], [-117.062213901, 47.635820241], [-117.062278901, 47.635946241], [-117.062416901, 47.636160241], [-117.062862901, 47.636731241], [-117.062878901, 47.636835241], [-117.062968901, 47.636966241], [-117.063049901, 47.637049241], [-117.063146901, 47.637098241], [-117.063268901, 47.637087241], [-117.063284901, 47.637060241], [-117.063446901, 47.636988241], [-117.063560901, 47.636961241], [-117.065641765, 47.638210839], [-117.065213576, 47.641978325], [-117.063178105, 47.659877181], [-117.041336903, 47.658740867], [-117.041336902, 47.658132245], [-117.041330902, 47.657068245], [-117.041331902, 47.656626245], [-117.041327901, 47.655256245], [-117.041317901, 47.654764245], [-117.041279901, 47.654303245], [-117.041241901, 47.654191245], [-117.041236901, 47.653799245], [-117.041238901, 47.653151245], [-117.0412309, 47.649858244], [-117.0412249, 47.647707244], [-117.041217899, 47.644717244], [-117.041211899, 47.643417244], [-117.041226899, 47.643408244], [-117.041209899, 47.643167244], [-117.041193898, 47.641220244], [-117.041155897, 47.637361244], [-117.041140897, 47.635765243], [-117.041094896, 47.631119243], [-117.041080895, 47.629604243], [-117.041072895, 47.627074243], [-117.041010894, 47.623573243], [-117.040997439, 47.622713946]]], [[[-117.462781, 47.662289], [-117.462915, 47.661026], [-117.462067, 47.660985], [-117.462542, 47.656507], [-117.469169, 47.656827], [-117.469035, 47.65809], [-117.469884, 47.658131], [-117.46941, 47.662609], [-117.462781, 47.662289]]], [[[-117.473352, 47.664828], [-117.472877, 47.669306], [-117.466248, 47.668986], [-117.466723, 47.664508], [-117.473352, 47.664828]]], [[[-117.041671909, 47.687044247], [-117.041658909, 47.686317247], [-117.041648908, 47.686037247], [-117.041670908, 47.685896247], [-117.041689908, 47.685634247], [-117.041599908, 47.683673247], [-117.041561907, 47.681910247], [-117.041602907, 47.678393246], [-117.041613907, 47.678190246], [-117.041646907, 47.677963246], [-117.041321885, 47.676744703], [-117.061140662, 47.677775915], [-117.059101245, 47.695674526], [-117.085613759, 47.697049003], [-117.112128242, 47.698417384], [-117.138644684, 47.699779666], [-117.138231717, 47.703450847], [-117.13325893, 47.704549239], [-117.13137693, 47.704978239], [-117.12901593, 47.705506239], [-117.122712929, 47.70691724], [-117.122648929, 47.70692824], [-117.120967929, 47.70730824], [-117.120315928, 47.70744624], [-117.112909927, 47.708941241], [-117.112379927, 47.709049241], [-117.110527927, 47.709455241], [-117.109252927, 47.709738242], [-117.101397926, 47.711491243], [-117.100522926, 47.711689243], [-117.099095925, 47.712023243], [-117.098712925, 47.712117243], [-117.096994925, 47.712551243], [-117.095217925, 47.713105243], [-117.093445925, 47.713668244], [-117.091737925, 47.714314244], [-117.090355924, 47.714875244], [-117.089470715, 47.715252915], [-117.083581346, 47.71494835], [-117.057059851, 47.713573015], [-117.055166212, 47.730160428], [-117.05241233, 47.731335965], [-117.041778713, 47.730782391], [-117.041794918, 47.72924125], [-117.041789918, 47.72733625], [-117.041769917, 47.721227249], [-117.041756916, 47.716989249], [-117.041757915, 47.716451249], [-117.041788915, 47.715110249], [-117.041794915, 47.714762249], [-117.041794915, 47.713671249], [-117.041797914, 47.709661249], [-117.041797913, 47.707763249], [-117.041800913, 47.703945248], [-117.041797913, 47.703578248], [-117.041803912, 47.701971248], [-117.041800912, 47.700992248], [-117.041796912, 47.700722248], [-117.041742912, 47.700331248], [-117.041705911, 47.697270248], [-117.041691911, 47.696939248], [-117.041696911, 47.696608248], [-117.041683911, 47.695407248], [-117.04162591, 47.690846247], [-117.041603909, 47.689665247], [-117.041693909, 47.689394247], [-117.041700909, 47.689329247], [-117.041701909, 47.688366247], [-117.041671909, 47.687044247]]], [[[-117.275879962, 47.722029225], [-117.275020961, 47.722054225], [-117.271347961, 47.722085225], [-117.27021496, 47.722096226], [-117.269541008, 47.722091963], [-117.271255985, 47.706499573], [-117.297784003, 47.707825245], [-117.296224293, 47.722072244], [-117.293588965, 47.722081223], [-117.285351963, 47.722065224], [-117.283251963, 47.722062224], [-117.282305963, 47.722049224], [-117.281773963, 47.722066224], [-117.280594962, 47.722058224], [-117.275879962, 47.722029225]]], [[[-117.428154999, 47.757480211], [-117.428275999, 47.760036212], [-117.428257999, 47.760264212], [-117.428297, 47.761016212], [-117.428327, 47.761151212], [-117.428377, 47.761284212], [-117.428501, 47.761489212], [-117.428632, 47.761639212], [-117.428794, 47.761776212], [-117.428964, 47.761887212], [-117.429125, 47.761971212], [-117.429298, 47.762043212], [-117.429481, 47.762103212], [-117.429672, 47.762149212], [-117.42987, 47.762181212], [-117.430071, 47.762200212], [-117.43075, 47.762237212], [-117.43079, 47.761925212], [-117.430836, 47.761818212], [-117.430901, 47.761748211], [-117.431037, 47.761667211], [-117.430858, 47.761469211], [-117.430811, 47.761392211], [-117.430796, 47.761264211], [-117.430815, 47.761204211], [-117.431401, 47.760229211], [-117.432119, 47.760406211], [-117.4323, 47.760431211], [-117.432572, 47.760434211], [-117.431855, 47.761622211], [-117.433228001, 47.761639211], [-117.436835001, 47.761688211], [-117.436835001, 47.762229211], [-117.438361002, 47.762191211], [-117.438564002, 47.762201211], [-117.438797002, 47.762229211], [-117.438991002, 47.762269211], [-117.439277002, 47.762357211], [-117.439479002, 47.762245211], [-117.439724002, 47.762167211], [-117.439897002, 47.762149211], [-117.440367002, 47.762153211], [-117.441798002, 47.76217321], [-117.443214003, 47.76218421], [-117.443222003, 47.76188421], [-117.443265003, 47.76181821], [-117.443365003, 47.76176421], [-117.443436003, 47.76175121], [-117.443720003, 47.76172921], [-117.443842003, 47.76167521], [-117.444817003, 47.76053321], [-117.446229003, 47.76160321], [-117.446460003, 47.76172121], [-117.446614003, 47.76177121], [-117.446783003, 47.76180621], [-117.447111003, 47.76184421], [-117.447231003, 47.76187021], [-117.447395003, 47.76192621], [-117.447580003, 47.76204721], [-117.447735004, 47.76216921], [-117.447845004, 47.76227521], [-117.447894004, 47.76236121], [-117.447872004, 47.76249921], [-117.447826004, 47.76255521], [-117.447707004, 47.76264021], [-117.447114004, 47.76287721], [-117.446286003, 47.76323321], [-117.446077003, 47.76330921], [-117.446074004, 47.76579321], [-117.448518005, 47.76582421], [-117.449217005, 47.76583521], [-117.451641903, 47.765867817], [-117.451012907, 47.771762979], [-117.450722006, 47.77192521], [-117.450482006, 47.77198921], [-117.450366006, 47.77191921], [-117.450164006, 47.77162821], [-117.450033006, 47.77151621], [-117.449888006, 47.77147621], [-117.449731006, 47.77148321], [-117.449583006, 47.77152021], [-117.449425006, 47.77161321], [-117.449254006, 47.77179421], [-117.449187006, 47.77189221], [-117.449111006, 47.77213821], [-117.449040006, 47.77223321], [-117.448943006, 47.77231721], [-117.448716006, 47.77246121], [-117.448475006, 47.77258621], [-117.448284006, 47.77263921], [-117.448030006, 47.77267921], [-117.447715006, 47.77267121], [-117.447556006, 47.772674211], [-117.447299006, 47.772714211], [-117.446884006, 47.772764211], [-117.446674006, 47.772775211], [-117.446517006, 47.772770211], [-117.446363006, 47.772751211], [-117.445958006, 47.772676211], [-117.445892006, 47.772621211], [-117.445856006, 47.772443211], [-117.445833005, 47.772195211], [-117.445756005, 47.772060211], [-117.445592005, 47.771921211], [-117.445405005, 47.771856211], [-117.445255005, 47.771827211], [-117.444946005, 47.771826211], [-117.444545005, 47.771902211], [-117.444350005, 47.771950211], [-117.444023005, 47.772059211], [-117.443694005, 47.772159211], [-117.443250005, 47.772255211], [-117.443042005, 47.772276211], [-117.442523005, 47.772266211], [-117.441893005, 47.772261211], [-117.441819005, 47.772299211], [-117.440906005, 47.772255211], [-117.440795004, 47.771406211], [-117.440849004, 47.771128211], [-117.440482004, 47.771025211], [-117.440329004, 47.770991211], [-117.440230004, 47.770983211], [-117.440085004, 47.771025211], [-117.439969004, 47.771099211], [-117.439734004, 47.771292211], [-117.439665004, 47.771445211], [-117.439566004, 47.771490211], [-117.439368004, 47.771658211], [-117.439330004, 47.771727211], [-117.439276004, 47.771975211], [-117.439177004, 47.772032211], [-117.439063004, 47.772150211], [-117.438948004, 47.772311211], [-117.438826004, 47.772429211], [-117.438651004, 47.772505211], [-117.438506004, 47.772547211], [-117.438254004, 47.772597211], [-117.437608004, 47.772639212], [-117.437383004, 47.772657212], [-117.436927004, 47.772681212], [-117.436293004, 47.772696212], [-117.435874004, 47.772684212], [-117.435507004, 47.772650212], [-117.435248004, 47.772654212], [-117.435095004, 47.772684212], [-117.434912004, 47.772761212], [-117.434569004, 47.772978212], [-117.434394004, 47.773112212], [-117.434035004, 47.773417212], [-117.433913004, 47.773535212], [-117.433692004, 47.773730212], [-117.433531004, 47.773825212], [-117.433394004, 47.773875212], [-117.433295004, 47.773890212], [-117.432776003, 47.773924212], [-117.432479003, 47.773989212], [-117.432212003, 47.774100212], [-117.432008003, 47.774217212], [-117.431709003, 47.774420212], [-117.431449003, 47.774543212], [-117.431161003, 47.774630212], [-117.430795003, 47.774837212], [-117.430591003, 47.774864212], [-117.430491003, 47.774842212], [-117.430017003, 47.774689212], [-117.429809003, 47.774581213], [-117.429666003, 47.774430213], [-117.429643003, 47.774251212], [-117.429698003, 47.774113212], [-117.429849003, 47.774014212], [-117.430094003, 47.773947212], [-117.430551003, 47.773869212], [-117.430689003, 47.773819212], [-117.430738003, 47.773757212], [-117.430729003, 47.773686212], [-117.430689003, 47.773619212], [-117.430593003, 47.773534212], [-117.430419003, 47.773455212], [-117.430030003, 47.773344212], [-117.429581003, 47.773259212], [-117.429318003, 47.773253212], [-117.429156003, 47.773336212], [-117.429175003, 47.773408212], [-117.429143003, 47.773514212], [-117.429026003, 47.773634213], [-117.428839003, 47.773758213], [-117.428572003, 47.773873213], [-117.428470003, 47.773889213], [-117.428284003, 47.773822213], [-117.428209003, 47.773772213], [-117.428023002, 47.773598213], [-117.427887002, 47.773445213], [-117.427795002, 47.773411213], [-117.427177002, 47.773344213], [-117.427021002, 47.773352213], [-117.426878002, 47.773455213], [-117.426679002, 47.773746213], [-117.426638002, 47.773886213], [-117.426667002, 47.774028213], [-117.426820002, 47.774171213], [-117.426859002, 47.774238213], [-117.426871002, 47.774380213], [-117.426855002, 47.774451213], [-117.426724002, 47.774685213], [-117.426575002, 47.774832213], [-117.426338002, 47.774976213], [-117.426254002, 47.775096213], [-117.426208002, 47.775308213], [-117.426128002, 47.775401213], [-117.426085002, 47.775421213], [-117.425930002, 47.775431213], [-117.425674002, 47.775399213], [-117.425464002, 47.775403213], [-117.425323002, 47.775449213], [-117.425191002, 47.775560213], [-117.425094002, 47.775727213], [-117.424913002, 47.775857213], [-117.424858002, 47.775918213], [-117.424706002, 47.775937213], [-117.424561002, 47.775979213], [-117.424336002, 47.776073213], [-117.424117002, 47.776223213], [-117.423887002, 47.776368213], [-117.423873002, 47.776409213], [-117.423787002, 47.776443213], [-117.423660002, 47.776555213], [-117.423485002, 47.776853213], [-117.423463002, 47.776993213], [-117.423456002, 47.777274213], [-117.423469002, 47.777413213], [-117.423461002, 47.777554213], [-117.423377003, 47.777759213], [-117.423353003, 47.777932213], [-117.423345003, 47.778107213], [-117.423291003, 47.778245213], [-117.423305003, 47.778601213], [-117.423301003, 47.778671213], [-117.423340003, 47.778813213], [-117.423380003, 47.779028213], [-117.423385003, 47.779135213], [-117.423348003, 47.779348214], [-117.423265003, 47.779558214], [-117.423172003, 47.779686214], [-117.423020003, 47.779833214], [-117.422779003, 47.779971214], [-117.422735003, 47.780110214], [-117.422729003, 47.780466214], [-117.422736003, 47.780573214], [-117.422723003, 47.780680214], [-117.422545003, 47.780750214], [-117.422077003, 47.780790214], [-117.421873003, 47.780824214], [-117.421751003, 47.780893214], [-117.421651003, 47.780974214], [-117.421537003, 47.781096214], [-117.421414003, 47.781292214], [-117.421297003, 47.781527214], [-117.421199003, 47.781611214], [-117.421098003, 47.781599214], [-117.421008003, 47.781563214], [-117.420914003, 47.781488214], [-117.420812003, 47.781362214], [-117.420747003, 47.781306214], [-117.420448003, 47.781014214], [-117.420099003, 47.780706214], [-117.420026003, 47.780655214], [-117.419838002, 47.780595214], [-117.419577002, 47.780585214], [-117.419052002, 47.780599214], [-117.418527002, 47.780628214], [-117.418293002, 47.780702214], [-117.418235002, 47.780760214], [-117.418211002, 47.780866214], [-117.418252002, 47.780969214], [-117.418422002, 47.781107214], [-117.418480002, 47.781244214], [-117.418426002, 47.781492214], [-117.418312002, 47.781654214], [-117.418131002, 47.781806214], [-117.417895002, 47.781944214], [-117.417389002, 47.782122214], [-117.416780002, 47.782313214], [-117.416692002, 47.782347214], [-117.416451002, 47.782476214], [-117.416073002, 47.782790215], [-117.415957002, 47.782908215], [-117.415704002, 47.783135215], [-117.415564002, 47.783323215], [-117.415503002, 47.783456215], [-117.415334002, 47.783447215], [-117.415170002, 47.783454215], [-117.414970002, 47.783486215], [-117.414848002, 47.783520215], [-117.414121002, 47.783801215], [-117.413976002, 47.783850215], [-117.413748002, 47.783909215], [-117.413513002, 47.783953215], [-117.413272002, 47.783979215], [-117.413069002, 47.783988215], [-117.412866002, 47.783985215], [-117.412664002, 47.783970215], [-117.412464002, 47.783944215], [-117.412269002, 47.783905215], [-117.412080002, 47.783856215], [-117.411183002, 47.783554215], [-117.410995001, 47.783500215], [-117.410818001, 47.783464215], [-117.410620001, 47.783441215], [-117.410452001, 47.783434215], [-117.410245001, 47.783442215], [-117.410035001, 47.783467215], [-117.409750001, 47.783523215], [-117.408976001, 47.783697215], [-117.407877001, 47.783924215], [-117.406693001, 47.784208216], [-117.406407001, 47.784273216], [-117.406085001, 47.784329216], [-117.405786001, 47.784357216], [-117.405586001, 47.784425216], [-117.405769001, 47.784681216], [-117.407407002, 47.787225216], [-117.407764002, 47.787826216], [-117.408246002, 47.788727216], [-117.408344002, 47.788972216], [-117.408546002, 47.789632216], [-117.408700003, 47.790585216], [-117.408707003, 47.791256216], [-117.408658003, 47.791962216], [-117.408595003, 47.792395216], [-117.408497003, 47.792807216], [-117.408406003, 47.793135216], [-117.408288003, 47.793478216], [-117.407841003, 47.794463216], [-117.407491004, 47.795371216], [-117.406960004, 47.796831216], [-117.406762004, 47.797467217], [-117.405761004, 47.797455217], [-117.405467004, 47.797443217], [-117.404999004, 47.797435217], [-117.404764004, 47.797464217], [-117.404624004, 47.797506217], [-117.404512004, 47.797557217], [-117.404378004, 47.797649217], [-117.404253004, 47.797808217], [-117.404219004, 47.797902217], [-117.404124004, 47.798330217], [-117.404053004, 47.798487217], [-117.403968004, 47.798580217], [-117.403795004, 47.798694217], [-117.403955004, 47.798849217], [-117.404074004, 47.799029217], [-117.404115004, 47.799157217], [-117.404125004, 47.799287217], [-117.403997004, 47.802206217], [-117.403989005, 47.802261217], [-117.403779004, 47.802251217], [-117.400916004, 47.802248217], [-117.400283004, 47.802271218], [-117.399181004, 47.802281218], [-117.395147003, 47.802371218], [-117.394742003, 47.802375218], [-117.393262002, 47.802342218], [-117.391663002, 47.802351218], [-117.390025002, 47.802363219], [-117.390028002, 47.802829219], [-117.389336002, 47.802834219], [-117.389386003, 47.809181219], [-117.388590003, 47.809189219], [-117.386223003, 47.80917022], [-117.383427002, 47.80920922], [-117.381476002, 47.80922922], [-117.380095002, 47.80923522], [-117.379140001, 47.80922022], [-117.378673001, 47.80914822], [-117.378594001, 47.80926822], [-117.378345001, 47.80980322], [-117.378253001, 47.81004822], [-117.378187001, 47.81024722], [-117.378186001, 47.81041222], [-117.378164002, 47.81074222], [-117.378193002, 47.81095822], [-117.378214002, 47.811432221], [-117.378371002, 47.811800221], [-117.378418002, 47.811932221], [-117.379352003, 47.814503221], [-117.379489003, 47.815002221], [-117.379559003, 47.815557221], [-117.379594003, 47.816305221], [-117.379617003, 47.817077221], [-117.379606003, 47.817399221], [-117.379517003, 47.817626221], [-117.379379003, 47.817844221], [-117.379233003, 47.818041221], [-117.378987004, 47.818482221], [-117.378915004, 47.818664221], [-117.378863004, 47.818963221], [-117.378847004, 47.819312221], [-117.378863464, 47.819859957], [-117.365750373, 47.819215047], [-117.365256611, 47.823763379], [-117.364377002, 47.823752223], [-117.362268002, 47.823721223], [-117.361364001, 47.823706223], [-117.359328001, 47.823669223], [-117.351902, 47.823617224], [-117.351663, 47.823629224], [-117.351393999, 47.823664224], [-117.351101999, 47.823725224], [-117.350843999, 47.823770224], [-117.350363999, 47.823863224], [-117.348543999, 47.824220225], [-117.347551999, 47.824301225], [-117.347407999, 47.823600225], [-117.347360999, 47.823182225], [-117.347356998, 47.822490225], [-117.347314998, 47.820380224], [-117.347238997, 47.817257224], [-117.347264996, 47.812733224], [-117.347284996, 47.810851224], [-117.347327996, 47.809912224], [-117.347323995, 47.809397224], [-117.347377995, 47.809107224], [-117.347522995, 47.808044224], [-117.347565995, 47.807763223], [-117.347693995, 47.807045223], [-117.348223994, 47.804793223], [-117.348742994, 47.802807223], [-117.348972994, 47.801847223], [-117.349034994, 47.801741223], [-117.349830993, 47.798852223], [-117.350244993, 47.797364222], [-117.351095993, 47.794424222], [-117.351229993, 47.793937222], [-117.351738992, 47.792107222], [-117.351779992, 47.791995222], [-117.352139992, 47.790548222], [-117.352155992, 47.790510222], [-117.352773992, 47.788523222], [-117.353149991, 47.787208221], [-117.353468991, 47.786050221], [-117.353649991, 47.785386221], [-117.353890991, 47.784521221], [-117.354056991, 47.784001221], [-117.354312991, 47.783537221], [-117.354332991, 47.783487221], [-117.354687991, 47.782995221], [-117.355115991, 47.782531221], [-117.355614991, 47.782100221], [-117.356176991, 47.781705221], [-117.356800991, 47.781302221], [-117.357449991, 47.780998221], [-117.358294991, 47.78067622], [-117.359337991, 47.78032922], [-117.362443991, 47.77932222], [-117.362961991, 47.77915722], [-117.364938992, 47.77856022], [-117.365371992, 47.77839622], [-117.365467992, 47.77836622], [-117.366855992, 47.777878219], [-117.367192992, 47.777768219], [-117.367229992, 47.777903219], [-117.367974992, 47.777664219], [-117.370092992, 47.776820219], [-117.370608992, 47.776620219], [-117.371847992, 47.776093219], [-117.372996992, 47.775623219], [-117.374148993, 47.775087218], [-117.374496993, 47.774892218], [-117.375874993, 47.774102218], [-117.377254993, 47.773280218], [-117.378383993, 47.772545218], [-117.377921993, 47.772356218], [-117.377714993, 47.772293218], [-117.377531993, 47.772249218], [-117.377363992, 47.772221218], [-117.377057992, 47.772193218], [-117.376746992, 47.772194218], [-117.376485992, 47.772215218], [-117.376011992, 47.772299218], [-117.375180992, 47.772498218], [-117.373746992, 47.772787218], [-117.372370992, 47.772874218], [-117.369560991, 47.772891219], [-117.368309991, 47.772901219], [-117.36799699, 47.770810219], [-117.36775799, 47.769202219], [-117.36774199, 47.768572219], [-117.36763499, 47.767640219], [-117.367664989, 47.765462218], [-117.367662979, 47.765298412], [-117.371573359, 47.765490856], [-117.398135974, 47.766794537], [-117.424700461, 47.768092096], [-117.426619639, 47.750182179], [-117.453176959, 47.75147281], [-117.452450814, 47.758283656], [-117.443205002, 47.75820921], [-117.441173001, 47.75819321], [-117.437606001, 47.757990211], [-117.437381001, 47.757978211], [-117.435874, 47.757893211], [-117.432156999, 47.757415211], [-117.428074999, 47.756892211], [-117.428133999, 47.757154211], [-117.428154999, 47.757480211]]], [[[-117.418737, 47.867003], [-117.425391, 47.867327], [-117.424909, 47.871805], [-117.418254, 47.87148], [-117.418737, 47.867003]]], [[[-117.36183, 47.887228], [-117.361343, 47.891705], [-117.354686, 47.891377], [-117.355174, 47.8869], [-117.36183, 47.887228]]], [[[-117.355781, 47.967406], [-117.355291, 47.971883], [-117.348625, 47.971554], [-117.349115, 47.967077], [-117.355781, 47.967406]]]]}, "properties": {}}]}