{"type": "FeatureCollection", "features": [{"type": "Feature", "geometry": {"type": "MultiPolygon", "coordinates": [[[[-117.8631683, 48.5399444], [-117.8631296, 48.5363712], [-117.8688472, 48.5362859], [-117.8714254, 48.5363163], [-117.8714983, 48.5361872], [-117.8716663, 48.5358942], [-117.8717163, 48.5358052], [-117.8721693, 48.5350172], [-117.8721903, 48.5349792], [-117.8722553, 48.5348672], [-117.8722773, 48.5348302], [-117.8725043, 48.5344322], [-117.8731883, 48.5332392], [-117.8734163, 48.5328422], [-117.8735483, 48.5326102], [-117.8739483, 48.5319142], [-117.8741383, 48.5315852], [-117.8742333, 48.5314182], [-117.8748523, 48.5303332], [-117.8754633, 48.5292622], [-117.8761003, 48.5281492], [-117.8765793, 48.5273112], [-117.8766343, 48.5272916], [-117.8836266, 48.5276034], [-117.8943445, 48.5280805], [-117.8944773, 48.5281492], [-117.8945323, 48.5281752], [-117.8946273, 48.5282212], [-117.8950793, 48.5284402], [-117.8952283, 48.5285552], [-117.8954263, 48.5289122], [-117.8954423, 48.5289942], [-117.8954753, 48.5290212], [-117.8955993, 48.5293722], [-117.8956323, 48.5294052], [-117.8956893, 48.5295312], [-117.8957393, 48.5295862], [-117.8957553, 48.5296302], [-117.8958213, 48.5297232], [-117.8958303, 48.5298002], [-117.8958873, 48.5298992], [-117.8959123, 48.5299982], [-117.8960273, 48.5302772], [-117.8968853, 48.5315112], [-117.8969513, 48.5315832], [-117.8970663, 48.5316542], [-117.8973223, 48.5317532], [-117.8974283, 48.5318012], [-117.8978263, 48.5320602], [-117.8982053, 48.5322742], [-117.8984513, 48.5323972], [-117.8984483, 48.5322532], [-117.8984453, 48.5320702], [-117.8984423, 48.5318242], [-117.8984403, 48.5316812], [-117.8984363, 48.5314562], [-117.8984273, 48.5309582], [-117.8984253, 48.5307742], [-117.8984223, 48.5305572], [-117.8984193, 48.5304142], [-117.8984193, 48.5303982], [-117.8984123, 48.5299852], [-117.8984103, 48.5298422], [-117.8984043, 48.5294582], [-117.8985143, 48.5294642], [-117.9021498, 48.5293932], [-117.9021375, 48.5291953], [-117.9021161, 48.5288505], [-117.902857, 48.5288352], [-117.9030544, 48.5288312], [-117.9029943, 48.5285742], [-117.902969, 48.5284637], [-117.910608, 48.5288025], [-117.9138506, 48.5289462], [-117.9138923, 48.5289722], [-117.9139753, 48.5290152], [-117.9143303, 48.5292292], [-117.9145173, 48.5293572], [-117.9145813, 48.5294142], [-117.9146673, 48.5295042], [-117.9148253, 48.5296882], [-117.9149503, 48.5298452], [-117.9150163, 48.5299432], [-117.9150593, 48.5300362], [-117.9150643, 48.5300472], [-117.9151023, 48.5301152], [-117.9151093, 48.5301502], [-117.9151233, 48.5301852], [-117.9151483, 48.5302172], [-117.9152543, 48.5304212], [-117.9153673, 48.5306242], [-117.9154323, 48.5307232], [-117.9154813, 48.5307872], [-117.9155363, 48.5308482], [-117.9156083, 48.5309442], [-117.9156853, 48.5310782], [-117.9157323, 48.5311422], [-117.9157943, 48.5312412], [-117.9160003, 48.5315312], [-117.9160173, 48.5315652], [-117.9161103, 48.5316922], [-117.9161273, 48.5317262], [-117.9162203, 48.5318542], [-117.9162613, 48.5319212], [-117.9163103, 48.5319842], [-117.9163773, 48.5321212], [-117.9164183, 48.5321872], [-117.9164433, 48.5322582], [-117.9164643, 48.5323652], [-117.9164663, 48.5324732], [-117.9164593, 48.5326542], [-117.9163973, 48.5327922], [-117.9162563, 48.5330272], [-117.9162463, 48.5331722], [-117.9162563, 48.5332072], [-117.9163023, 48.5332722], [-117.9163873, 48.5333632], [-117.9165163, 48.5334782], [-117.9166013, 48.5335702], [-117.9166643, 48.5336692], [-117.9166723, 48.5337052], [-117.9166893, 48.5338862], [-117.9166303, 48.5342812], [-117.9166453, 48.5344252], [-117.9166733, 48.5345682], [-117.9167493, 48.5347412], [-117.9168073, 48.5348422], [-117.9168693, 48.5349372], [-117.9168943, 48.5349752], [-117.9170803, 48.5351512], [-117.9174673, 48.5354952], [-117.9178663, 48.5357862], [-117.9182073, 48.5360132], [-117.9183253, 48.5360862], [-117.9136183, 48.5361162], [-117.9136253, 48.5364992], [-117.9136433, 48.5374772], [-117.9136503, 48.5378042], [-117.9136573, 48.5381832], [-117.9136783, 48.5393222], [-117.9136843, 48.5396322], [-117.9136843, 48.5396345], [-117.9193739, 48.5396417], [-117.9192375, 48.543024], [-117.9137468, 48.5430238], [-117.9137523, 48.5432852], [-117.9137533, 48.5433242], [-117.9137203, 48.5433502], [-117.9137013, 48.5434052], [-117.9137083, 48.5435322], [-117.9137073, 48.5435532], [-117.9136873, 48.5441092], [-117.9136143, 48.5441942], [-117.9136088, 48.5441977], [-117.9136219, 48.5449475], [-117.9138083, 48.5453292], [-117.9138263, 48.5453662], [-117.9138273, 48.5454622], [-117.9138393, 48.5464572], [-117.9138443, 48.5469052], [-117.9138629, 48.5469482], [-117.9138733, 48.5469722], [-117.9138853, 48.5470012], [-117.9139423, 48.5471342], [-117.9139853, 48.5472362], [-117.9141173, 48.5475422], [-117.9141613, 48.5476452], [-117.9141933, 48.5477202], [-117.9142903, 48.5479482], [-117.9143233, 48.5480242], [-117.9145523, 48.5485602], [-117.9150653, 48.5497652], [-117.9150703, 48.5497762], [-117.9154993, 48.5507842], [-117.9157533, 48.5511512], [-117.9159323, 48.5513562], [-117.9163753, 48.5517512], [-117.9176293, 48.5525922], [-117.9185353, 48.5532012], [-117.9186283, 48.5532632], [-117.9186433, 48.5532732], [-117.9195453, 48.5526582], [-117.9225933, 48.5506002], [-117.9249383, 48.5505902], [-117.9250143, 48.5505862], [-117.9254873, 48.5505892], [-117.925508, 48.5506183], [-117.926117, 48.5506165], [-117.9309065, 48.5581277], [-117.9254885, 48.5581277], [-117.9254985, 48.5585379], [-117.9300813, 48.5615927], [-117.9302278, 48.5613629], [-117.9303172, 48.5611724], [-117.9341517, 48.5636932], [-117.9342154, 48.5637423], [-117.9345088, 48.5639684], [-117.9348974, 48.5642877], [-117.9352193, 48.5646587], [-117.936067, 48.5657593], [-117.9360538, 48.5659303], [-117.9360387, 48.5661258], [-117.9359836, 48.5673209], [-117.9359684, 48.5679739], [-117.9359679, 48.567998], [-117.9346193, 48.5679858], [-117.9346204, 48.5679812], [-117.9346541, 48.5678452], [-117.9343892, 48.5678392], [-117.9338064, 48.5678262], [-117.9340053, 48.56584], [-117.930875, 48.5657018], [-117.9308742, 48.5656157], [-117.9322676, 48.5656307], [-117.9325112, 48.5656334], [-117.9325104, 48.5651444], [-117.9308734, 48.5651266], [-117.9303372, 48.5651208], [-117.9288854, 48.5643423], [-117.929377, 48.5635863], [-117.9291124, 48.5634768], [-117.9285581, 48.5632475], [-117.9276952, 48.5646011], [-117.9272288, 48.5644826], [-117.9272498, 48.5644442], [-117.9274521, 48.564074], [-117.9269228, 48.5631119], [-117.9269741, 48.5621046], [-117.9264929, 48.562031], [-117.9254839, 48.5618767], [-117.9254818, 48.5626888], [-117.9254819, 48.562695], [-117.9254924, 48.5633757], [-117.9251318, 48.5633751], [-117.9251199, 48.5633751], [-117.9237619, 48.5633727], [-117.9236549, 48.562528], [-117.9231899, 48.5624792], [-117.9231883, 48.5624789], [-117.9227137, 48.5623814], [-117.9223153, 48.5622638], [-117.9219351, 48.5621295], [-117.9216319, 48.5620231], [-117.9213665, 48.5618785], [-117.9209499, 48.5617332], [-117.9204876, 48.5616092], [-117.9197989, 48.5615003], [-117.9197863, 48.5614984], [-117.9194905, 48.561454], [-117.9192231, 48.5614525], [-117.9192556, 48.5650202], [-117.9163495, 48.5650289], [-117.9163443, 48.5644498], [-117.9155613, 48.5641862], [-117.9113753, 48.5627762], [-117.9099803, 48.5623062], [-117.907328, 48.5614197], [-117.9067493, 48.5612262], [-117.8970573, 48.5579862], [-117.8965473, 48.5578162], [-117.8937063, 48.5574262], [-117.8913253, 48.5570952], [-117.8841823, 48.5561022], [-117.8818023, 48.5557712], [-117.8818593, 48.5556152], [-117.8819373, 48.5553232], [-117.8820063, 48.5550072], [-117.8820213, 48.5548212], [-117.8820363, 48.5546532], [-117.8820393, 48.5545602], [-117.8820563, 48.5541132], [-117.8820553, 48.5524202], [-117.8820623, 48.5518872], [-117.8820753, 48.5509782], [-117.8820753, 48.5509442], [-117.8820763, 48.5509092], [-117.8820753, 48.5508642], [-117.8820773, 48.5501722], [-117.8820843, 48.5485172], [-117.8820863, 48.5479642], [-117.8820893, 48.5472282], [-117.8818219, 48.5472502], [-117.8818525, 48.5479283], [-117.8820041, 48.5512851], [-117.8812323, 48.5512933], [-117.8800934, 48.5513052], [-117.8799904, 48.5475191], [-117.8776875, 48.5475538], [-117.8777113, 48.548168], [-117.877734, 48.5487547], [-117.8770591, 48.5487678], [-117.8770118, 48.5475473], [-117.8748599, 48.5475668], [-117.8749633, 48.5492407], [-117.8746372, 48.5492418], [-117.8746539, 48.5500003], [-117.8747425, 48.5500029], [-117.8747768, 48.5518804], [-117.8748025, 48.5518763], [-117.8749764, 48.5519221], [-117.8752642, 48.5519217], [-117.8757801, 48.5519095], [-117.8759952, 48.5519321], [-117.8761696, 48.5519875], [-117.8763113, 48.5520856], [-117.8763849, 48.5522214], [-117.876548, 48.5527521], [-117.8766232, 48.5529499], [-117.8767552, 48.5531514], [-117.8768966, 48.5533219], [-117.8767179, 48.5533247], [-117.8768168, 48.5536485], [-117.8768983, 48.5539889], [-117.876899, 48.5539915], [-117.8770526, 48.5546325], [-117.8747725, 48.5546515], [-117.8747349, 48.5546518], [-117.8730026, 48.5546662], [-117.8729048, 48.5518399], [-117.874651, 48.5518099], [-117.8746531, 48.551649], [-117.872856, 48.5516197], [-117.8728315, 48.5474184], [-117.8727293, 48.5474192], [-117.8721253, 48.5474252], [-117.8714033, 48.5474322], [-117.8708623, 48.5474362], [-117.8689273, 48.5474532], [-117.8688333, 48.5474532], [-117.8682823, 48.5474592], [-117.8679733, 48.5474622], [-117.8632323, 48.5474712], [-117.8599953, 48.5474792], [-117.8593763, 48.5474892], [-117.8580943, 48.5474652], [-117.8580543, 48.5470462], [-117.8580113, 48.5465752], [-117.8579633, 48.5460582], [-117.8578743, 48.5450842], [-117.8588383, 48.5444978], [-117.8614183, 48.5429282], [-117.8624703, 48.5422882], [-117.8628783, 48.5420402], [-117.8631833, 48.5418572], [-117.863185, 48.5418562], [-117.8631683, 48.5399444]], [[-117.9148323, 48.5607932], [-117.9147513, 48.5607692], [-117.9145063, 48.5606782], [-117.9143613, 48.5606202], [-117.9142283, 48.5605482], [-117.9141263, 48.5604642], [-117.9144553, 48.5612632], [-117.9145733, 48.5613972], [-117.9148803, 48.5617442], [-117.9155843, 48.5622082], [-117.9159753, 48.5626392], [-117.9162323, 48.5632872], [-117.9163345, 48.5633625], [-117.9163138, 48.5610773], [-117.9158833, 48.5610112], [-117.9150163, 48.5608492], [-117.9148323, 48.5607932]]], [[[-118.0481162, 48.6022191], [-118.0489364, 48.6021663], [-118.0489355, 48.6019533], [-118.0489338, 48.6017925], [-118.048875, 48.6017692], [-118.0488518, 48.6017421], [-118.0488439, 48.6017047], [-118.0488403, 48.6015471], [-118.0494771, 48.6015177], [-118.0500781, 48.6014901], [-118.0503369, 48.6014646], [-118.0510632, 48.6013839], [-118.0517923, 48.6013458], [-118.0518222, 48.6015243], [-118.052157, 48.6015111], [-118.0548593, 48.6013772], [-118.0546674, 48.5994786], [-118.0514926, 48.5995763], [-118.0511215, 48.5959859], [-118.0514519, 48.5959762], [-118.0551674, 48.595868], [-118.0552247, 48.5958664], [-118.0553278, 48.5959393], [-118.0567892, 48.5969736], [-118.0581668, 48.5972913], [-118.0599705, 48.5969602], [-118.0601402, 48.596929], [-118.0602339, 48.5985582], [-118.0604725, 48.600415], [-118.061821, 48.600473], [-118.0616297, 48.6024313], [-118.06224, 48.6023356], [-118.06224, 48.6023358], [-118.0622448, 48.6031455], [-118.0628016, 48.6031579], [-118.0643575, 48.6031912], [-118.0644394, 48.603193], [-118.0644399, 48.603161], [-118.0644402, 48.6031359], [-118.0644546, 48.6021062], [-118.0650289, 48.6021185], [-118.064964, 48.6011156], [-118.0662029, 48.6008218], [-118.0675979, 48.6004909], [-118.0676088, 48.6008278], [-118.0689036, 48.6008503], [-118.068918, 48.6001732], [-118.069593, 48.6000188], [-118.0696241, 48.5998344], [-118.0696192, 48.5995998], [-118.0676458, 48.5995398], [-118.0676405, 48.5990772], [-118.0689787, 48.5991197], [-118.0685503, 48.5986925], [-118.0685414, 48.5982214], [-118.0685407, 48.5981859], [-118.0676157, 48.5981571], [-118.0676055, 48.5966596], [-118.0701134, 48.5967392], [-118.0701003, 48.5996926], [-118.0702683, 48.5996821], [-118.0702643, 48.5959048], [-118.0725227, 48.5959695], [-118.0719119, 48.5974018], [-118.0719847, 48.59799], [-118.0735724, 48.5979019], [-118.0735219, 48.5989132], [-118.0715673, 48.599375], [-118.0717891, 48.5996463], [-118.0737732, 48.5997563], [-118.0738111, 48.5990183], [-118.0749936, 48.5987388], [-118.0749255, 48.6012383], [-118.073426, 48.6014122], [-118.073307, 48.6011205], [-118.0731695, 48.6009705], [-118.0727758, 48.6007248], [-118.072547, 48.6008143], [-118.0715725, 48.6010543], [-118.07136, 48.6011305], [-118.0715422, 48.601482], [-118.0717673, 48.6014392], [-118.0730194, 48.6011011], [-118.0731046, 48.6012103], [-118.0733014, 48.6018317], [-118.0734188, 48.6022168], [-118.0723568, 48.6024721], [-118.0726028, 48.6034422], [-118.0736489, 48.6030841], [-118.0738975, 48.6030271], [-118.073858, 48.6029046], [-118.0748137, 48.6027871], [-118.0747048, 48.6054335], [-118.0738999, 48.6057323], [-118.0759084, 48.6058184], [-118.0758457, 48.6064614], [-118.075924, 48.6064044], [-118.0760756, 48.6063301], [-118.076228, 48.6062948], [-118.0763336, 48.606273], [-118.0764861, 48.6062538], [-118.0767881, 48.6062218], [-118.0767829, 48.6061646], [-118.0769831, 48.606147], [-118.0772029, 48.6061424], [-118.0774659, 48.6061425], [-118.0776508, 48.6061512], [-118.0778514, 48.6061598], [-118.0780323, 48.6061711], [-118.0782277, 48.6061917], [-118.0782154, 48.6073476], [-118.0764311, 48.6072845], [-118.0757668, 48.6072709], [-118.0754716, 48.6102999], [-118.0746555, 48.6102649], [-118.0750662, 48.6109195], [-118.074733, 48.610909], [-118.0729268, 48.6108526], [-118.0729079, 48.6115954], [-118.0739567, 48.6116213], [-118.0739037, 48.6127445], [-118.0728798, 48.6127215], [-118.0728649, 48.6132855], [-118.0679793, 48.6131744], [-118.0681115, 48.612742], [-118.0681369, 48.6123945], [-118.0680822, 48.6119835], [-118.0680532, 48.6117929], [-118.0678405, 48.6112377], [-118.0676258, 48.6109579], [-118.0675993, 48.6117254], [-118.0676456, 48.6118411], [-118.0677082, 48.6122397], [-118.0677102, 48.6125583], [-118.0676411, 48.6130665], [-118.0673864, 48.6144053], [-118.0648833, 48.6143331], [-118.062314, 48.614259], [-118.0623385, 48.6125931], [-118.0615658, 48.6125599], [-118.0614511, 48.6137329], [-118.0546927, 48.6134422], [-118.0547333, 48.6130276], [-118.0542706, 48.6130397], [-118.0540968, 48.6120598], [-118.0523216, 48.6121627], [-118.0511181, 48.6122229], [-118.0510933, 48.6126631], [-118.0503956, 48.6127005], [-118.0503921, 48.6122733], [-118.048392, 48.6123904], [-118.0484519, 48.6113933], [-118.0484588, 48.6112775], [-118.0513972, 48.6111152], [-118.0513195, 48.6096894], [-118.0510099, 48.609687], [-118.0509915, 48.6096869], [-118.0509221, 48.6096863], [-118.050981, 48.608305], [-118.0513111, 48.6082681], [-118.0513094, 48.6073972], [-118.0506696, 48.6074172], [-118.0489411, 48.6074712], [-118.0489406, 48.6068541], [-118.0489399, 48.6061763], [-118.0481957, 48.6062001], [-118.0481551, 48.6050457], [-118.048939, 48.6050218], [-118.048937, 48.6028123], [-118.0481048, 48.6028775], [-118.0481162, 48.6022191]], [[-118.0676622, 48.6080483], [-118.0676722, 48.6083439], [-118.068915, 48.6079458], [-118.0689465, 48.6076226], [-118.068701, 48.607704], [-118.0676622, 48.6080483]]], [[[-117.7938598, 48.9152387], [-117.7937775, 48.9152372], [-117.7936962, 48.915218], [-117.7933141, 48.9152088], [-117.7928486, 48.9152149], [-117.7924091, 48.9155008], [-117.7920105, 48.9156166], [-117.7914701, 48.9156173], [-117.7907475, 48.9157775], [-117.790134, 48.9162062], [-117.7892852, 48.9165918], [-117.7892377, 48.9166134], [-117.7874278, 48.9172412], [-117.7862737, 48.9176323], [-117.7849457, 48.9181882], [-117.783858, 48.9185682], [-117.7826873, 48.9189647], [-117.782223, 48.9190803], [-117.7816241, 48.9192294], [-117.7807934, 48.9194225], [-117.7801703, 48.9195495], [-117.7794972, 48.9196492], [-117.7787742, 48.9197434], [-117.7773704, 48.9200853], [-117.7769302, 48.9202011], [-117.7768222, 48.9202232], [-117.7768141, 48.9202945], [-117.7768558, 48.9203219], [-117.7769891, 48.9203985], [-117.7771888, 48.9204202], [-117.777455, 48.9204472], [-117.7775715, 48.92048], [-117.777988, 48.9206715], [-117.7781965, 48.9208358], [-117.7779976, 48.9209896], [-117.777449, 48.9210562], [-117.7772744, 48.9210509], [-117.7770665, 48.9210347], [-117.7768584, 48.9209911], [-117.7766004, 48.9209147], [-117.7762381, 48.9210698], [-117.7760691, 48.9211402], [-117.7757863, 48.9211022], [-117.7756943, 48.9209816], [-117.7755777, 48.920916], [-117.775245, 48.920889], [-117.774307, 48.9213016], [-117.7734189, 48.9217141], [-117.7729705, 48.9218628], [-117.7724467, 48.9218854], [-117.7716071, 48.9219304], [-117.7710863, 48.921931], [-117.7710039, 48.9219325], [-117.7709227, 48.9219094], [-117.7674234, 48.9218543], [-117.7673213, 48.9184033], [-117.7672045, 48.9144544], [-117.7780614, 48.9142157], [-117.7815385, 48.9118084], [-117.7826985, 48.9103005], [-117.7834987, 48.9092658], [-117.7837341, 48.9090208], [-117.7837848, 48.9089806], [-117.7838878, 48.9089255], [-117.7841361, 48.9087727], [-117.7841915, 48.9087456], [-117.7844454, 48.9086478], [-117.7846579, 48.9086541], [-117.7886223, 48.9087087], [-117.7885223, 48.9106688], [-117.7884234, 48.9108884], [-117.7898943, 48.9107517], [-117.7908345, 48.9106643], [-117.7906121, 48.9113587], [-117.7904485, 48.911754], [-117.7898865, 48.9124077], [-117.7940911, 48.912389], [-117.7940694, 48.9152424], [-117.7938598, 48.9152387]]], [[[-117.7575896, 48.0633849], [-117.751081, 48.0633262], [-117.7469742, 48.0632997], [-117.7469961, 48.0704941], [-117.741637, 48.0704559], [-117.7416249, 48.0663615], [-117.7416158, 48.0632671], [-117.7362573, 48.0632332], [-117.7361841, 48.0528797], [-117.7361542, 48.0486628], [-117.7434331, 48.0486515], [-117.7510806, 48.0486391], [-117.75741, 48.0487299], [-117.7574728, 48.0538558], [-117.7575896, 48.0633849]]], [[[-117.710095, 48.2846589], [-117.7075432, 48.2846665], [-117.7074141, 48.2846671], [-117.7046635, 48.2846198], [-117.7046911, 48.2811081], [-117.7046921, 48.2809889], [-117.7046924, 48.2809544], [-117.6994291, 48.2809798], [-117.6994194, 48.2771742], [-117.7021896, 48.2771971], [-117.7021805, 48.2737063], [-117.7021804, 48.2736525], [-117.7022822, 48.2736519], [-117.7049493, 48.2736378], [-117.7050318, 48.2736374], [-117.7050316, 48.2735647], [-117.7050222, 48.2699959], [-117.7050221, 48.2699422], [-117.7051294, 48.2699418], [-117.7161109, 48.2698975], [-117.7161689, 48.2698972], [-117.7161694, 48.2698421], [-117.7161762, 48.269079], [-117.7176497, 48.2690745], [-117.7176474, 48.269834], [-117.7176472, 48.2698912], [-117.7177287, 48.2698909], [-117.7207199, 48.2698786], [-117.7209153, 48.2698778], [-117.720913, 48.2697707], [-117.7263967, 48.2697605], [-117.7264067, 48.2733418], [-117.7317777, 48.2733259], [-117.7317852, 48.2735137], [-117.7371972, 48.2734258], [-117.7372917, 48.2734242], [-117.7427616, 48.2734111], [-117.7428354, 48.2769936], [-117.7372855, 48.2770017], [-117.7372802, 48.2788668], [-117.7372961, 48.2844308], [-117.7318428, 48.2812562], [-117.731875, 48.2844554], [-117.7360243, 48.2844358], [-117.7363023, 48.284436], [-117.7373036, 48.2854041], [-117.7373141, 48.2869615], [-117.7373197, 48.2878073], [-117.7294611, 48.2879156], [-117.7294727, 48.2891386], [-117.7264125, 48.2880574], [-117.7261425, 48.287962], [-117.7254065, 48.2877143], [-117.725416, 48.2864149], [-117.7254185, 48.286065], [-117.7241145, 48.2860906], [-117.7241264, 48.2844581], [-117.7238821, 48.284463], [-117.7235593, 48.2844641], [-117.7235898, 48.2861933], [-117.7235925, 48.286331], [-117.7236082, 48.287137], [-117.7209308, 48.2862278], [-117.720865, 48.2862054], [-117.7190948, 48.2856043], [-117.7182399, 48.2853139], [-117.7179958, 48.2852361], [-117.7177659, 48.285125], [-117.7175777, 48.285023], [-117.7173868, 48.284909], [-117.7171694, 48.2847718], [-117.7169477, 48.2845991], [-117.7155787, 48.284626], [-117.7154328, 48.2846207], [-117.7154366, 48.2859554], [-117.7136047, 48.285871], [-117.7136322, 48.2846374], [-117.7133387, 48.2846369], [-117.7133512, 48.2853823], [-117.7110921, 48.2853797], [-117.7110919, 48.2857551], [-117.7100789, 48.2857084], [-117.710095, 48.2846589]]], [[[-117.7190906, 48.2860604], [-117.7193062, 48.2861337], [-117.7199876, 48.2863651], [-117.7207884, 48.2866371], [-117.7207775, 48.2884402], [-117.7189665, 48.2884853], [-117.7188561, 48.2881071], [-117.7191617, 48.2880995], [-117.719065, 48.2878144], [-117.7189481, 48.2874813], [-117.7189091, 48.2874007], [-117.7190414, 48.2861215], [-117.718076, 48.286077], [-117.7181898, 48.2860752], [-117.7190476, 48.2860611], [-117.7190906, 48.2860604]]], [[[-117.7415197, 48.308955], [-117.7422709, 48.3087079], [-117.7423529, 48.3086809], [-117.7424355, 48.3086803], [-117.7436943, 48.3086724], [-117.7510091, 48.3086261], [-117.7510907, 48.3086255], [-117.7511725, 48.3086225], [-117.7521382, 48.3086279], [-117.7521777, 48.3059308], [-117.7573457, 48.3058811], [-117.7700422, 48.3064608], [-117.7697105, 48.3072842], [-117.7690392, 48.3075135], [-117.7675648, 48.3073447], [-117.7671702, 48.3074847], [-117.7656706, 48.308156], [-117.7634992, 48.3081269], [-117.7637263, 48.3085928], [-117.7604326, 48.308493], [-117.7604467, 48.3116483], [-117.7654499, 48.313806], [-117.765385, 48.3159506], [-117.7652198, 48.3193828], [-117.7642933, 48.3200445], [-117.7632695, 48.3207758], [-117.7619548, 48.32106], [-117.7614469, 48.3215431], [-117.7605509, 48.321772], [-117.7605529, 48.3230457], [-117.7511812, 48.3228989], [-117.7510847, 48.3228983], [-117.7439908, 48.3229327], [-117.7439721, 48.3216975], [-117.7439715, 48.3216517], [-117.7439517, 48.3215882], [-117.7438264, 48.3211863], [-117.7436141, 48.3207437], [-117.7433596, 48.3203579], [-117.7433124, 48.3202899], [-117.7432819, 48.3202472], [-117.7426003, 48.319293], [-117.7393389, 48.3147271], [-117.7394241, 48.3098311], [-117.739425, 48.3097774], [-117.73951, 48.3097437], [-117.7413534, 48.3090148], [-117.7414284, 48.3089851], [-117.7415197, 48.308955]]], [[[-117.8766386, 47.8566799], [-117.869981, 47.8563819], [-117.8704241, 47.8519012], [-117.8770811, 47.8521992], [-117.8766386, 47.8566799]]], [[[-117.9840164, 47.8911194], [-117.9844502, 47.886638], [-117.9911128, 47.8869296], [-117.9906795, 47.8914111], [-117.9840164, 47.8911194]]], [[[-117.8617754, 47.9026136], [-117.8622199, 47.898133], [-117.8688827, 47.8984317], [-117.8684388, 47.9029123], [-117.8617754, 47.9026136]]], [[[-118.3209773, 47.9088418], [-118.3213823, 47.9043581], [-118.3280504, 47.9046302], [-118.327646, 47.9091139], [-118.3209773, 47.9088418]]], [[[-117.8461849, 47.9179254], [-117.846631, 47.913445], [-117.8532956, 47.9137447], [-117.8528501, 47.9182252], [-117.8461849, 47.9179254]]], [[[-118.2262972, 47.9626602], [-118.2267111, 47.9581772], [-118.2333853, 47.958455], [-118.232972, 47.962938], [-118.2262972, 47.9626602]]], [[[-118.1336177, 48.2805041], [-118.1340444, 48.2760219], [-118.140759, 48.2763065], [-118.1403329, 48.2807887], [-118.1336177, 48.2805041]]], [[[-117.8391132, 48.3567881], [-117.8386595, 48.3612681], [-117.8319369, 48.3609655], [-117.832126, 48.3591002], [-117.8308705, 48.3590437], [-117.8313249, 48.3545637], [-117.8380466, 48.3548663], [-117.8378577, 48.3567316], [-117.8391132, 48.3567881]]], [[[-117.8848965, 48.4710266], [-117.8853479, 48.4665463], [-117.892085, 48.4668463], [-117.8916342, 48.4713267], [-117.8848965, 48.4710266]]], [[[-118.0993836, 48.616344], [-118.0926245, 48.6160555], [-118.0930599, 48.6115739], [-118.0998184, 48.6118623], [-118.0993836, 48.616344]]], [[[-117.791297, 47.9424039], [-117.7917482, 47.9379239], [-117.7984154, 47.9382269], [-117.7979647, 47.942707], [-117.791297, 47.9424039]]], [[[-117.7320127, 47.9968238], [-117.7324699, 47.9923442], [-117.7391434, 47.9926509], [-117.7386868, 47.9971306], [-117.7320127, 47.9968238]]], [[[-117.6180142, 48.0627031], [-117.6184823, 48.0582244], [-117.6251632, 48.058538], [-117.6246955, 48.0630168], [-117.6180142, 48.0627031]]], [[[-117.7213967, 48.1773849], [-117.7218578, 48.1729056], [-117.7285546, 48.1732137], [-117.7280941, 48.1776931], [-117.7213967, 48.1773849]]], [[[-117.714434, 48.2357246], [-117.7141272, 48.2386946], [-117.7181543, 48.2388802], [-117.7176919, 48.2433595], [-117.710986, 48.2430504], [-117.711293, 48.2400803], [-117.7072659, 48.2398945], [-117.7072662, 48.2398914], [-117.7072639, 48.2398913], [-117.7072656, 48.2398746], [-117.7072383, 48.2398733], [-117.7077016, 48.2353941], [-117.7077309, 48.2353955], [-117.7077318, 48.235387], [-117.7144366, 48.2356962], [-117.7144337, 48.2357246], [-117.714434, 48.2357246]]], [[[-117.5588866, 48.30378], [-117.5593639, 48.2993019], [-117.5660755, 48.2996202], [-117.5655987, 48.3040983], [-117.5588866, 48.30378]]], [[[-117.8180891, 48.3205685], [-117.818544, 48.3160885], [-117.8252606, 48.3163918], [-117.8248063, 48.3208717], [-117.8180891, 48.3205685]]]]}, "properties": {}}]}