{"type": "FeatureCollection", "features": [{"type": "Feature", "geometry": {"type": "MultiPolygon", "coordinates": [[[[-120.327147, 46.376243], [-120.325398, 46.376202], [-120.325552, 46.373056], [-120.32599, 46.373277], [-120.326326, 46.373447], [-120.326541, 46.373555], [-120.32707, 46.373822], [-120.327188, 46.373881], [-120.327261, 46.373917], [-120.327147, 46.376243]]]]}, "properties": {"taskId": 5, "taskX": null, "taskY": null, "taskZoom": null, "taskIsSquare": false, "taskStatus": "MAPPED", "lockedBy": null, "mappedBy": 45, "tm_project_id": "558"}}, {"type": "Feature", "geometry": {"type": "MultiPolygon", "coordinates": [[[[-120.327147, 46.376243], [-120.327028, 46.378679], [-120.325279, 46.378638], [-120.325398, 46.376202], [-120.327147, 46.376243]]]]}, "properties": {"taskId": 6, "taskX": null, "taskY": null, "taskZoom": null, "taskIsSquare": false, "taskStatus": "MAPPED", "lockedBy": null, "mappedBy": 45, "tm_project_id": "558"}}, {"type": "Feature", "geometry": {"type": "MultiPolygon", "coordinates": [[[[-120.327147, 46.376243], [-120.331693, 46.37635], [-120.331574, 46.378785], [-120.327028, 46.378679], [-120.327147, 46.376243]]]]}, "properties": {"taskId": 4, "taskX": null, "taskY": null, "taskZoom": null, "taskIsSquare": false, "taskStatus": "MAPPED", "lockedBy": null, "mappedBy": 45, "tm_project_id": "558"}}, {"type": "Feature", "geometry": {"type": "MultiPolygon", "coordinates": [[[[-120.331693, 46.37635], [-120.331702, 46.376169], [-120.332078, 46.376359], [-120.331693, 46.37635]]]]}, "properties": {"taskId": 1, "taskX": null, "taskY": null, "taskZoom": null, "taskIsSquare": false, "taskStatus": "MAPPED", "lockedBy": null, "mappedBy": 45, "tm_project_id": "558"}}, {"type": "Feature", "geometry": {"type": "MultiPolygon", "coordinates": [[[[-120.331693, 46.37635], [-120.332078, 46.376359], [-120.334736, 46.377698], [-120.336144, 46.378408], [-120.336104, 46.378457], [-120.335986, 46.378607], [-120.335972, 46.378626], [-120.335956, 46.378662], [-120.335937, 46.378705], [-120.335926, 46.378786], [-120.335924, 46.378886], [-120.331574, 46.378785], [-120.331693, 46.37635]]]]}, "properties": {"taskId": 2, "taskX": null, "taskY": null, "taskZoom": null, "taskIsSquare": false, "taskStatus": "MAPPED", "lockedBy": null, "mappedBy": 45, "tm_project_id": "558"}}, {"type": "Feature", "geometry": {"type": "MultiPolygon", "coordinates": [[[[-120.331693, 46.37635], [-120.327147, 46.376243], [-120.327261, 46.373917], [-120.327405, 46.373989], [-120.327747, 46.37416], [-120.328773, 46.374673], [-120.329116, 46.374845], [-120.330518, 46.375564], [-120.331506, 46.376071], [-120.331702, 46.376169], [-120.331693, 46.37635]]]]}, "properties": {"taskId": 3, "taskX": null, "taskY": null, "taskZoom": null, "taskIsSquare": false, "taskStatus": "MAPPED", "lockedBy": null, "mappedBy": 45, "tm_project_id": "558"}}, {"type": "Feature", "geometry": {"type": "MultiPolygon", "coordinates": [[[[-120.326477, 46.391266], [-120.326387, 46.393122], [-120.324571, 46.393116], [-120.324664, 46.391223], [-120.326477, 46.391266]]]]}, "properties": {"taskId": 15, "taskX": null, "taskY": null, "taskZoom": null, "taskIsSquare": false, "taskStatus": "MAPPED", "lockedBy": null, "mappedBy": 45, "tm_project_id": "559"}}, {"type": "Feature", "geometry": {"type": "MultiPolygon", "coordinates": [[[[-120.331178, 46.388226], [-120.335681, 46.388331], [-120.335661, 46.389646], [-120.334438, 46.389637], [-120.333751, 46.389632], [-120.33111, 46.389632], [-120.331178, 46.388226]]]]}, "properties": {"taskId": 4, "taskX": null, "taskY": null, "taskZoom": null, "taskIsSquare": false, "taskStatus": "MAPPED", "lockedBy": null, "mappedBy": 45, "tm_project_id": "559"}}, {"type": "Feature", "geometry": {"type": "MultiPolygon", "coordinates": [[[[-120.331485, 46.381933], [-120.326938, 46.381826], [-120.327092, 46.378681], [-120.331638, 46.378787], [-120.331485, 46.381933]]]]}, "properties": {"taskId": 6, "taskX": null, "taskY": null, "taskZoom": null, "taskIsSquare": false, "taskStatus": "MAPPED", "lockedBy": null, "mappedBy": 45, "tm_project_id": "559"}}, {"type": "Feature", "geometry": {"type": "MultiPolygon", "coordinates": [[[[-120.326938, 46.381826], [-120.326785, 46.384973], [-120.324971, 46.384931], [-120.325125, 46.381784], [-120.326938, 46.381826]]]]}, "properties": {"taskId": 12, "taskX": null, "taskY": null, "taskZoom": null, "taskIsSquare": false, "taskStatus": "MAPPED", "lockedBy": null, "mappedBy": 45, "tm_project_id": "559"}}, {"type": "Feature", "geometry": {"type": "MultiPolygon", "coordinates": [[[[-120.326785, 46.384973], [-120.326631, 46.388119], [-120.324818, 46.388077], [-120.324971, 46.384931], [-120.326785, 46.384973]]]]}, "properties": {"taskId": 13, "taskX": null, "taskY": null, "taskZoom": null, "taskIsSquare": false, "taskStatus": "MAPPED", "lockedBy": null, "mappedBy": 45, "tm_project_id": "559"}}, {"type": "Feature", "geometry": {"type": "MultiPolygon", "coordinates": [[[[-120.331178, 46.388226], [-120.326631, 46.388119], [-120.326785, 46.384973], [-120.331332, 46.385079], [-120.331178, 46.388226]]]]}, "properties": {"taskId": 8, "taskX": null, "taskY": null, "taskZoom": null, "taskIsSquare": false, "taskStatus": "MAPPED", "lockedBy": null, "mappedBy": 45, "tm_project_id": "559"}}, {"type": "Feature", "geometry": {"type": "MultiPolygon", "coordinates": [[[[-120.331178, 46.388226], [-120.331332, 46.385079], [-120.335778, 46.385183], [-120.335752, 46.386266], [-120.335693, 46.387628], [-120.335684, 46.388142], [-120.335681, 46.388331], [-120.331178, 46.388226]]]]}, "properties": {"taskId": 3, "taskX": null, "taskY": null, "taskZoom": null, "taskIsSquare": false, "taskStatus": "MAPPED", "lockedBy": null, "mappedBy": 45, "tm_project_id": "559"}}, {"type": "Feature", "geometry": {"type": "MultiPolygon", "coordinates": [[[[-120.326938, 46.381826], [-120.325125, 46.381784], [-120.325279, 46.378638], [-120.327092, 46.378681], [-120.326938, 46.381826]]]]}, "properties": {"taskId": 11, "taskX": null, "taskY": null, "taskZoom": null, "taskIsSquare": false, "taskStatus": "MAPPED", "lockedBy": null, "mappedBy": 45, "tm_project_id": "559"}}, {"type": "Feature", "geometry": {"type": "MultiPolygon", "coordinates": [[[[-120.331485, 46.381933], [-120.331638, 46.378787], [-120.335924, 46.378886], [-120.335922, 46.378982], [-120.335903, 46.379956], [-120.335897, 46.380281], [-120.335889, 46.380651], [-120.335883, 46.380969], [-120.335847, 46.381761], [-120.335835, 46.382034], [-120.331485, 46.381933]]]]}, "properties": {"taskId": 1, "taskX": null, "taskY": null, "taskZoom": null, "taskIsSquare": false, "taskStatus": "MAPPED", "lockedBy": null, "mappedBy": 45, "tm_project_id": "559"}}, {"type": "Feature", "geometry": {"type": "MultiPolygon", "coordinates": [[[[-120.331332, 46.385079], [-120.326785, 46.384973], [-120.326938, 46.381826], [-120.331485, 46.381933], [-120.331332, 46.385079]]]]}, "properties": {"taskId": 7, "taskX": null, "taskY": null, "taskZoom": null, "taskIsSquare": false, "taskStatus": "MAPPED", "lockedBy": null, "mappedBy": 45, "tm_project_id": "559"}}, {"type": "Feature", "geometry": {"type": "MultiPolygon", "coordinates": [[[[-120.331332, 46.385079], [-120.331485, 46.381933], [-120.335835, 46.382034], [-120.335831, 46.382131], [-120.335828, 46.382198], [-120.335823, 46.3823], [-120.335803, 46.383634], [-120.335784, 46.384941], [-120.335778, 46.385183], [-120.331332, 46.385079]]]]}, "properties": {"taskId": 2, "taskX": null, "taskY": null, "taskZoom": null, "taskIsSquare": false, "taskStatus": "MAPPED", "lockedBy": null, "mappedBy": 45, "tm_project_id": "559"}}, {"type": "Feature", "geometry": {"type": "MultiPolygon", "coordinates": [[[[-120.326477, 46.391266], [-120.330652, 46.391363], [-120.331013, 46.391606], [-120.330939, 46.393138], [-120.330619, 46.393137], [-120.328239, 46.393128], [-120.326387, 46.393122], [-120.326477, 46.391266]]]]}, "properties": {"taskId": 10, "taskX": null, "taskY": null, "taskZoom": null, "taskIsSquare": false, "taskStatus": "MAPPED", "lockedBy": null, "mappedBy": 45, "tm_project_id": "559"}}, {"type": "Feature", "geometry": {"type": "MultiPolygon", "coordinates": [[[[-120.326477, 46.391266], [-120.326631, 46.388119], [-120.331178, 46.388226], [-120.33111, 46.389632], [-120.330972, 46.389632], [-120.330769, 46.389631], [-120.329547, 46.389626], [-120.329396, 46.389625], [-120.328944, 46.389622], [-120.328794, 46.389622], [-120.328657, 46.389621], [-120.328355, 46.38962], [-120.328265, 46.389628], [-120.328246, 46.38963], [-120.328218, 46.389634], [-120.328172, 46.389642], [-120.328113, 46.389657], [-120.329136, 46.390345], [-120.330652, 46.391363], [-120.326477, 46.391266]]]]}, "properties": {"taskId": 9, "taskX": null, "taskY": null, "taskZoom": null, "taskIsSquare": false, "taskStatus": "MAPPED", "lockedBy": null, "mappedBy": 45, "tm_project_id": "559"}}, {"type": "Feature", "geometry": {"type": "MultiPolygon", "coordinates": [[[[-120.331013, 46.391606], [-120.331362, 46.391841], [-120.33222, 46.392389], [-120.33326, 46.393054], [-120.332918, 46.393145], [-120.330939, 46.393138], [-120.331013, 46.391606]]]]}, "properties": {"taskId": 5, "taskX": null, "taskY": null, "taskZoom": null, "taskIsSquare": false, "taskStatus": "MAPPED", "lockedBy": null, "mappedBy": 45, "tm_project_id": "559"}}, {"type": "Feature", "geometry": {"type": "MultiPolygon", "coordinates": [[[[-120.326631, 46.388119], [-120.326477, 46.391266], [-120.324664, 46.391223], [-120.324818, 46.388077], [-120.326631, 46.388119]]]]}, "properties": {"taskId": 14, "taskX": null, "taskY": null, "taskZoom": null, "taskIsSquare": false, "taskStatus": "MAPPED", "lockedBy": null, "mappedBy": 45, "tm_project_id": "559"}}, {"type": "Feature", "geometry": {"type": "MultiPolygon", "coordinates": [[[[-120.316297, 46.376179], [-120.320843, 46.376286], [-120.320733, 46.378532], [-120.316186, 46.378425], [-120.316297, 46.376179]]]]}, "properties": {"taskId": 10, "taskX": null, "taskY": null, "taskZoom": null, "taskIsSquare": false, "taskStatus": "READY", "lockedBy": null, "mappedBy": null, "tm_project_id": "560"}}, {"type": "Feature", "geometry": {"type": "MultiPolygon", "coordinates": [[[[-120.312214, 46.366633], [-120.307669, 46.366526], [-120.307824, 46.363379], [-120.312368, 46.363486], [-120.312214, 46.366633]]]]}, "properties": {"taskId": 18, "taskX": null, "taskY": null, "taskZoom": null, "taskIsSquare": false, "taskStatus": "MAPPED", "lockedBy": null, "mappedBy": 9, "tm_project_id": "560"}}, {"type": "Feature", "geometry": {"type": "MultiPolygon", "coordinates": [[[[-120.31206, 46.369779], [-120.307514, 46.369672], [-120.307669, 46.366526], [-120.312214, 46.366633], [-120.31206, 46.369779]]]]}, "properties": {"taskId": 19, "taskX": null, "taskY": null, "taskZoom": null, "taskIsSquare": false, "taskStatus": "MAPPED", "lockedBy": null, "mappedBy": 9, "tm_project_id": "560"}}, {"type": "Feature", "geometry": {"type": "MultiPolygon", "coordinates": [[[[-120.307824, 46.363379], [-120.303279, 46.363272], [-120.303408, 46.360644], [-120.303658, 46.360652], [-120.30381, 46.360657], [-120.30437, 46.36067], [-120.30458, 46.360674], [-120.305437, 46.360651], [-120.307961, 46.360584], [-120.307824, 46.363379]]]]}, "properties": {"taskId": 23, "taskX": null, "taskY": null, "taskZoom": null, "taskIsSquare": false, "taskStatus": "MAPPED", "lockedBy": null, "mappedBy": 9, "tm_project_id": "560"}}, {"type": "Feature", "geometry": {"type": "MultiPolygon", "coordinates": [[[[-120.307669, 46.366526], [-120.303124, 46.366419], [-120.303279, 46.363272], [-120.307824, 46.363379], [-120.307669, 46.366526]]]]}, "properties": {"taskId": 24, "taskX": null, "taskY": null, "taskZoom": null, "taskIsSquare": false, "taskStatus": "MAPPED", "lockedBy": null, "mappedBy": 9, "tm_project_id": "560"}}, {"type": "Feature", "geometry": {"type": "MultiPolygon", "coordinates": [[[[-120.307514, 46.369672], [-120.302969, 46.369565], [-120.303124, 46.366419], [-120.307669, 46.366526], [-120.307514, 46.369672]]]]}, "properties": {"taskId": 25, "taskX": null, "taskY": null, "taskZoom": null, "taskIsSquare": false, "taskStatus": "MAPPED", "lockedBy": null, "mappedBy": 9, "tm_project_id": "560"}}, {"type": "Feature", "geometry": {"type": "MultiPolygon", "coordinates": [[[[-120.311751, 46.376072], [-120.307205, 46.375965], [-120.307359, 46.372819], [-120.311905, 46.372926], [-120.311751, 46.376072]]]]}, "properties": {"taskId": 21, "taskX": null, "taskY": null, "taskZoom": null, "taskIsSquare": false, "taskStatus": "MAPPED", "lockedBy": null, "mappedBy": 9, "tm_project_id": "560"}}, {"type": "Feature", "geometry": {"type": "MultiPolygon", "coordinates": [[[[-120.307205, 46.375965], [-120.311751, 46.376072], [-120.31164, 46.378318], [-120.307094, 46.378211], [-120.307205, 46.375965]]]]}, "properties": {"taskId": 22, "taskX": null, "taskY": null, "taskZoom": null, "taskIsSquare": false, "taskStatus": "MAPPED", "lockedBy": null, "mappedBy": 9, "tm_project_id": "560"}}, {"type": "Feature", "geometry": {"type": "MultiPolygon", "coordinates": [[[[-120.302659, 46.375858], [-120.307205, 46.375965], [-120.307094, 46.378211], [-120.302548, 46.378104], [-120.302659, 46.375858]]]]}, "properties": {"taskId": 28, "taskX": null, "taskY": null, "taskZoom": null, "taskIsSquare": false, "taskStatus": "MAPPED", "lockedBy": null, "mappedBy": 9, "tm_project_id": "560"}}, {"type": "Feature", "geometry": {"type": "MultiPolygon", "coordinates": [[[[-120.320843, 46.376286], [-120.316297, 46.376179], [-120.316451, 46.373033], [-120.320997, 46.373139], [-120.320843, 46.376286]]]]}, "properties": {"taskId": 9, "taskX": null, "taskY": null, "taskZoom": null, "taskIsSquare": false, "taskStatus": "READY", "lockedBy": null, "mappedBy": null, "tm_project_id": "560"}}, {"type": "Feature", "geometry": {"type": "MultiPolygon", "coordinates": [[[[-120.302969, 46.369565], [-120.302814, 46.372712], [-120.299567, 46.372635], [-120.299722, 46.369488], [-120.302969, 46.369565]]]]}, "properties": {"taskId": 32, "taskX": null, "taskY": null, "taskZoom": null, "taskIsSquare": false, "taskStatus": "MAPPED", "lockedBy": null, "mappedBy": 9, "tm_project_id": "560"}}, {"type": "Feature", "geometry": {"type": "MultiPolygon", "coordinates": [[[[-120.302659, 46.375858], [-120.302548, 46.378104], [-120.299301, 46.378027], [-120.299412, 46.375781], [-120.302659, 46.375858]]]]}, "properties": {"taskId": 34, "taskX": null, "taskY": null, "taskZoom": null, "taskIsSquare": false, "taskStatus": "MAPPED", "lockedBy": null, "mappedBy": 9, "tm_project_id": "560"}}, {"type": "Feature", "geometry": {"type": "MultiPolygon", "coordinates": [[[[-120.320843, 46.376286], [-120.325389, 46.376392], [-120.325279, 46.378638], [-120.320733, 46.378532], [-120.320843, 46.376286]]]]}, "properties": {"taskId": 4, "taskX": null, "taskY": null, "taskZoom": null, "taskIsSquare": false, "taskStatus": "READY", "lockedBy": null, "mappedBy": null, "tm_project_id": "560"}}, {"type": "Feature", "geometry": {"type": "MultiPolygon", "coordinates": [[[[-120.321151, 46.369993], [-120.321152, 46.369968], [-120.321177, 46.369993], [-120.321151, 46.369993]]]]}, "properties": {"taskId": 1, "taskX": null, "taskY": null, "taskZoom": null, "taskIsSquare": false, "taskStatus": "READY", "lockedBy": null, "mappedBy": null, "tm_project_id": "560"}}, {"type": "Feature", "geometry": {"type": "MultiPolygon", "coordinates": [[[[-120.316759, 46.36674], [-120.316913, 46.363593], [-120.320193, 46.36367], [-120.320194, 46.363846], [-120.320197, 46.365345], [-120.320225, 46.366509], [-120.320234, 46.366821], [-120.316759, 46.36674]]]]}, "properties": {"taskId": 6, "taskX": null, "taskY": null, "taskZoom": null, "taskIsSquare": false, "taskStatus": "MAPPED", "lockedBy": null, "mappedBy": 9, "tm_project_id": "560"}}, {"type": "Feature", "geometry": {"type": "MultiPolygon", "coordinates": [[[[-120.316759, 46.36674], [-120.312214, 46.366633], [-120.312368, 46.363486], [-120.316913, 46.363593], [-120.316759, 46.36674]]]]}, "properties": {"taskId": 12, "taskX": null, "taskY": null, "taskZoom": null, "taskIsSquare": false, "taskStatus": "MAPPED", "lockedBy": null, "mappedBy": 9, "tm_project_id": "560"}}, {"type": "Feature", "geometry": {"type": "MultiPolygon", "coordinates": [[[[-120.321151, 46.369993], [-120.316605, 46.369886], [-120.316759, 46.36674], [-120.320234, 46.366821], [-120.320234, 46.366842], [-120.32023, 46.367648], [-120.32023, 46.367722], [-120.320229, 46.367768], [-120.320229, 46.367905], [-120.320229, 46.367952], [-120.320228, 46.36798], [-120.320228, 46.368063], [-120.320228, 46.368092], [-120.320542, 46.36895], [-120.320777, 46.369592], [-120.321152, 46.369968], [-120.321151, 46.369993]]]]}, "properties": {"taskId": 7, "taskX": null, "taskY": null, "taskZoom": null, "taskIsSquare": false, "taskStatus": "MAPPED", "lockedBy": null, "mappedBy": 9, "tm_project_id": "560"}}, {"type": "Feature", "geometry": {"type": "MultiPolygon", "coordinates": [[[[-120.320997, 46.373139], [-120.321151, 46.369993], [-120.321177, 46.369993], [-120.322229, 46.371052], [-120.32262, 46.371445], [-120.322874, 46.371701], [-120.323228, 46.371881], [-120.324194, 46.372372], [-120.324292, 46.372421], [-120.324648, 46.372601], [-120.324983, 46.37277], [-120.325552, 46.373056], [-120.325542, 46.373246], [-120.320997, 46.373139]]]]}, "properties": {"taskId": 2, "taskX": null, "taskY": null, "taskZoom": null, "taskIsSquare": false, "taskStatus": "MAPPED", "lockedBy": null, "mappedBy": 9, "tm_project_id": "560"}}, {"type": "Feature", "geometry": {"type": "MultiPolygon", "coordinates": [[[[-120.316451, 46.373033], [-120.311905, 46.372926], [-120.31206, 46.369779], [-120.316605, 46.369886], [-120.316451, 46.373033]]]]}, "properties": {"taskId": 14, "taskX": null, "taskY": null, "taskZoom": null, "taskIsSquare": false, "taskStatus": "READY", "lockedBy": null, "mappedBy": null, "tm_project_id": "560"}}, {"type": "Feature", "geometry": {"type": "MultiPolygon", "coordinates": [[[[-120.311751, 46.376072], [-120.316297, 46.376179], [-120.316186, 46.378425], [-120.31164, 46.378318], [-120.311751, 46.376072]]]]}, "properties": {"taskId": 16, "taskX": null, "taskY": null, "taskZoom": null, "taskIsSquare": false, "taskStatus": "READY", "lockedBy": null, "mappedBy": null, "tm_project_id": "560"}}, {"type": "Feature", "geometry": {"type": "MultiPolygon", "coordinates": [[[[-120.316297, 46.376179], [-120.314101, 46.376127], [-120.314101, 46.374553], [-120.316377, 46.374553], [-120.316297, 46.376179]]]]}, "properties": {"taskId": 36, "taskX": null, "taskY": null, "taskZoom": null, "taskIsSquare": false, "taskStatus": "READY", "lockedBy": null, "mappedBy": null, "tm_project_id": "560"}}, {"type": "Feature", "geometry": {"type": "MultiPolygon", "coordinates": [[[[-120.314101, 46.376127], [-120.311751, 46.376072], [-120.311825, 46.374553], [-120.314101, 46.374553], [-120.314101, 46.376127]]]]}, "properties": {"taskId": 38, "taskX": null, "taskY": null, "taskZoom": null, "taskIsSquare": false, "taskStatus": "READY", "lockedBy": null, "mappedBy": null, "tm_project_id": "560"}}, {"type": "Feature", "geometry": {"type": "MultiPolygon", "coordinates": [[[[-120.314101, 46.374553], [-120.314101, 46.372978], [-120.316451, 46.373033], [-120.316377, 46.374553], [-120.314101, 46.374553]]]]}, "properties": {"taskId": 35, "taskX": null, "taskY": null, "taskZoom": null, "taskIsSquare": false, "taskStatus": "READY", "lockedBy": null, "mappedBy": null, "tm_project_id": "560"}}, {"type": "Feature", "geometry": {"type": "MultiPolygon", "coordinates": [[[[-120.311825, 46.374553], [-120.311905, 46.372926], [-120.314101, 46.372978], [-120.314101, 46.374553], [-120.311825, 46.374553]]]]}, "properties": {"taskId": 37, "taskX": null, "taskY": null, "taskZoom": null, "taskIsSquare": false, "taskStatus": "READY", "lockedBy": null, "mappedBy": null, "tm_project_id": "560"}}, {"type": "Feature", "geometry": {"type": "MultiPolygon", "coordinates": [[[[-120.307359, 46.372819], [-120.302814, 46.372712], [-120.302969, 46.369565], [-120.307514, 46.369672], [-120.307359, 46.372819]]]]}, "properties": {"taskId": 26, "taskX": null, "taskY": null, "taskZoom": null, "taskIsSquare": false, "taskStatus": "MAPPED", "lockedBy": null, "mappedBy": 9, "tm_project_id": "560"}}, {"type": "Feature", "geometry": {"type": "MultiPolygon", "coordinates": [[[[-120.303124, 46.366419], [-120.302969, 46.369565], [-120.299722, 46.369488], [-120.299877, 46.366342], [-120.303124, 46.366419]]]]}, "properties": {"taskId": 31, "taskX": null, "taskY": null, "taskZoom": null, "taskIsSquare": false, "taskStatus": "MAPPED", "lockedBy": null, "mappedBy": 9, "tm_project_id": "560"}}, {"type": "Feature", "geometry": {"type": "MultiPolygon", "coordinates": [[[[-120.311905, 46.372926], [-120.309709, 46.372874], [-120.309709, 46.371299], [-120.311985, 46.371299], [-120.311905, 46.372926]]]]}, "properties": {"taskId": 40, "taskX": null, "taskY": null, "taskZoom": null, "taskIsSquare": false, "taskStatus": "READY", "lockedBy": null, "mappedBy": null, "tm_project_id": "560"}}, {"type": "Feature", "geometry": {"type": "MultiPolygon", "coordinates": [[[[-120.309709, 46.372874], [-120.307359, 46.372819], [-120.307434, 46.371299], [-120.309709, 46.371299], [-120.309709, 46.372874]]]]}, "properties": {"taskId": 42, "taskX": null, "taskY": null, "taskZoom": null, "taskIsSquare": false, "taskStatus": "MAPPED", "lockedBy": null, "mappedBy": 9, "tm_project_id": "560"}}, {"type": "Feature", "geometry": {"type": "MultiPolygon", "coordinates": [[[[-120.316913, 46.363593], [-120.312368, 46.363486], [-120.312514, 46.360525], [-120.313394, 46.360526], [-120.313876, 46.360528], [-120.314919, 46.360533], [-120.315436, 46.360536], [-120.315492, 46.360535], [-120.317064, 46.360529], [-120.316913, 46.363593]]]]}, "properties": {"taskId": 11, "taskX": null, "taskY": null, "taskZoom": null, "taskIsSquare": false, "taskStatus": "MAPPED", "lockedBy": null, "mappedBy": 9, "tm_project_id": "560"}}, {"type": "Feature", "geometry": {"type": "MultiPolygon", "coordinates": [[[[-120.303279, 46.363272], [-120.300032, 46.363196], [-120.300163, 46.360541], [-120.300814, 46.360568], [-120.301525, 46.360589], [-120.303408, 46.360644], [-120.303279, 46.363272]]]]}, "properties": {"taskId": 29, "taskX": null, "taskY": null, "taskZoom": null, "taskIsSquare": false, "taskStatus": "MAPPED", "lockedBy": null, "mappedBy": 9, "tm_project_id": "560"}}, {"type": "Feature", "geometry": {"type": "MultiPolygon", "coordinates": [[[[-120.320843, 46.376286], [-120.320997, 46.373139], [-120.325542, 46.373246], [-120.325389, 46.376392], [-120.320843, 46.376286]]]]}, "properties": {"taskId": 3, "taskX": null, "taskY": null, "taskZoom": null, "taskIsSquare": false, "taskStatus": "READY", "lockedBy": null, "mappedBy": null, "tm_project_id": "560"}}, {"type": "Feature", "geometry": {"type": "MultiPolygon", "coordinates": [[[[-120.320997, 46.373139], [-120.316451, 46.373033], [-120.316605, 46.369886], [-120.321151, 46.369993], [-120.320997, 46.373139]]]]}, "properties": {"taskId": 8, "taskX": null, "taskY": null, "taskZoom": null, "taskIsSquare": false, "taskStatus": "READY", "lockedBy": null, "mappedBy": null, "tm_project_id": "560"}}, {"type": "Feature", "geometry": {"type": "MultiPolygon", "coordinates": [[[[-120.302814, 46.372712], [-120.302659, 46.375858], [-120.299412, 46.375781], [-120.299567, 46.372635], [-120.302814, 46.372712]]]]}, "properties": {"taskId": 33, "taskX": null, "taskY": null, "taskZoom": null, "taskIsSquare": false, "taskStatus": "READY", "lockedBy": null, "mappedBy": null, "tm_project_id": "560"}}, {"type": "Feature", "geometry": {"type": "MultiPolygon", "coordinates": [[[[-120.303279, 46.363272], [-120.303124, 46.366419], [-120.299877, 46.366342], [-120.300032, 46.363196], [-120.303279, 46.363272]]]]}, "properties": {"taskId": 30, "taskX": null, "taskY": null, "taskZoom": null, "taskIsSquare": false, "taskStatus": "MAPPED", "lockedBy": null, "mappedBy": 9, "tm_project_id": "560"}}, {"type": "Feature", "geometry": {"type": "MultiPolygon", "coordinates": [[[[-120.312368, 46.363486], [-120.307824, 46.363379], [-120.307961, 46.360584], [-120.308639, 46.360566], [-120.309707, 46.360538], [-120.310094, 46.360524], [-120.310749, 46.360524], [-120.312514, 46.360525], [-120.312368, 46.363486]]]]}, "properties": {"taskId": 17, "taskX": null, "taskY": null, "taskZoom": null, "taskIsSquare": false, "taskStatus": "MAPPED", "lockedBy": null, "mappedBy": 9, "tm_project_id": "560"}}, {"type": "Feature", "geometry": {"type": "MultiPolygon", "coordinates": [[[[-120.316913, 46.363593], [-120.317064, 46.360529], [-120.317213, 46.360529], [-120.317787, 46.360528], [-120.318265, 46.360526], [-120.319699, 46.360521], [-120.320178, 46.36052], [-120.320175, 46.360637], [-120.32017, 46.360846], [-120.320171, 46.360989], [-120.320172, 46.361107], [-120.320172, 46.361144], [-120.320173, 46.361259], [-120.320174, 46.361297], [-120.320175, 46.361428], [-120.320178, 46.361821], [-120.320179, 46.361953], [-120.320188, 46.363092], [-120.320193, 46.36367], [-120.316913, 46.363593]]]]}, "properties": {"taskId": 5, "taskX": null, "taskY": null, "taskZoom": null, "taskIsSquare": false, "taskStatus": "MAPPED", "lockedBy": null, "mappedBy": 9, "tm_project_id": "560"}}, {"type": "Feature", "geometry": {"type": "MultiPolygon", "coordinates": [[[[-120.316605, 46.369886], [-120.31206, 46.369779], [-120.312214, 46.366633], [-120.316759, 46.36674], [-120.316605, 46.369886]]]]}, "properties": {"taskId": 13, "taskX": null, "taskY": null, "taskZoom": null, "taskIsSquare": false, "taskStatus": "MAPPED", "lockedBy": null, "mappedBy": 9, "tm_project_id": "560"}}, {"type": "Feature", "geometry": {"type": "MultiPolygon", "coordinates": [[[[-120.307205, 46.375965], [-120.302659, 46.375858], [-120.302814, 46.372712], [-120.307359, 46.372819], [-120.307205, 46.375965]]]]}, "properties": {"taskId": 27, "taskX": null, "taskY": null, "taskZoom": null, "taskIsSquare": false, "taskStatus": "MAPPED", "lockedBy": null, "mappedBy": 9, "tm_project_id": "560"}}, {"type": "Feature", "geometry": {"type": "MultiPolygon", "coordinates": [[[[-120.309709, 46.371299], [-120.309709, 46.369724], [-120.31206, 46.369779], [-120.311985, 46.371299], [-120.309709, 46.371299]]]]}, "properties": {"taskId": 39, "taskX": null, "taskY": null, "taskZoom": null, "taskIsSquare": false, "taskStatus": "READY", "lockedBy": null, "mappedBy": null, "tm_project_id": "560"}}, {"type": "Feature", "geometry": {"type": "MultiPolygon", "coordinates": [[[[-120.307434, 46.371299], [-120.307514, 46.369672], [-120.309709, 46.369724], [-120.309709, 46.371299], [-120.307434, 46.371299]]]]}, "properties": {"taskId": 41, "taskX": null, "taskY": null, "taskZoom": null, "taskIsSquare": false, "taskStatus": "MAPPED", "lockedBy": null, "mappedBy": 9, "tm_project_id": "560"}}, {"type": "Feature", "geometry": {"type": "MultiPolygon", "coordinates": [[[[-120.311022, 46.390904], [-120.306475, 46.390797], [-120.30663, 46.38765], [-120.311177, 46.387758], [-120.311022, 46.390904]]]]}, "properties": {"taskId": 19, "taskX": null, "taskY": null, "taskZoom": null, "taskIsSquare": false, "taskStatus": "MAPPED", "lockedBy": null, "mappedBy": 45, "tm_project_id": "561"}}, {"type": "Feature", "geometry": {"type": "MultiPolygon", "coordinates": [[[[-120.311331, 46.384611], [-120.306785, 46.384504], [-120.306939, 46.381358], [-120.311486, 46.381465], [-120.311331, 46.384611]]]]}, "properties": {"taskId": 17, "taskX": null, "taskY": null, "taskZoom": null, "taskIsSquare": false, "taskStatus": "MAPPED", "lockedBy": null, "mappedBy": 45, "tm_project_id": "561"}}, {"type": "Feature", "geometry": {"type": "MultiPolygon", "coordinates": [[[[-120.31164, 46.378318], [-120.311486, 46.381465], [-120.306939, 46.381358], [-120.307094, 46.378211], [-120.31164, 46.378318]]]]}, "properties": {"taskId": 16, "taskX": null, "taskY": null, "taskZoom": null, "taskIsSquare": false, "taskStatus": "MAPPED", "lockedBy": null, "mappedBy": 45, "tm_project_id": "561"}}, {"type": "Feature", "geometry": {"type": "MultiPolygon", "coordinates": [[[[-120.306785, 46.384504], [-120.302238, 46.384397], [-120.302393, 46.38125], [-120.306939, 46.381358], [-120.306785, 46.384504]]]]}, "properties": {"taskId": 22, "taskX": null, "taskY": null, "taskZoom": null, "taskIsSquare": false, "taskStatus": "MAPPED", "lockedBy": null, "mappedBy": 45, "tm_project_id": "561"}}, {"type": "Feature", "geometry": {"type": "MultiPolygon", "coordinates": [[[[-120.307094, 46.378211], [-120.306939, 46.381358], [-120.302393, 46.38125], [-120.302548, 46.378104], [-120.307094, 46.378211]]]]}, "properties": {"taskId": 21, "taskX": null, "taskY": null, "taskZoom": null, "taskIsSquare": false, "taskStatus": "MAPPED", "lockedBy": null, "mappedBy": 45, "tm_project_id": "561"}}, {"type": "Feature", "geometry": {"type": "MultiPolygon", "coordinates": [[[[-120.302083, 46.387543], [-120.301928, 46.39069], [-120.29868, 46.390613], [-120.298835, 46.387466], [-120.302083, 46.387543]]]]}, "properties": {"taskId": 29, "taskX": null, "taskY": null, "taskZoom": null, "taskIsSquare": false, "taskStatus": "MAPPED", "lockedBy": null, "mappedBy": 45, "tm_project_id": "561"}}, {"type": "Feature", "geometry": {"type": "MultiPolygon", "coordinates": [[[[-120.302238, 46.384397], [-120.302083, 46.387543], [-120.298835, 46.387466], [-120.29899, 46.38432], [-120.302238, 46.384397]]]]}, "properties": {"taskId": 28, "taskX": null, "taskY": null, "taskZoom": null, "taskIsSquare": false, "taskStatus": "MAPPED", "lockedBy": null, "mappedBy": 45, "tm_project_id": "561"}}, {"type": "Feature", "geometry": {"type": "MultiPolygon", "coordinates": [[[[-120.302393, 46.38125], [-120.302238, 46.384397], [-120.29899, 46.38432], [-120.299146, 46.381174], [-120.302393, 46.38125]]]]}, "properties": {"taskId": 27, "taskX": null, "taskY": null, "taskZoom": null, "taskIsSquare": false, "taskStatus": "MAPPED", "lockedBy": null, "mappedBy": 45, "tm_project_id": "561"}}, {"type": "Feature", "geometry": {"type": "MultiPolygon", "coordinates": [[[[-120.315724, 46.387864], [-120.311177, 46.387758], [-120.311331, 46.384611], [-120.315878, 46.384718], [-120.315724, 46.387864]]]]}, "properties": {"taskId": 13, "taskX": null, "taskY": null, "taskZoom": null, "taskIsSquare": false, "taskStatus": "MAPPED", "lockedBy": null, "mappedBy": 45, "tm_project_id": "561"}}, {"type": "Feature", "geometry": {"type": "MultiPolygon", "coordinates": [[[[-120.320116, 46.391118], [-120.320019, 46.393102], [-120.32001, 46.393102], [-120.31987, 46.393101], [-120.31957, 46.3931], [-120.318635, 46.393097], [-120.31825, 46.393096], [-120.317811, 46.393095], [-120.316911, 46.393017], [-120.316722, 46.393001], [-120.316686, 46.391037], [-120.320116, 46.391118]]]]}, "properties": {"taskId": 10, "taskX": null, "taskY": null, "taskZoom": null, "taskIsSquare": false, "taskStatus": "MAPPED", "lockedBy": null, "mappedBy": 45, "tm_project_id": "561"}}, {"type": "Feature", "geometry": {"type": "MultiPolygon", "coordinates": [[[[-120.315724, 46.387864], [-120.320271, 46.387971], [-120.320116, 46.391118], [-120.316686, 46.391037], [-120.316675, 46.390484], [-120.316659, 46.389582], [-120.316587, 46.38958], [-120.316533, 46.389579], [-120.316371, 46.389577], [-120.316299, 46.389576], [-120.316149, 46.389573], [-120.315698, 46.389566], [-120.31564, 46.389565], [-120.315724, 46.387864]]]]}, "properties": {"taskId": 9, "taskX": null, "taskY": null, "taskZoom": null, "taskIsSquare": false, "taskStatus": "MAPPED", "lockedBy": null, "mappedBy": 45, "tm_project_id": "561"}}, {"type": "Feature", "geometry": {"type": "MultiPolygon", "coordinates": [[[[-120.320116, 46.391118], [-120.324664, 46.391224], [-120.324571, 46.393116], [-120.322662, 46.39311], [-120.320019, 46.393102], [-120.320116, 46.391118]]]]}, "properties": {"taskId": 5, "taskX": null, "taskY": null, "taskZoom": null, "taskIsSquare": false, "taskStatus": "MAPPED", "lockedBy": null, "mappedBy": 45, "tm_project_id": "561"}}, {"type": "Feature", "geometry": {"type": "MultiPolygon", "coordinates": [[[[-120.320116, 46.391118], [-120.320271, 46.387971], [-120.324818, 46.388078], [-120.324664, 46.391224], [-120.320116, 46.391118]]]]}, "properties": {"taskId": 4, "taskX": null, "taskY": null, "taskZoom": null, "taskIsSquare": false, "taskStatus": "MAPPED", "lockedBy": null, "mappedBy": 45, "tm_project_id": "561"}}, {"type": "Feature", "geometry": {"type": "MultiPolygon", "coordinates": [[[[-120.320271, 46.387971], [-120.320425, 46.384825], [-120.324971, 46.384931], [-120.324818, 46.388078], [-120.320271, 46.387971]]]]}, "properties": {"taskId": 3, "taskX": null, "taskY": null, "taskZoom": null, "taskIsSquare": false, "taskStatus": "MAPPED", "lockedBy": null, "mappedBy": 45, "tm_project_id": "561"}}, {"type": "Feature", "geometry": {"type": "MultiPolygon", "coordinates": [[[[-120.320271, 46.387971], [-120.315724, 46.387864], [-120.315878, 46.384718], [-120.320425, 46.384825], [-120.320271, 46.387971]]]]}, "properties": {"taskId": 8, "taskX": null, "taskY": null, "taskZoom": null, "taskIsSquare": false, "taskStatus": "MAPPED", "lockedBy": null, "mappedBy": 45, "tm_project_id": "561"}}, {"type": "Feature", "geometry": {"type": "MultiPolygon", "coordinates": [[[[-120.320425, 46.384825], [-120.320579, 46.381678], [-120.325125, 46.381785], [-120.324971, 46.384931], [-120.320425, 46.384825]]]]}, "properties": {"taskId": 2, "taskX": null, "taskY": null, "taskZoom": null, "taskIsSquare": false, "taskStatus": "MAPPED", "lockedBy": null, "mappedBy": 45, "tm_project_id": "561"}}, {"type": "Feature", "geometry": {"type": "MultiPolygon", "coordinates": [[[[-120.316186, 46.378425], [-120.316032, 46.381572], [-120.311486, 46.381465], [-120.31164, 46.378318], [-120.316186, 46.378425]]]]}, "properties": {"taskId": 11, "taskX": null, "taskY": null, "taskZoom": null, "taskIsSquare": false, "taskStatus": "MAPPED", "lockedBy": null, "mappedBy": 45, "tm_project_id": "561"}}, {"type": "Feature", "geometry": {"type": "MultiPolygon", "coordinates": [[[[-120.306475, 46.390797], [-120.301928, 46.39069], [-120.302083, 46.387543], [-120.30663, 46.38765], [-120.306475, 46.390797]]]]}, "properties": {"taskId": 24, "taskX": null, "taskY": null, "taskZoom": null, "taskIsSquare": false, "taskStatus": "MAPPED", "lockedBy": null, "mappedBy": 45, "tm_project_id": "561"}}, {"type": "Feature", "geometry": {"type": "MultiPolygon", "coordinates": [[[[-120.320425, 46.384825], [-120.315878, 46.384718], [-120.316032, 46.381572], [-120.320579, 46.381678], [-120.320425, 46.384825]]]]}, "properties": {"taskId": 7, "taskX": null, "taskY": null, "taskZoom": null, "taskIsSquare": false, "taskStatus": "MAPPED", "lockedBy": null, "mappedBy": 45, "tm_project_id": "561"}}, {"type": "Feature", "geometry": {"type": "MultiPolygon", "coordinates": [[[[-120.325279, 46.378638], [-120.325125, 46.381785], [-120.320579, 46.381678], [-120.320733, 46.378532], [-120.325279, 46.378638]]]]}, "properties": {"taskId": 1, "taskX": null, "taskY": null, "taskZoom": null, "taskIsSquare": false, "taskStatus": "MAPPED", "lockedBy": null, "mappedBy": 45, "tm_project_id": "561"}}, {"type": "Feature", "geometry": {"type": "MultiPolygon", "coordinates": [[[[-120.320733, 46.378532], [-120.320579, 46.381678], [-120.316032, 46.381572], [-120.316186, 46.378425], [-120.320733, 46.378532]]]]}, "properties": {"taskId": 6, "taskX": null, "taskY": null, "taskZoom": null, "taskIsSquare": false, "taskStatus": "MAPPED", "lockedBy": null, "mappedBy": 45, "tm_project_id": "561"}}, {"type": "Feature", "geometry": {"type": "MultiPolygon", "coordinates": [[[[-120.301928, 46.39069], [-120.306475, 46.390797], [-120.306358, 46.393163], [-120.305982, 46.393161], [-120.305906, 46.393161], [-120.304392, 46.39315], [-120.304219, 46.393149], [-120.304103, 46.393148], [-120.301807, 46.393132], [-120.301928, 46.39069]]]]}, "properties": {"taskId": 25, "taskX": null, "taskY": null, "taskZoom": null, "taskIsSquare": false, "taskStatus": "MAPPED", "lockedBy": null, "mappedBy": 45, "tm_project_id": "561"}}, {"type": "Feature", "geometry": {"type": "MultiPolygon", "coordinates": [[[[-120.30663, 46.38765], [-120.302083, 46.387543], [-120.302238, 46.384397], [-120.306785, 46.384504], [-120.30663, 46.38765]]]]}, "properties": {"taskId": 23, "taskX": null, "taskY": null, "taskZoom": null, "taskIsSquare": false, "taskStatus": "MAPPED", "lockedBy": null, "mappedBy": 45, "tm_project_id": "561"}}, {"type": "Feature", "geometry": {"type": "MultiPolygon", "coordinates": [[[[-120.306475, 46.390797], [-120.311022, 46.390904], [-120.31091, 46.393184], [-120.309308, 46.393177], [-120.307987, 46.393171], [-120.306358, 46.393163], [-120.306475, 46.390797]]]]}, "properties": {"taskId": 20, "taskX": null, "taskY": null, "taskZoom": null, "taskIsSquare": false, "taskStatus": "MAPPED", "lockedBy": null, "mappedBy": 45, "tm_project_id": "561"}}, {"type": "Feature", "geometry": {"type": "MultiPolygon", "coordinates": [[[[-120.311022, 46.390904], [-120.314634, 46.390989], [-120.314603, 46.392633], [-120.314593, 46.393206], [-120.314373, 46.393205], [-120.313271, 46.393197], [-120.31167, 46.393188], [-120.31091, 46.393184], [-120.311022, 46.390904]]]]}, "properties": {"taskId": 15, "taskX": null, "taskY": null, "taskZoom": null, "taskIsSquare": false, "taskStatus": "MAPPED", "lockedBy": null, "mappedBy": 45, "tm_project_id": "561"}}, {"type": "Feature", "geometry": {"type": "MultiPolygon", "coordinates": [[[[-120.311022, 46.390904], [-120.311177, 46.387758], [-120.315724, 46.387864], [-120.31564, 46.389565], [-120.315549, 46.389564], [-120.315371, 46.389561], [-120.314838, 46.389552], [-120.314661, 46.38955], [-120.314647, 46.389708], [-120.314642, 46.389767], [-120.31465, 46.390133], [-120.314649, 46.390185], [-120.314646, 46.390344], [-120.314635, 46.390916], [-120.314634, 46.390989], [-120.311022, 46.390904]]]]}, "properties": {"taskId": 14, "taskX": null, "taskY": null, "taskZoom": null, "taskIsSquare": false, "taskStatus": "MAPPED", "lockedBy": null, "mappedBy": 45, "tm_project_id": "561"}}, {"type": "Feature", "geometry": {"type": "MultiPolygon", "coordinates": [[[[-120.311177, 46.387758], [-120.30663, 46.38765], [-120.306785, 46.384504], [-120.311331, 46.384611], [-120.311177, 46.387758]]]]}, "properties": {"taskId": 18, "taskX": null, "taskY": null, "taskZoom": null, "taskIsSquare": false, "taskStatus": "MAPPED", "lockedBy": null, "mappedBy": 45, "tm_project_id": "561"}}, {"type": "Feature", "geometry": {"type": "MultiPolygon", "coordinates": [[[[-120.315878, 46.384718], [-120.311331, 46.384611], [-120.311486, 46.381465], [-120.316032, 46.381572], [-120.315878, 46.384718]]]]}, "properties": {"taskId": 12, "taskX": null, "taskY": null, "taskZoom": null, "taskIsSquare": false, "taskStatus": "MAPPED", "lockedBy": null, "mappedBy": 45, "tm_project_id": "561"}}, {"type": "Feature", "geometry": {"type": "MultiPolygon", "coordinates": [[[[-120.302548, 46.378104], [-120.302393, 46.38125], [-120.299146, 46.381174], [-120.299301, 46.378027], [-120.302548, 46.378104]]]]}, "properties": {"taskId": 26, "taskX": null, "taskY": null, "taskZoom": null, "taskIsSquare": false, "taskStatus": "MAPPED", "lockedBy": null, "mappedBy": 45, "tm_project_id": "561"}}, {"type": "Feature", "geometry": {"type": "MultiPolygon", "coordinates": [[[[-120.301928, 46.39069], [-120.301807, 46.393132], [-120.30013, 46.393121], [-120.299967, 46.39312], [-120.298879, 46.393114], [-120.298556, 46.393112], [-120.29868, 46.390613], [-120.301928, 46.39069]]]]}, "properties": {"taskId": 30, "taskX": null, "taskY": null, "taskZoom": null, "taskIsSquare": false, "taskStatus": "MAPPED", "lockedBy": null, "mappedBy": 45, "tm_project_id": "561"}}, {"type": "Feature", "geometry": {"type": "MultiPolygon", "coordinates": [[[[-120.294843, 46.376132], [-120.299389, 46.376239], [-120.299301, 46.378027], [-120.294755, 46.377919], [-120.294843, 46.376132]]]]}, "properties": {"taskId": 6, "taskX": null, "taskY": null, "taskZoom": null, "taskIsSquare": false, "taskStatus": "READY", "lockedBy": null, "mappedBy": null, "tm_project_id": "562"}}, {"type": "Feature", "geometry": {"type": "MultiPolygon", "coordinates": [[[[-120.294843, 46.376132], [-120.294999, 46.372985], [-120.299544, 46.373093], [-120.299389, 46.376239], [-120.294843, 46.376132]]]]}, "properties": {"taskId": 5, "taskX": null, "taskY": null, "taskZoom": null, "taskIsSquare": false, "taskStatus": "READY", "lockedBy": null, "mappedBy": null, "tm_project_id": "562"}}, {"type": "Feature", "geometry": {"type": "MultiPolygon", "coordinates": [[[[-120.295309, 46.366692], [-120.295154, 46.369839], [-120.294032, 46.369812], [-120.294034, 46.369554], [-120.294037, 46.369187], [-120.294044, 46.368414], [-120.294038, 46.368087], [-120.294032, 46.367721], [-120.294029, 46.367596], [-120.294023, 46.367223], [-120.294021, 46.367099], [-120.294021, 46.366998], [-120.294021, 46.366695], [-120.294022, 46.366662], [-120.295309, 46.366692]]]]}, "properties": {"taskId": 9, "taskX": null, "taskY": null, "taskZoom": null, "taskIsSquare": false, "taskStatus": "READY", "lockedBy": null, "mappedBy": null, "tm_project_id": "562"}}, {"type": "Feature", "geometry": {"type": "MultiPolygon", "coordinates": [[[[-120.295465, 46.363546], [-120.295309, 46.366692], [-120.294022, 46.366662], [-120.294022, 46.366595], [-120.294022, 46.366577], [-120.294022, 46.366523], [-120.294023, 46.366506], [-120.294026, 46.365276], [-120.294027, 46.364931], [-120.293999, 46.363511], [-120.295465, 46.363546]]]]}, "properties": {"taskId": 8, "taskX": null, "taskY": null, "taskZoom": null, "taskIsSquare": false, "taskStatus": "READY", "lockedBy": null, "mappedBy": null, "tm_project_id": "562"}}, {"type": "Feature", "geometry": {"type": "MultiPolygon", "coordinates": [[[[-120.295309, 46.366692], [-120.295465, 46.363546], [-120.30001, 46.363653], [-120.299855, 46.3668], [-120.295309, 46.366692]]]]}, "properties": {"taskId": 2, "taskX": null, "taskY": null, "taskZoom": null, "taskIsSquare": false, "taskStatus": "READY", "lockedBy": null, "mappedBy": null, "tm_project_id": "562"}}, {"type": "Feature", "geometry": {"type": "MultiPolygon", "coordinates": [[[[-120.295154, 46.369839], [-120.295309, 46.366692], [-120.299855, 46.3668], [-120.299699, 46.369946], [-120.295154, 46.369839]]]]}, "properties": {"taskId": 3, "taskX": null, "taskY": null, "taskZoom": null, "taskIsSquare": false, "taskStatus": "READY", "lockedBy": null, "mappedBy": null, "tm_project_id": "562"}}, {"type": "Feature", "geometry": {"type": "MultiPolygon", "coordinates": [[[[-120.294999, 46.372985], [-120.295154, 46.369839], [-120.299699, 46.369946], [-120.299544, 46.373093], [-120.294999, 46.372985]]]]}, "properties": {"taskId": 4, "taskX": null, "taskY": null, "taskZoom": null, "taskIsSquare": false, "taskStatus": "READY", "lockedBy": null, "mappedBy": null, "tm_project_id": "562"}}, {"type": "Feature", "geometry": {"type": "MultiPolygon", "coordinates": [[[[-120.294843, 46.376132], [-120.294755, 46.377919], [-120.29396, 46.3779], [-120.293965, 46.377664], [-120.293971, 46.37744], [-120.293972, 46.37735], [-120.293978, 46.377082], [-120.293981, 46.376993], [-120.293981, 46.376781], [-120.293983, 46.376148], [-120.293983, 46.376111], [-120.294843, 46.376132]]]]}, "properties": {"taskId": 12, "taskX": null, "taskY": null, "taskZoom": null, "taskIsSquare": false, "taskStatus": "READY", "lockedBy": null, "mappedBy": null, "tm_project_id": "562"}}, {"type": "Feature", "geometry": {"type": "MultiPolygon", "coordinates": [[[[-120.295154, 46.369839], [-120.294999, 46.372985], [-120.294007, 46.372962], [-120.294017, 46.371951], [-120.29402, 46.371429], [-120.294027, 46.370484], [-120.294032, 46.369812], [-120.295154, 46.369839]]]]}, "properties": {"taskId": 10, "taskX": null, "taskY": null, "taskZoom": null, "taskIsSquare": false, "taskStatus": "READY", "lockedBy": null, "mappedBy": null, "tm_project_id": "562"}}, {"type": "Feature", "geometry": {"type": "MultiPolygon", "coordinates": [[[[-120.294999, 46.372985], [-120.294843, 46.376132], [-120.293983, 46.376111], [-120.293984, 46.375937], [-120.293984, 46.375729], [-120.293985, 46.375108], [-120.293986, 46.374902], [-120.293986, 46.37483], [-120.293989, 46.374617], [-120.29399, 46.374547], [-120.29399, 46.374478], [-120.293992, 46.374352], [-120.293993, 46.374274], [-120.293994, 46.374206], [-120.294003, 46.373275], [-120.294007, 46.372962], [-120.294999, 46.372985]]]]}, "properties": {"taskId": 11, "taskX": null, "taskY": null, "taskZoom": null, "taskIsSquare": false, "taskStatus": "READY", "lockedBy": null, "mappedBy": null, "tm_project_id": "562"}}, {"type": "Feature", "geometry": {"type": "MultiPolygon", "coordinates": [[[[-120.295465, 46.363546], [-120.29562, 46.360405], [-120.29761, 46.36046], [-120.29944, 46.360515], [-120.299837, 46.360528], [-120.300163, 46.360541], [-120.30001, 46.363653], [-120.295465, 46.363546]]]]}, "properties": {"taskId": 1, "taskX": null, "taskY": null, "taskZoom": null, "taskIsSquare": false, "taskStatus": "READY", "lockedBy": null, "mappedBy": null, "tm_project_id": "562"}}, {"type": "Feature", "geometry": {"type": "MultiPolygon", "coordinates": [[[[-120.295465, 46.363546], [-120.293999, 46.363511], [-120.29396, 46.361589], [-120.293956, 46.361362], [-120.293944, 46.36036], [-120.295318, 46.360397], [-120.29562, 46.360405], [-120.295465, 46.363546]]]]}, "properties": {"taskId": 7, "taskX": null, "taskY": null, "taskZoom": null, "taskIsSquare": false, "taskStatus": "READY", "lockedBy": null, "mappedBy": null, "tm_project_id": "562"}}, {"type": "Feature", "geometry": {"type": "MultiPolygon", "coordinates": [[[[-120.294599, 46.381066], [-120.293927, 46.38105], [-120.293929, 46.38041], [-120.293934, 46.379679], [-120.293945, 46.378564], [-120.293949, 46.378339], [-120.29396, 46.3779], [-120.294755, 46.377919], [-120.294599, 46.381066]]]]}, "properties": {"taskId": 6, "taskX": null, "taskY": null, "taskZoom": null, "taskIsSquare": false, "taskStatus": "READY", "lockedBy": null, "mappedBy": null, "tm_project_id": "563"}}, {"type": "Feature", "geometry": {"type": "MultiPolygon", "coordinates": [[[[-120.294132, 46.390505], [-120.29868, 46.390612], [-120.298556, 46.393112], [-120.297963, 46.39311], [-120.297095, 46.393105], [-120.295974, 46.3931], [-120.294494, 46.393087], [-120.294005, 46.393083], [-120.294132, 46.390505]]]]}, "properties": {"taskId": 5, "taskX": null, "taskY": null, "taskZoom": null, "taskIsSquare": false, "taskStatus": "READY", "lockedBy": null, "mappedBy": null, "tm_project_id": "563"}}, {"type": "Feature", "geometry": {"type": "MultiPolygon", "coordinates": [[[[-120.294132, 46.390505], [-120.294288, 46.387358], [-120.298835, 46.387466], [-120.29868, 46.390612], [-120.294132, 46.390505]]]]}, "properties": {"taskId": 4, "taskX": null, "taskY": null, "taskZoom": null, "taskIsSquare": false, "taskStatus": "READY", "lockedBy": null, "mappedBy": null, "tm_project_id": "563"}}, {"type": "Feature", "geometry": {"type": "MultiPolygon", "coordinates": [[[[-120.294288, 46.387358], [-120.294444, 46.384212], [-120.29899, 46.38432], [-120.298835, 46.387466], [-120.294288, 46.387358]]]]}, "properties": {"taskId": 3, "taskX": null, "taskY": null, "taskZoom": null, "taskIsSquare": false, "taskStatus": "READY", "lockedBy": null, "mappedBy": null, "tm_project_id": "563"}}, {"type": "Feature", "geometry": {"type": "MultiPolygon", "coordinates": [[[[-120.294444, 46.384212], [-120.294599, 46.381066], [-120.299146, 46.381173], [-120.29899, 46.38432], [-120.294444, 46.384212]]]]}, "properties": {"taskId": 2, "taskX": null, "taskY": null, "taskZoom": null, "taskIsSquare": false, "taskStatus": "READY", "lockedBy": null, "mappedBy": null, "tm_project_id": "563"}}, {"type": "Feature", "geometry": {"type": "MultiPolygon", "coordinates": [[[[-120.294444, 46.384212], [-120.294288, 46.387358], [-120.293812, 46.387347], [-120.293852, 46.385972], [-120.293854, 46.385906], [-120.293882, 46.385002], [-120.293907, 46.384199], [-120.294444, 46.384212]]]]}, "properties": {"taskId": 8, "taskX": null, "taskY": null, "taskZoom": null, "taskIsSquare": false, "taskStatus": "READY", "lockedBy": null, "mappedBy": null, "tm_project_id": "563"}}, {"type": "Feature", "geometry": {"type": "MultiPolygon", "coordinates": [[[[-120.294599, 46.381066], [-120.294444, 46.384212], [-120.293907, 46.384199], [-120.293916, 46.383885], [-120.293916, 46.383742], [-120.293919, 46.382853], [-120.293922, 46.382168], [-120.293927, 46.38105], [-120.294599, 46.381066]]]]}, "properties": {"taskId": 7, "taskX": null, "taskY": null, "taskZoom": null, "taskIsSquare": false, "taskStatus": "READY", "lockedBy": null, "mappedBy": null, "tm_project_id": "563"}}, {"type": "Feature", "geometry": {"type": "MultiPolygon", "coordinates": [[[[-120.294288, 46.387358], [-120.294132, 46.390505], [-120.293711, 46.390495], [-120.293738, 46.389728], [-120.293768, 46.388891], [-120.293768, 46.388847], [-120.293772, 46.388716], [-120.293774, 46.388673], [-120.293802, 46.387686], [-120.293812, 46.387347], [-120.294288, 46.387358]]]]}, "properties": {"taskId": 9, "taskX": null, "taskY": null, "taskZoom": null, "taskIsSquare": false, "taskStatus": "READY", "lockedBy": null, "mappedBy": null, "tm_project_id": "563"}}, {"type": "Feature", "geometry": {"type": "MultiPolygon", "coordinates": [[[[-120.294599, 46.381066], [-120.294755, 46.377919], [-120.299301, 46.378027], [-120.299146, 46.381173], [-120.294599, 46.381066]]]]}, "properties": {"taskId": 1, "taskX": null, "taskY": null, "taskZoom": null, "taskIsSquare": false, "taskStatus": "READY", "lockedBy": null, "mappedBy": null, "tm_project_id": "563"}}, {"type": "Feature", "geometry": {"type": "MultiPolygon", "coordinates": [[[[-120.294132, 46.390505], [-120.294005, 46.393083], [-120.293627, 46.39308], [-120.293653, 46.392242], [-120.2937, 46.390798], [-120.293711, 46.390495], [-120.294132, 46.390505]]]]}, "properties": {"taskId": 10, "taskX": null, "taskY": null, "taskZoom": null, "taskIsSquare": false, "taskStatus": "READY", "lockedBy": null, "mappedBy": null, "tm_project_id": "563"}}]}